id,name,lat,long,addr:street,addr:housenumber,addr:city,addr:postcode,cuisine_or_amenity,opening_hours
249485841,Centimeter VII,16.3415571,48.2174462,Währinger Gürtel,1,Wien,1180,restaurant,"Mo-Th 09:00-24:00; Fr,Sa 09:00-01:00; Su,PH 09:00-24:00"
249485842,Centimeter VI,16.328458,48.230999,Gersthofer Straße,51,Wien,1180,restaurant,"Mo-Th 09:00-24:00; Fr,Sa 09:00-01:00; Su,PH 09:00-24:00"
249884080,Adam's Kebab,16.3290178,48.2314688,,,,,fast_food,"Mo-Fr 09:00-22:00; PH,Sa,Su 10:00-22:00"
249884081,Diglas am Markt,16.3289347,48.2314924,Gersthofer Markt,7-11,Wien,1180,restaurant,Mo-Fr 18:00-18:00; Sa 08:00-12:00
249894264,Pizza Mann,16.3288166,48.2310657,Gersthofer Straße,2a,Wien,1180,fast_food,Mo-Su 11:00-00:00
250077138,Edelmann,16.3271549,48.2277883,Gersthofer Straße,21,Wien,1180,restaurant,
251208541,Nordsee,16.3443194,48.2264315,Währinger Straße,112,Wien,1180,fast_food,"Sa 09:00-15:00; Su,PH off; Mo-We 09:00-19:00; Th,Fr 08:00-19:00"
251523468,BioFrische,16.337033,48.228427,,,,,indian,Mo-Su 11:00-22:00
252466466,Wen's Nudeln,16.3427745,48.226475,Währinger Straße,105,Wien,1180,fast_food,"PH,Su-Fr 10:30-22:00"
252467398,Pasta e Basta,16.3310962,48.2301421,Gentzgasse,127,Wien,1180,restaurant,
252467399,Zum gemütlichen Weinhauser,16.3313954,48.2300056,Gentzgasse,125,Wien,1180,restaurant,"Mo 10:00-22:00, Th-Fr 10:00-22:00, Sa-Su 09:00-22:00"
256423371,Noodle King,16.3287882,48.2315387,,,,,fast_food,Mo-Fr 10:00-21:00; Sa 10:00-18:00
269542815,Cafe Stadtbahn,16.3285222,48.2304602,Gersthofer Straße,47,Wien,1180,pub,Mo-Su 19:00-02:00
280812411,Tandoori Junction,16.3407119,48.2212614,Antonigasse,9,Wien,1180,indian,"Tu-Fr 11:00-14:00, Mo-Fr 18:00-22:00, PH,Sa,Su 12:00-22:00"
280813671,TacoLand,16.3384442,48.2231092,,,,,restaurant,Mo-Su 10:30-21:30
288015983,Kutschker 44,16.3448727,48.2267385,Kutschkergasse,44,Wien,1180,restaurant,Tu-Sa 16:00-24:00
288015984,Ristorante Roma,16.3446263,48.2265954,Kutschkergasse,39,Wien,1180,italian,Mo-Su 11:30-23:00
288187563,Oberlaa,16.3449489,48.2262324,Währinger Straße,108,Wien,1180,cafe,Mo-Su 08:30-19:00
295413437,Hoskar,16.3437619,48.2231652,Kutschkergasse,9,Wien,1180,syrian,Mo-Su 11:00-23:00
295413440,Trześniewski,16.3449832,48.226192,Währinger Straße,108,Wien,1180,fast_food,Mo-Fr 08:30-19:00; Sa 08:30-17:00; Jul-Aug Sa 08:30-14:00
295413442,Schopenhauer,16.3467208,48.2235831,Staudgasse,1,Wien,1180,cafe,Mo-Sa 08:00-00:00; Su 08:00-22:00
295413458,Wilde Ehe,16.3444371,48.2242345,Kutschkergasse,22,Wien,1180,pub,Mo-Th 16:00-24:00; Fr-Sa 16:00-02:00
295413460,Bao panda,16.3418217,48.2223506,Kreuzgasse,12,Wien,1180,asian,Su-Fr 10:30-22:00; Sa off
298553659,Cafe Mocca,16.3288835,48.2308783,Gersthofer Straße,2,Wien,1180,cafe,Mo-Su 08:00-01:00
306001362,Radatz,16.3456131,48.2258258,Währinger Straße,104,Wien,1180,fast_food,Mo-Fr 08:30-18:30; Sa 08:00-13:00
306005700,mikado - sushi style,16.3438958,48.2292511,Gymnasiumstraße,27,Wien,1180,japanese,"Su-Fr 11:30-15:00,17:30-22:30"
306005705,Anton Frank - cafe bar,16.3437056,48.2290642,Gymnasiumstraße,25,Wien,1180,pub,
310676113,Edelhof,16.3449277,48.2282579,Edelhofgasse,13,Wien,1180,regional,"Mo,We-Su 17:00-24:00, Tu off"
312073547,Bollyfood,16.3459566,48.2265267,Gentzgasse,23,Wien,1180,restaurant,
318456944,Wilder Mann,16.3465361,48.225465,Währinger Straße,85,Wien,1180,restaurant,Mo-Su 11:00-23:00
330273415,Piroschka,16.3218812,48.2376695,Gersthofer Straße,140/1,Wien,1180,hungarian,We-Sa 11:00-22:00;Su 11:00-16:00
332309218,Hanil Sushi,16.3443056,48.2293331,Gymnasiumstraße,25,Wien,1180,japanese,"Tu-Su, PH 11:00-15:00, 17:30-22:00"
333367017,Eissalon am Gürtel,16.341637,48.2176565,Währinger Gürtel,3,Wien,1180,cafe,
334230868,Herbeck,16.3173421,48.2326808,Scheibenbergstraße,11,Wien,1180,regional,Tu-Sa 11:30-23:00
334756752,Monte Rosa,16.3197237,48.232519,Herbeckstraße,78,Wien,1180,italian,"We-Su,PH 11:00-15:00; Tu-Su,PH 17:00-23:00"
337934421,Meister Xiao,16.3269911,48.2356125,Gersthofer Straße,70,Wien,1180,chinese,"Tu-Su 11:30-14:30,17:30-22:00"
368276452,Martins-Schlössl,16.3399485,48.2192176,Martinstraße,18,Wien,1180,restaurant,12:00-23:00
370438683,Himmelblau,16.3448062,48.2253802,Kutschkergasse,36,Wien,1180,cafe,
370676630,Eckmeck Feinkost Kebap,16.3423476,48.2212381,,,,,fast_food,Mo-Su 09:00-22:00
386115006,Heurigen Restaurant Pötzleinsdorf,16.3072637,48.2433123,Pötzleinsdorfer Straße,97,Wien,1180,heuriger,"Mo-Fr 17:00-18:00+; Sa,Su,PH 12:00-18:00+"
386115009,Buffet Pötzleinsdorf,16.3092179,48.2412642,,,,,fast_food,
421413506,Eis Cafe Brontolone,16.3394462,48.2254872,,,,,cafe,"PH,Mo-Su 12:00-19:00"
428023078,Vin Restaurant,16.3369391,48.2278092,Währinger Straße,137,Wien,1180,vietnamese,Tu-Su 11:30-20:00
428028612,Blumencafé,16.3277453,48.2345019,Gersthofer Straße,30,Wien,1180,cafe,Mo-Fr 08:00-20:00; Sa-Su 09:00-19:00
746332341,Ur-knall,16.3305137,48.2257362,,,,,bar,Mo-Fr 09:00-18:00; Sa 10:00-14:00
824076169,Tandoori Mirch Masala,16.3314861,48.2257155,Sommarugagasse,6,Wien,1180,indian,10:30-22:00
872648285,De Rocco,16.3448952,48.2263285,Kutschkergasse,40,Wien,1180,ice_cream,"Mar-Oct PH,Mo-Su 12:00-20:00"
1158298730,Tao Mini Bar,16.3488881,48.2252743,Währinger Straße,80-82,Wien,1180,asian,Mo-Su 11:00-22:00
1166290169,Spumante,16.3275271,48.2339464,,,,,italian,
1166812231,Tchibo & Eduscho,16.3287117,48.2320825,Gersthofer Straße,2,Wien,1180,cafe,Mo-Fr 08:30-18:30; Sa 08:30-17:00
1167293625,Hollerkoch,16.3282714,48.2330784,Gersthofer Straße,14,Wien,1180,restaurant,Mo-We 16:30-24:00; Th-Sa 09:00-24:00; Su 09:00-15:00
1167293639,Gelateria Buon Gelato,16.3282971,48.2329645,Gersthofer Straße,12,Wien,1180,ice_cream,
1167860822,Koinonia,16.3348172,48.2282715,,,,,japanese,"PH,Mo-Su 11:30-15:00,18:00-22:30"
1167860849,Pizzeria Bello,16.334404,48.2285196,,,,,pizza,
1335933200,Santa Maria,16.3379339,48.2282028,Gentzgasse,86-88,Wien,1180,pizza,Mo-Su 11:30-22:30
1363150691,Bastille-Pub,16.3232806,48.2342786,Bastiengasse,20,Wien,1180,pub,Mo-Sa 18:00-25:00
1633119234,Konzertcafe Schmid Hansl,16.3432348,48.2249559,Schulgasse,31,Wien,1180,cafe,
1777750875,Pizzeria La Passione,16.341536,48.2224246,,,,,pizza,
1906553709,Café Lalibela,16.3476468,48.2246135,Schulgasse,7,Wien,1180,ethiopian,"Mo-Th, Su 17:00-22:00; Fr, Sa 17:00-23:00"
2018938803,Takans's Fischrestaurant,16.3433684,48.2284111,Haizingergasse,13,Wien,1180,fish,Tu-Fr 17:00-24:00; Sa11:30-24:00
2048199383,d.e.r. Location,16.3435697,48.2285539,Gymnasiumstraße,16,Wien,1180,bar,Mo-Su 18:00-02:00
2273904718,Frisch,16.3432627,48.2221289,Kreuzgasse,2,Wien,1180,cafe,"Mo-Su,PH 06:00-22:00"
2338206268,"Bio-Pizzeria & Ristorante ""VERO #2""",16.3097503,48.2417185,Pötzleinsdorfer Straße,67,Wien,1180,italian;pizza,
2344889827,Atlantis,16.3445187,48.225508,,,,,fish,"PH,Mo-Su 11:00-22:00"
2432707377,Liu Liu,16.3420793,48.2242034,Schopenhauerstraße,40,Wien,1180,chinese,"Mo,We-Fr 11:30-15:00, Mo,We-Sa 17:30-22:45, PH,Su 11:30-22:45; Tu off"
2609889223,Na-nÓg – Irish Pub,16.3491882,48.2300822,Anastasius-Grün-Gasse,6,Wien,1180,pub,Mo-Sa 18:00-01:00
2731223454,Belli Delikatessen,16.3364548,48.2236151,,,,,italian,"Mo-Fr 10:00-20:00; Sa 08:00-20:00; PH,Su off"
2731316726,Housgemacht,16.3368643,48.2236835,,,,,fast_food,Mo-Fr 09:00-18:00; Sa 09:00-14:00
2921396525,Bon Giorno,16.3287462,48.2271937,,,,,cafe,
3093934438,aumann,16.3368176,48.228128,Aumannplatz,1,Wien,1180,regional,Mo-Su 07:30-24:00
3266784188,Kutsch,16.3439543,48.2238226,Schopenhauerstraße,19,Wien,1180,regional,"We-Fr,PH 12:00-15:00,17:30-22:30; Sa,PH 09:00-15:00,17:30-22:30; Su,PH 09:00-15:00"
3506970414,Cafe Happy,16.3421418,48.2269447,Martinstraße,95,Wien,1180,cafe,"PH,Mo-Su 11:00-23:00"
3506970415,Sampresso,16.3478105,48.2261897,Gentzgasse,9,Wien,1180,cafe,Mo-Fr 07:00-18:30; Sa 08:00-17:00
3541991473,Edo Nudeln,16.3414067,48.2266341,Währinger Straße,113,Wien,1180,fast_food,Mo-Su 11:00-22:00
3765289157,NANA ROLL,16.338216,48.22769,,,,,restaurant,
3848853043,Mach Ma Curry !!,16.3366768,48.2257537,,,,,indian,"Tu-Fr,Su 11:30-21:30; Sa 17:30-21:30; Mo off"
4031227335,Honu Tiki Bowls,16.3452041,48.2260755,Währinger Straße,108,Wien,1180,hawaiian,
4347410490,B and me,16.3288282,48.2311478,Gersthofer Straße,2h,Wien,1180,cafe,Mo-Su 07:00-22:00
4412998364,Milons Restaurant,16.3489743,48.2292043,Semperstraße,47,Wien,1180,restaurant,Mo-Su 11:00-22:00
4563868653,aïda,16.3288168,48.2312511,Gersthofer Straße,2a,Wien,1180,cafe,Mo-Su 08:00-17:00
4608115438,Franze,16.3443213,48.2248659,Schulgasse,25/2-3,Wien,1180,cafe,Mo-Fr 08:00-18:00; Sa 08:00-14:00
4837956799,Kalimera,16.3496518,48.2284298,Währinger Gürtel,107,Wien,1180,greek,
4874416295,Mr. Miao,16.3287735,48.2313981,,,,,fast_food,
4942033314,Gersthofer Würstelstand,16.3288299,48.2313178,,,,,fast_food,
4969198779,Café Trabant,16.3382302,48.2284272,Dittesgasse,3,Wien,1180,pub,"Tu-Th 16:00-23:45; Fr,Sa 16:00-01:00"
5150132301,Einfach So,16.3525104,48.2318015,Währinger Gürtel,135,Wien,1180,pub,
5152408891,Gasthaus Manu,16.3480379,48.2303078,Anastasius-Grün-Gasse,12,Wien,1180,pub,"Mo-Fr 10:00-20:00; PH,Sa,Su 15:00-20:00"
5183279847,Gefrorenes - Eis wie damals,16.3380348,48.2277342,Währinger Straße,152,Wien,1180,ice_cream,Mo-Su 13:00-17:00
5314690721,Frank Stuben,16.3277714,48.2333332,,,,,restaurant,
5314732336,Gersthofer Blattdöner,16.3287712,48.2314452,,,,,fast_food,
5881659505,Ariston,16.3400981,48.2259832,Abt-Karl-Gasse,25,Wien,1180,greek,"Mo 17:00-23:00; We-Fr 17:00-23:00; Sa 12:00-23:00; Su,PH 12:00-22:00"
6019495885,das weinberg,16.3277357,48.2304011,Thimiggasse,11,Wien,1180,restaurant,
6095192379,Pizzeria Dolce Picante,16.3479294,48.2252028,Semperstraße,15,Wien,1180,fast_food,
6447921985,Cafe Captain Alex,16.3327172,48.2257573,,,,,cafe,Tu-Th 12:00-22:00; Fr-Su 14:00-00:00
6964580237,Kurkonditorei Oberlaa,16.3278104,48.2342337,Gersthofer Straße,28,Wien,1180,cafe,Mo-Su 08:00-20:00
7272328730,Schlemmer Café & Kunst,16.3337847,48.228409,,,,,cafe,
7272328735,Romantico,16.3328709,48.228544,Währinger Straße,163,Wien,1180,pizza,Tu-Su 11:00-22:40
7272328739,Quattro Café-Bar,16.3323299,48.228621,,,,,bar,
7994247285,Restaurant Orientable,16.3377729,48.2277829,Währinger Straße,154/2,Wien,1180,oriental,Tu-Su 11:30-21:30
8003228585,W.A.Sanchez,16.3485237,48.2250613,Währinger Straße,73,Wien,1180,mexican,Mo-Sa 11:00-22:00
8870260373,Affenschaukel,16.3423219,48.2263206,,,,,cafe,
8926214558,Fresh Box,16.3491355,48.228489,,,,,fast_food,"PH,Mo-Fr 11:00-22:00; Sa 11:00-16:00; Su 16:00-22:00"
9457806438,Die Galerie,16.344221,48.2235776,Kutschkergasse,16,Wien,1180,ice_cream,We-Fr 16:00-20:00; Sa 06:00-20:00
9481072158,Tanis,16.3445175,48.2251035,,,,,fast_food,
9481072160,oan,16.3445739,48.2250304,,,,,restaurant,
9510619778,Domino's,16.3487453,48.224546,Schulgasse,1,Wien,1180,fast_food,
9521102820,Oskar,16.3448279,48.2255281,Gertrudplatz,2,Wien,1180,pub,Mo-Sa 16:00-24:00
9741320447,Espresso Babsi,16.3328741,48.2258731,,,,,cafe,
10779883151,Zuckerkringel,16.3309476,48.2302807,,,,,cafe,
10796152947,Aloha bowl,16.3365712,48.2279366,Währinger Straße,141,Wien,1180,fast_food,Mo-Fr 07:30-19:00
10942428796,Habe,16.3362819,48.2234862,,,,,cafe,
11051434932,Bio Natur Land,16.3326229,48.2287523,Währinger Straße,180,Wien,1180,indian,Tu-Su 10:00-23:00
11179096425,Ghost Cooking,16.343908,48.2255241,,,,,restaurant,
11179096431,Asiagarten,16.3410482,48.2225299,,,,,chinese,10:30-22:30
11186012134,Almaz,16.3414324,48.2222298,,,,,bar,
11261631017,Taste Njoy,16.3491306,48.2274724,,,,,fast_food,Mo-Fr 08:00-16:00
11270561323,Mamacita - California Burritos,16.3489881,48.2291908,Semperstraße,47,Wien,1180,restaurant,
11270561324,Good Roots,16.349,48.2291692,Semperstraße,47,Wien,1180,restaurant,
11783408042,Philomena,16.3482446,48.2300712,,,,,fast_food,
12494926970,La Signorina,16.3370373,48.2234254,Johann-Nepomuk-Vogl-Platz,20,Wien,1180,italian,
12647611852,Vitavien,16.3399983,48.2271798,,,,,cafe,
158515288,Nest,16.336963,48.2236217,Johann-Nepomuk-Vogl-Markt Stand,13-17,Wien,1180,restaurant,"Mo-Sa 08:00-22:00; PH,Su 09:00-19:00"
158515292,La Cocotte Italian Bistro,16.3370229,48.2234675,Johann-Nepomuk-Vogl-Markt Stand,20,Wien,1180,italian,Tu-Sa 10:00-21:00
158515299,Kreuzgassenstüberl,16.3371009,48.2235403,Johann-Nepomuk-Vogl-Markt Stand,19,Wien,1180,pub,
164721295,Meierei Diglas,16.3314676,48.2343893,Hasenauerstraße,56,Wien,1180,restaurant,Tu-Su 09:00-22:00
259220419,Wirtshaus Steirerstöckl,16.2940356,48.2422518,Pötzleinsdorfer Straße,127,Wien,1180,restaurant,"We-Su, PH 11:30-24:00"
355471704,Laus & Maus,16.3498711,48.2321599,Semperstraße,64a,Wien,1180,cafe,Mo-Su 11:00-18:00
368824003,Mahya Imbiss,16.3389564,48.2177589,,,,,fast_food,
442490057,Währinger Schnitzel Corner mit Burger,16.3536779,48.2319692,Währinger Gürtel,ggü 141,Wien,1180,fast_food,"Mo-Sa 20:00-04:00; note = ""May open or close earlier or be closed entirely on random days."""
551709041,M-Café Mendel,16.3373212,48.2366479,Gregor-Mendel-Straße,33,Wien,1180,restaurant,
1139189029,Zur Bosnarei,16.3492427,48.2252751,,,,,fast_food,10:00-05:00
1139189030,Börgerei,16.3492621,48.2253572,,,,,fast_food,Mo-Fr 11:30-21:30; Sa 11:00-21:30
1139189031,Zur Dönerei,16.3491599,48.2248759,,,,,fast_food,"Mo-Fr,Su 10:00-05:00; Sa 10:00-06:00"
