id,name,lat,long,addr:street,addr:housenumber,addr:city,addr:postcode,cuisine_or_amenity,opening_hours
29801740,McDonald's,16.3949572,48.2334596,Handelskai,130,Wien,1020,fast_food,Mo-Su 07:00-01:00
55411636,Maya Garden,16.4293627,48.2087288,Handelskai,343,Wien,1020,restaurant,
259640958,Kaffeeamt,16.3735819,48.2186915,Franz-Hochedlinger-Gasse,16,Wien,1020,cafe,"Mo,We-Fr 08:00-17:30; Sa,Su,PH 09:00-17:30; Tu off"
259641273,Schöne Perle,16.3772145,48.2187616,Große Pfarrgasse,2,Wien,1020,austrian,Mo-Fr 11:00-24:00; Sa-Su 10:00-24:00
267275362,Jazzclub ZWE,16.3748262,48.2162906,Floßgasse,4,Wien,1020,pub,
268500778,Ice & Friends,16.398612,48.2062043,Wittelsbachstraße,3,Wien,1020,restaurant,
307643605,Il Basilico,16.3702998,48.2257315,Gaußplatz,1,Wien,1020,italian,"We-Sa 12:00-14:30,18:00-23:00; PH,Su 12:00-22:00"
316011440,Gasthaus Hansy,16.3900848,48.2179959,Praterstraße,67,Wien,1020,regional,11:00-23:00
316012422,Tachles,16.3799073,48.2154908,Karmeliterplatz,1,Wien,1020,pub,Mo-We 16:00-23:00; Th-Sa 16:00-24:00
316683922,Va bene,16.4518997,48.1934139,Dammhaufengasse,50,Wien,1020,restaurant,
323060577,Zum Friedensrichter,16.3729473,48.2181919,Obere Donaustraße,57,Wien,1020,regional,"Mo-Fr 15:00-23:00; Sa, Su, PH off"
323060590,Zum Sieg,16.3790953,48.2178752,Haidgasse,8,Wien,1020,regional,"Mo,Tu,Th,Fr 11:00-23:00; We 16:00-23:00; Sa 11:00-15:00"
323060637,Pancho,16.3814042,48.2190357,Taborstraße,44,Wien,1020,mexican,Mo-Th 17:00-01:00; Fr-Sa 17:00-02:00; Su 12:00-00:00
335933214,Eatalico,16.3839082,48.214845,Praterstraße,29,Wien,1020,italian;pizza,Mo-Su 11:30-23:00
335937019,Contor,16.3777554,48.2168765,Krummbaumgasse,3,Wien,1020,spanish,"PH,Mo-Su 17:00-24:00"
336244940,Am Nordpol,16.381911,48.2266846,Nordwestbahnstraße,17,Wien,1020,bohemian,"Mo-Fr 17:00-23:30; Sa,Su,PH 12:00-23:30"
336250391,Die Schankwirtschaft,16.3740898,48.2243371,Obere Augartenstraße,1,Wien,1020,regional,Mo-Su 10:00-22:00
337947384,Crowns and Swords,16.3803407,48.2190673,Obere Augartenstraße,72,Wien,1020,pub,Tu-Sa 17:00-01:00
337947389,Crown and Sword,16.3802285,48.219179,Obere Augartenstraße,72,Wien,1020,bar,Tu-Sa 17:00-01:00
338470656,Nestroy,16.3844236,48.2153641,Schrottgießergasse,5,Wien,1020,restaurant,
338470657,Das GEHSTEIG,16.3833419,48.2158334,Schmelzgasse,14,Wien,1020,pub,"Mo-Sa 17:00-01:00, Su 17:00-24:00, PH 17:00-24:00"
338470662,Schank zum Reichsapfel,16.3795337,48.216106,Karmeliterplatz,3,Wien,1020,heuriger,PH off; Tu-Sa 16:00-23:00
338470665,Soosser Weinhaus,16.3800679,48.2164969,Karmelitergasse,11,Wien,1020,regional,"Mo-Fr 10:00-21:00; Sa 10:00-16:00; PH,Su off"
338470667,Bahur Tov,16.3805363,48.2165769,Taborstraße,21,Wien,1020,israeli,Mo-Th 16:00-22:00; Su 13:00-22:00
338470669,das kraus,16.3782411,48.2188596,Große Sperlgasse,37,Wien,1020,restaurant,"Mo-Sa 10:00-01:00, PH,Su 10:00-22:00"
338470672,Zimmer 37,16.377265,48.2174379,Karmelitermarkt,,Wien,1020,5-Elemente,Tu-Th 10:30-18:00; Fr 08:30-18:00; Mo off; Sa 08:30-14:00
338470676,6er Haus,16.3774265,48.2171591,Karmelitermarkt,,Wien,1020,pub,Mo-Sa 09:00-23:00; Su 09:00-19:00
338470684,Café Einfahrt,16.3770997,48.2179296,Leopoldsgasse,30,Wien,1020,cafe,"Mo-Fr 10:00-25:00; Sa, PH 08:00-25:00; Su 08:00-23:00"
338470686,Fliegender Holländer,16.3766403,48.215232,Hollandstraße,8,Wien,1020,restaurant,"Mo-Fr 08:00-02:00; Sa, Su, PH 17:00-02:00"
338470689,Naschkätzchen,16.3806455,48.217096,Taborstraße,23,Wien,1020,cafe,
338473232,Brendl,16.3784001,48.2160352,Große Sperlgasse,2,Wien,1020,pub,"Su-Th 17:00-01:00, Fr,Sa 17:00-02:00"
338473236,Hammond,16.3804725,48.2184281,Taborstraße,35,Wien,1020,bar,Mo-Th 17:00-03:00; Fr 17:00-04:00; Sa 19:00-04:00; Su 19:00-02:00
344491374,Indische Spezialitäten Arbaillo,16.3720274,48.2199545,Untere Augartenstraße,10,Wien,1020,pizza,"Su-Fr, PH 10:30-22:00; Sa 15:30-22:00"
345758417,Cafe Alex,16.4067943,48.2189029,Stuwerstraße,47,Wien,1020,pub,Mo-Sa 07:00-22:00
348374193,Nikita dal Russo,16.4023446,48.2239842,Lassallestraße,42,Wien,1020,italian,"Mo-Su,PH 11:00-23:00"
354501505,The View,16.4074979,48.2247587,Mexikoplatz,9,Wien,1020,restaurant,
356892384,Donaubeisl,16.4014682,48.2256936,Vorgartenstraße,175,Wien,1020,regional,
356892391,Cafe Vienna,16.4117035,48.2185951,Engerthstraße,231-233,Wien,1020,cafe,Mo 09:00-20:00; Tu-Fr 08:00-20:00; Sa 09:00-15:00; Su off
366220354,Konditorei Am Park,16.4000289,48.2211808,Max-Winter-Platz,8,Wien,1020,cafe,"Mo,We-Su,PH 09:00-21:00"
366220850,Zum Mährischen Spatzen,16.3996091,48.221904,Harkortstraße,5,Wien,1020,regional,"Mo-Th,Su 12:00-22:00; Fr-Sa 12:00-24:00"
366550146,Grill-Restaurant Semendria,16.403073,48.2243682,Lassallestraße,46,Wien,1020,serbian;grill,"Mo-Th 07:00-23:00, Fr 07:00-24:00, Sa, Su, PH 10:00-24:00"
367817578,aïda,16.390204,48.2174374,Franzensbrückenstraße,2,Wien,1020,cafe,"Mo-Sa 08:00-19:00; Su,PH 09:00-18:00"
373470635,Stuwer,16.4070351,48.2188785,Stuwerstraße,47,Wien,1020,regional,"Mo-Sa 17:30-23:00, Su,PH 12:00-22:00"
373480650,Steirerhof,16.4051706,48.221806,Vorgartenstraße,209,Wien,1020,viennese,
381909771,Pho Mi,16.3886525,48.2172206,Praterstraße,57,Wien,1020,vietnamese,"Mo-Fr 11:00-22:30; Sa,Su,PH 12:30-22:30"
398597854,Skopik & Lohn,16.3766475,48.2201646,Leopoldsgasse,15A,Wien,1020,restaurant,
398603916,Pizza Mari',16.3769984,48.2192955,Leopoldsgasse,23A,Wien,1020,pizza,Tu-Sa 12:00-24:00; Su 12:00-23:00; PH 12:00-23:00; PH Mo off
444247110,Badeschiff Wien,16.3816056,48.2117842,Donaukanal,,Wien,1020,pub,Mo-Su 08:00-1:00
450170234,New Bar,16.3853171,48.2169034,Zirkusgasse,38,Wien,1020,bar,Mo-Su 17:00-01:00
450174393,Pizzeria Riva Prater,16.3888532,48.2186249,Heinestraße,36,Wien,1020,pizza,"Mo-Fr 11:30-14:30,17:30-23:00; Sa 17:30-23:00; Su,PH 17:00-22:30"
491481641,The Bell,16.3878178,48.2207578,Fugbachgasse,7,Wien,1020,pub,Tu-Th 15:00-00:00; Fr-Su 15:00-02:00
491481648,Fischrestaurant Kaj,16.3879966,48.2210034,Fugbachgasse,9,Wien,1020,fish,
492537190,Dogenhof,16.3892253,48.2169485,Praterstraße,70,Wien,1020,cafe,Mo-Sa 12:00-23:00
493899337,Simchas,16.3814334,48.2205694,Taborstraße,49,Wien,1020,restaurant,"Mo-Th 17:00-23:00; PH,Su 12:00-23:00"
582370267,Thali,16.400396,48.2255206,Vorgartenstraße,173,Wien,1020,indian,"Mo-Fr 11:00-14:30,17:30-22:00; Sa 17:00-22:00; Su,PH 11:00-22:00"
775798714,Café Mailibu,16.3944153,48.2316036,Weschelstraße,1,Wien,1020,cafe,
815228846,Cafe Eckhardt,16.4405264,48.1998401,Handelskai,428,Wien,1020,restaurant,
822797021,Krieauer Beisl,16.4160184,48.2113905,Krieau,247,Wien,1020,regional;sausage;wiener,
828037635,Gedeihen,16.412966,48.2177371,Engerthstraße,237,Wien,1020,chinese,"We-Mo 11:30-15:00,17:30-23:00"
914017544,Xi,16.3849318,48.2218019,Pazmanitengasse,15,Wien,1020,pub,
928313174,Cafe Else,16.3886586,48.2187518,Heinestraße,36,Wien,1020,bar,"Mo-Sa 17:00-01:00+; PH,Su off"
929228045,Mostlandl,16.3871345,48.2192229,Heinestraße,30,Wien,1020,regional,Su-Fr 09:00-22:00; PH 11:00-22:00
1091505630,Fritz von Stuwer,16.4066187,48.2182276,Sebastian-Kneipp-Gasse,2,Wien,1020,bar,
1110205284,Failys,16.4009525,48.2181759,Ausstellungsstraße,23,Wien,1020,bar,"Mo-Sa 12:00-23:00, Su 14:00-23:00"
1110205293,Grill-Park,16.401307,48.2184121,Molkereistraße,5,Wien,1020,restaurant,
1110205298,Möslinger,16.399327,48.2186798,Wolfgang-Schmälzl-Gasse,23,Wien,1020,restaurant,"Tu-Sa 11:00-23:00; Su,PH 11:00-16:00; Mo off"
1110205309,Marktstüberl,16.4015682,48.222006,Ybbsstraße,32,Wien,1020,cafe,Mo-Fr 07:00-20:00; Sa 07:00-16:00
1152590804,Lhotzkys Literaturbuffet,16.3811077,48.217853,Rotensterngasse,4,Wien,1020,cafe,
1168924767,Donburi,16.3842192,48.2142925,Praterstraße,32,Wien,1020,japanese,
1177484868,Wiener SchnitzelCenter,16.402196,48.222323,Ennsgasse,15,Wien,1020,fast_food,Mo-Su 11:00-20:00
1184383558,Gaia,16.3887971,48.2167148,Mayergasse,2,Wien,1020,coffee_shop;kebab;mediterranean;regional,Mo-Th 11:00-22:00; Fr 11:00-23:00; Sa 11:00-23:45; Su 12:00-22:30
1188876218,Dolce Vita,16.3889557,48.2239235,Nordbahnstraße,32,Wien,1020,pizza,11:00-01:00
1189422665,Imbiss,16.3883244,48.2274913,Alliiertenstraße,19,Wien,1020,fast_food,
1197118814,il mercato,16.4011969,48.2218217,Ybbsstraße,32,Wien,1020,italian;pizza,
1210626716,Okra Izakaya,16.3767272,48.2199933,Kleine Pfarrgasse,1,Wien,1020,japanese,Tu-Sa 18:00-23:00
1210626722,ihana,16.3769122,48.2199294,Kleine Pfarrgasse,3,Wien,1020,cafe,Tu-Fr 08:30-17:00; Sa 09:00-15:00
1210641219,Flugfisch,16.3714877,48.2199197,Untere Augartenstraße,1-3,Wien,1020,asian,"Mo-Su,PH 11:30-15:00,17:30-23:00"
1210650748,Pizzeria Cafeteria Hawler,16.3725199,48.2203776,Untere Augartenstraße,16,Wien,1020,pizza;pasta,Mo-Su 10:00-22:00
1210661838,Im Werd 1,16.3761477,48.2171929,Im Werd,3,Wien,1020,pub,Tu-Sa 20:00-24:00+
1210661841,Cafe Gärtner,16.376192,48.2173294,Im Werd,3,Wien,1020,cafe,
1210670878,TeWa,16.3770319,48.2170294,Karmelitermarkt,,Wien,1020,breakfast;international;lebanese,Mo-Sa 07:00-23:00; Su 09:00-16:00
1210670886,Asia House,16.3777852,48.217016,Krummbaumgasse,3,Wien,1020,asian,"11:30-15:00, 17:30-22:30"
1210670891,Kamala,16.3765843,48.2156706,Hollandstraße,7,Wien,1020,thai,"Mo-Fr 11:00-15:00,18:00-21:00; PH off"
1210688188,Pizzeria & Restaurant Briuni,16.3823691,48.2187426,Blumauergasse,2,Wien,1020,pizza,Mo-Su 17:30-22:00
1210688189,Wok Haus,16.3813177,48.2195932,Taborstraße,46A,Wien,1020,asian,Tu-Su 11:30-21:00
1210688190,Cafe U2,16.3819132,48.2197076,Novaragasse,5,Wien,1020,cafe,
1300145999,dEZENTRAl,16.4051199,48.2198156,Hillerstraße,1,Wien,1020,pub,
1308569909,Zur Grünen Hütte,16.4040583,48.2175819,Prater,196,Wien,1020,regional,"Mo-Su,PH 11:30-23:00"
1361170894,Le Cèdre,16.4055876,48.2182045,Ausstellungsstraße,51,Wien,1020,lebanese,Tu-Su 11:00-24:00
1361647973,Cafe Hochedlinger,16.3729864,48.2195697,Franz-Hochedlinger-Gasse,7,Wien,1020,cafe,
1362500391,La Massa,16.3787183,48.2178964,Große Sperlgasse,20,Wien,1020,italian;italian_pizza,Mo-Fr 11:30-23:00; Su 17:00-23:00
1372365496,Brösl,16.4036927,48.2196267,Obermüllnerstraße,13,Wien,1020,international,Mo-Sa 17:00-23:00
1379024969,Pizzeria Maradona,16.4051974,48.2192331,Ilgplatz,8,Wien,1020,pizza,Su-Fr 11:00-23:00; Sa 17:00-23:00
1438797383,Radatz,16.3761128,48.2170459,Im Werd,1,Wien,1020,fast_food,Mo-Th 07:30-18:00; Fr 07:00-18:00; Sa 07:00-12:30
1438797384,Wulfisch,16.3780043,48.2180133,Haidgasse,5,Wien,1020,fish_and_chips,Mo-Fr 11:00-20:00; Sa 10:00-18:00
1461610055,Taeko Ramen,16.3883743,48.2170692,Praterstraße,55,Wien,1020,asian;japanese;ramen,"Mo-Fr 11:00-15:00,17:30-23:00; Su,PH 13:00-23:00; Sa off"
1508521484,Pilwax,16.37635,48.2149664,Hollandstraße,4,Wien,1020,bar,Mo-Fr 12:00-23:00
1532435037,Gelati Alberti,16.385504,48.2150325,Praterstraße,40,Wien,1020,ice_cream,Mo-Su 11:00-20:00
1532450178,Seoul,16.3837298,48.2140789,Praterstraße,26,Wien,1020,korean,"Mo-Sa 11:30-14:30,18:00-22:00; PH,Su off"
1532450179,Shin Taiwanese Eatery,16.3832812,48.2136643,Praterstraße,22,Wien,1020,taiwanese,Mo-Fr 11:30-22:00; Sa-Su 12:00-22:30
1546345158,McDonald's,16.3807626,48.2193481,Taborstraße,39-39A,Wien,1020,fast_food,Mo-Su 07:00-02:00
1579075244,Fischinsel,16.3859413,48.2229038,Volkertmarkt,,Wien,1020,fish,Tu-Fr 09:00-18:00; Sa 08:00-15:00
1610928010,Fett+Zucker,16.377567,48.2163474,Große Sperlgasse,5,Wien,1020,cafe,"Mo-Fr 13:00-21:00; Sa,Su 11:00-21:00"
1640430322,Augenweide,16.3780592,48.2129495,Georg-Emmerling-Hof,,Wien,1020,restaurant,
1686322715,Valentino,16.4007396,48.2226835,Radingerstraße,6,Wien,1020,ice_cream,
1715947090,Novellino kosher food,16.3834876,48.2157399,Schmelzgasse,14,Wien,1020,restaurant,"Mo-Th 12:00-14:45,17:00-21:45; Su 12:00-21:45; PH,Fr,Sa off"
1717868177,Zum weissen Rössl,16.4005443,48.2144312,Prater,109,Wien,1020,regional,
1722364856,Grü Lounge,16.4137038,48.2131507,Trabrennstraße,4,Wien,1020,bar,
1722364857,Grü Bistro,16.4135885,48.2131919,Trabrennstraße,4,Wien,1020,restaurant,
1743128631,Meran,16.3858293,48.2197174,Rueppgasse,2,Wien,1020,cafe,
1786176042,Tasty Lounge,16.3858794,48.2264273,Schweidlgasse,2,Wien,1020,restaurant,
1801683335,Pizzeria-Ristorante Fiorino,16.3870024,48.2164951,Praterstraße,47,Wien,1020,italian,"Tu-Fr 12:00-15:00,17:30-22:00; Sa,Su 12:00-22:00; Mo off"
1804294334,Sperling im Augarten,16.3780516,48.2239137,Obere Augartenstraße,1,Wien,1020,regional,Mo-Sa 09:00-22:00; Su 09:00-18:00
1845377380,Matcha Komachi,16.3850417,48.2147845,Czerningasse,1,Wien,1020,restaurant,
1871912840,Peri Imbiss,16.4029191,48.218911,Stuwerstraße,27B,Wien,1020,fast_food,Mo-Su 11:00-23:00
1881195202,Renas,16.4035031,48.2240452,Mexikoplatz,20,Wien,1020,restaurant,Mo-Su 09:00-22:00
1881666783,Geflügel Tubic,16.3770377,48.2175579,Karmelitermarkt,,Wien,1020,restaurant,Tu-Fr 07:30-18:00; Sa 07:30-14:00; Mo off
1881666829,TeWa,16.3770333,48.2171328,Karmelitermarkt,,Wien,1020,restaurant,
1888701033,Mozaik,16.400573,48.218683,Stuwerstraße,22,Wien,1020,mediterranean,"Mo-Fr 17:00-23:00, Sa,Su 12:00-23:00"
1888704366,Xena Bar,16.4012936,48.2186109,Stuwerstraße,26,Wien,1020,bar,Mo-Sa 20:00-05:00
1888730233,Mesze,16.4034069,48.2181665,Ausstellungsstraße,39,Wien,1020,greek;mediterranean,"Mo 17:30-24:00, Tu-Su 11:30-24:00"
1888793839,Homolje Grill,16.4043087,48.2231942,Ennsgasse,22,Wien,1020,mediterranean,Mo-Su 09:00-22:00
1889771200,Minze,16.3773324,48.2166005,Hollandstraße,15,Wien,1020,thai,Mo-Sa 11:30-22:00
1894439571,Leopoldstädter Deewan,16.4058047,48.2198037,Hillerstraße,4,Wien,1020,pakistani,Mo-Fr 11:00-23:00; Sa-Su 12:00-22:00; PH off
1894747547,Unica Pizzeria,16.4052744,48.2236817,Mexikoplatz,16,Wien,1020,fast_food,Mo-Su 10:00-23:00
1896113645,Villa Victoria,16.3958464,48.2155303,Hauptallee,89,Wien,1020,regional,
1896117010,Jolly Ox,16.3975496,48.21006,Josef-Gall-Gasse,5,Wien,1020,steak_house,We-Sa 18:00-24:00
1918765993,Taya Washoku Deli,16.3823667,48.2227664,Taborstraße,65,Wien,1020,japanese,"Tu,We 12:00-15:00,17:00-20:30; Th-Sa 17:00-21:00,12:00-15:00"
2012473474,2 Bro's,16.3893226,48.2225396,Fugbachgasse,21,Wien,1020,fast_food,"Mo-Fr 09:00-01:00, Sa,Su 15:00-02:00"
2048616571,3/4 Takt,16.3873739,48.2160166,Praterstraße,54,Wien,1020,restaurant,
2048616583,Cafe Wiener Melange,16.3868278,48.2163515,Rotensterngasse,37,Wien,1020,cafe,Mo-Sa 09:00-24:00; Su 10:00-24:00
2265961202,Leopold,16.3788318,48.2188282,Große Pfarrgasse,11,Wien,1020,german,"Su-We 11:00-24:00, Th-Sa 11:00-01:00"
2352669698,Hafenkneipe,16.3901695,48.2136921,Waschhausgasse,4,Wien,1020,bar,
2374032542,Das Loft,16.3797905,48.2127196,Große Mohrengasse,1,Wien,1020,restaurant,
2397484585,Katscheli,16.3793146,48.2165596,Karmelitergasse,7,Wien,1020,cafe,Mo-Sa 10:00-24:00
2411122936,Ninive,16.3860439,48.2232215,Volkertmarkt,,Wien,1020,fast_food,
2411122961,Nelke,16.385909,48.222973,Volkertmarkt,,Wien,1020,cafe,"Mo-Fr 10:00-22:00; Sa 08:00-22:00; PH,Su off"
2411576119,Die Caterei,16.4328581,48.2048485,Wehlistraße,350,Wien,1020,restaurant,Mo-Th 07:30-15:00; Fr 07:30-14:00
2437230770,Zum Schatz,16.382912,48.2198457,Glockengasse,28,Wien,1020,bar,Tu-Sa 10:00-21:00; Su 10:00-14:00
2461383062,Shiyu,16.4004586,48.2181814,Ausstellungsstraße,21,Wien,1020,asian,"We-Fr 11:30-15:00, 17:30-22:00, Sa 17:30-22:00, Su 13:00-22:00"
2475377599,L' Ase,16.3871131,48.2223262,Volkertstraße,20,Wien,1020,spanish,Tu-Sa 17:00-23:00
2484974272,Lunzers Maßgreißlerei,16.3879481,48.2195893,Heinestraße,35,Wien,1020,cafe,Mo-Fr 09:00-19:00; Sa 09:00-17:00
2489108759,Pharos,16.3888609,48.2229838,Nordbahnstraße,36,Wien,1020,cafe,
2489108768,Ozren,16.388818,48.2245492,Nordbahnstraße,28,Wien,1020,cafe,
2491726101,Reinthaler,16.3978752,48.2189176,Mumbgasse,6,Wien,1020,regional,Mo-Su 10:00-23:00
2494780337,Ullmann's Zuckerbäckerei,16.3985761,48.2244849,Walcherstraße,11A,Wien,1020,cafe,"Mo-Fr 08:00-19:00; PH,Sa,Su 09:00-18:00"
2505312402,Monika & Alexander,16.4233432,48.2093085,Marathonweg,9,Wien,1020,cafe,Mo-Fr 09:00-19:00; Sa 09:00-18:00
2529269365,Harvest,16.3797642,48.2155143,Karmeliterplatz,1,Wien,1020,restaurant,Mo-Fr 14:00-23:00; Sa-Su 10:00-23:00
2529270524,Pisqu,16.3777569,48.2188972,Große Pfarrgasse,5,Wien,1020,japanese;peruvian,
2543743671,Das Campus,16.4098334,48.2122688,Trabrennstraße,1,Wien,1020,restaurant,"Mo-Th 11:00-22:00; PH,Su 09:00-14:00; Fr,Sa off"
2543743678,Lia Coffee WU Wien,16.4082722,48.2138325,Trabrennstraße,1,Wien,1020,cafe,Mo-Fr 07:30-18:00; PH off
2543743713,WU-Mensa,16.4096177,48.2130656,Trabrennstraße,1,Wien,1020,pizza;regional,
2617117163,Riki's,16.384953,48.2152462,Praterstraße,35,Wien,1020,cafe,
2617117223,Duzi's,16.3832447,48.2142447,Praterstraße,25,Wien,1020,bar,"Su-Th 12:00-24:00, Fr,Sa 12:00-02:00"
2637865925,Die Koberantinnen,16.3770473,48.2212083,Miesbachgasse,16,Wien,1020,restaurant,"Tu-Th 12:00-22:00; Fr,Sa 12:00-24:00"
2637866970,Fuchs & Schaden,16.3787266,48.213652,Schoellerhofgasse,8,Wien,1020,pizza;pasta,
2906330472,Cafe Ansari,16.381604,48.2134681,Große Mohrengasse,8,Wien,1020,georgian;oriental;breakfast,Mo-Sa 08:00-23:30; Su 09:00-15:00
2923152001,Bergers Bar,16.3797018,48.2141646,Gredlerstraße,11,Wien,1020,cafe,
2951940369,Fat Monk,16.4159824,48.2130907,Vorgartenstraße,206B,Wien,1020,bowls,Mo-Fri 11:00 - 18:00
2974311101,pAn's Cafe Restaurant,16.3968801,48.2241866,Jakov-Lind-Straße,20,Wien,1020,regional;international,"Mo-Fr 11:00-22:00; Sa,Su 11:00-21:00"
2974318643,REMO Nordbahn Pizzeria,16.3948674,48.2254174,Ernst-Melchior-Gasse,10,Wien,1020,cafe,Mo-Fr 11:00-22:00
2974320960,Salon am Park,16.3949789,48.2263875,Krakauer Straße,19,Wien,1020,cafe,Mo-Fr 07:30-18:00; Sa 08:00-18:00
3019549010,M2 Café,16.3985516,48.2264882,Vorgartenstraße,126,Wien,1020,cafe,"Mo-Th 08:00-23:00,Fr-Sa 08:00-24:00,Su,PH 09:00-22:00"
3097777850,Brotzeit Vorgarten,16.4156227,48.2128709,Vorgartenstraße,206B,Wien,1020,restaurant,
3229514447,McDonald's,16.4058962,48.217395,Ausstellungsstraße,44A,Wien,1020,fast_food,"Mo-Su 07:00-23:30; Fr,Sa 07:00-01:00"
3316299363,Donasia,16.3757203,48.214973,Friedrich-Wilhelm-Raiffeisen-Platz,2,Wien,1020,asian,Su-Fr 10:30-22:00
3372995956,Colala,16.3980795,48.2290872,Friedrich-Hillegeist-Straße,2,Wien,1020,asian;teppanyaki;sushi;buffet,"Mo-Tu 11:00-22:00; We-Fr,Su 11:00-01:00; Sa 11:30-01:00"
3395361593,Pitabox,16.3810212,48.2186551,Taborstraße,38,Wien,1020,fast_food,Mo-Sa 10:00-22:00; Su 11:00-22:00
3409700840,Mr Döner's,16.3713357,48.2194368,Untere Augartenstraße,2,Wien,1020,fast_food,"Mo-Fr 11:00-22:00; PH,Su 12:00-22:00"
3416889630,Pratersauna Würstelstand,16.4049999,48.2134109,Prater,135,Wien,1020,fast_food,
3456346364,Altenberg,16.377468,48.2180717,Haidgasse,5,Wien,1020,pub,Mo-Fr 10:00+
3456346368,Los Mexikas,16.3773978,48.2182475,Große Sperlgasse,31,Wien,1020,mexican,"Mo-Sa 11:00-23:00,18:00-23:00"
3456346382,Ugi's,16.3770706,48.2176864,Karmelitermarkt,,Wien,1020,fast_food,"Mo-Fr 11:00-21:00; Sa-Su,PH off"
3462959839,Bao MeBu,16.3796001,48.2137117,Taborstraße,11A,Wien,1020,meat;burger;asian,Su-Th 11:30-22:30; Fr-Sa 11:30-24:00
3509532313,Madai,16.3783653,48.2167192,Karmelitergasse,1,Wien,1020,italian,Tu-Sa 11:00-24:00
3509894396,2Lounge,16.3872136,48.2159756,Praterstraße,54,Wien,1020,bar,Mo-Th 12:00-01:00; Fr-Sa 12:00-14:00; Su 14:00-00:00
3515938930,Leopoldistüberl,16.3765333,48.2194138,Schiffamtsgasse,19,Wien,1020,bar,
3526433066,Cafe+Co,16.376402,48.2139772,Friedrich-Wilhelm-Raiffeisen-Platz,1,Wien,1020,cafe,
3566377888,Automat Welt,16.3867152,48.2224224,Volkertplatz,11,Wien,1020,regional,Tu-Fr 16:00-01:00; Sa 17:00-01:00; Su 11:00-24:00
3585996805,El Gaucho,16.379963,48.212886,Große Mohrengasse,1,Wien,1020,steak_house,Mo-Sa 11:30-01:00
3603561816,Hashi Asian Kitchen,16.3798388,48.2134312,Taborstraße,8,Wien,1020,japanese,"Mo-Fr 11:00-22:00; PH,Su 12:00-22:00"
3603561825,Tre Viet - Taste of Vietnam,16.3774153,48.2170323,Karmelitermarkt,,Wien,1020,fast_food,Mo-Th 10:00-19:00; Fr 14:00-18:00; Sa 08:00-15:00
3603561827,Li's Wok To Go,16.3805487,48.2176006,Rotenkreuzgasse,4,Wien,1020,asian,Mo-Sa 11:00-21:00
3603561833,Tchibo,16.3801046,48.215471,Karmeliterplatz,1,Wien,1020,cafe,Mo-Fr 08:30-18:30; Sa 09:00-17:00
3716880892,La Cantine,16.3974064,48.222796,Lassallestraße,7A,Wien,1020,restaurant,Mo-Th 08:00-20:00; Fr 08:00-15:00
3894592155,Franz von Hahn,16.3819396,48.2177094,Rotensterngasse,10,Wien,1020,bar,"Mo-Fr 18:00-02:00, Sa 19:00-02:00, Su 19:00+"
3952841365,Schweizerhaus Gassenverkauf,16.4018722,48.2140298,Prater,116,Wien,1020,fast_food,
3996185494,essbar,16.4260759,48.2079613,Josef-Fritsch-Weg,2-4,Wien,1020,restaurant,
4090485838,Pizzeria il mercato,16.4016969,48.221654,Vorgartenmarkt,,Wien,1020,pizza,Mo-Sa 11:30-22:00; Su off
4090508632,Fire Noodles,16.4062593,48.2182621,Sebastian-Kneipp-Gasse,3,Wien,1020,fast_food,"Mo-Fr 10:00-21:00; PH,Su 11:00-21:00"
4090512402,VAMOS,16.4061473,48.2182018,Sebastian-Kneipp-Gasse,1,Wien,1020,fast_food,
4091067531,Combo Bar,16.4042664,48.2196138,Feuerbachstraße,12,Wien,1020,bar,"We, Th 16:00-00:00; Fr, Sa 16:00-01:00; Su 16:00-22:00"
4091067537,The Good Coffee Society 1020 Vol. 2,16.4055831,48.2197031,Hillerstraße,4,Wien,1020,cafe,"Su 10:00-16:00, Sa 09:00-16:00, Mo 10:00-16:00; PH off"
4099979132,PEPE NERO,16.4008032,48.2226366,Ybbsstraße,35,Wien,1020,pizza,Mo-Su 11:00-22:00
4099993153,Zum Hühnerstall,16.4022862,48.2230335,Ybbsstraße,46,Wien,1020,restaurant,
4100000112,Zum Schlauch,16.4014517,48.223566,Vorgartenstraße,146-148,Wien,1020,pub,
4100007717,Club 9 Club,16.3985405,48.2207068,Wolfgang-Schmälzl-Gasse,9,Wien,1020,bar,
4100575549,plava laguna,16.3988814,48.2196446,Arnezhoferstraße,12,Wien,1020,bar,"Mo-Fr 08:00-19:00; Sa,Su 09:00-19:00"
4100575557,Zur Legende,16.3989954,48.2194033,Wolfgang-Schmälzl-Gasse,22,Wien,1020,bar,"Tu,We 18:00-24:00; Th-Sa 18:00-02:00"
4100575561,Marion's Bar,16.3986313,48.2181903,Ausstellungsstraße,9,Wien,1020,bar,
4100575567,Cafe Happy Day,16.398992,48.2193332,Wolfgang-Schmälzl-Gasse,22,Wien,1020,pub,
4100575572,Donburi Asia Cuisine,16.3965518,48.2209554,Lassallestraße,6,Wien,1020,asian,"Mo-Fr 11:00-15:00, 17:00-22:00; Su 12:00-22:00"
4100575577,Prater Lounge,16.3989471,48.2189154,Wolfgang-Schmälzl-Gasse,26,Wien,1020,bar,"Mo-Th 13:00-26:00; Fr 14:00-26:00; Sa,Su 15:00-26:00"
4109903439,Supersense,16.3891325,48.2169132,Praterstraße,70,Wien,1020,cafe,
4111596215,WiesenGreissler,16.4058835,48.2031346,Lukschgasse,5,Wien,1020,cafe,08:00-20:00
4118511706,Café Susi,16.3997011,48.218173,Ausstellungsstraße,15,Wien,1020,cafe,
4118583445,Café Pam Pam,16.4013229,48.2196112,Obermüllnerstraße,1,Wien,1020,cafe,"Mo-Su,PH 16:00-04:00"
4226900394,Restaurant zum Englischen Reiter,16.4007421,48.2147621,Prater,58,Wien,1020,restaurant,
4229810594,Würstelhütte,16.4024942,48.2157108,Prater,149,Wien,1020,fast_food,
4229895332,Stormy Sunday,16.4011864,48.2149032,Prater,62,Wien,1020,restaurant,
4229895333,Praterschwemme,16.4013071,48.2148675,Prater,61,Wien,1020,restaurant,
4229895340,Prater Alm,16.4020539,48.2153445,Prater,71B,Wien,1020,restaurant,"Di-Do 15:00-23:00; Fr-Sa 11:00-24:00; So,PH 11:00-20:00"
4233346264,Steak Döner,16.3809511,48.2164259,Taborstraße,22,Wien,1020,restaurant,"Mo-Su,PH 10:00-22:00"
4239973193,Don Camillo,16.4215123,48.2102349,Olympiaplatz,2,Wien,1020,restaurant,
4247049478,Schnitz'l Land,16.3842778,48.2219954,Vereinsgasse,18,Wien,1020,fast_food,10:00-23:00
4280564309,L'Osteria,16.404617,48.2148305,Prater,120,Wien,1020,italian,
4304575856,Café Zebra,16.3712087,48.221423,Rembrandtstraße,15,Wien,1020,cafe,
4329729460,DAS BEISL im Prater,16.4007768,48.2137716,Prater,113,Wien,1020,restaurant,
4410262644,Lieblinxplatz,16.3743813,48.2165697,Obere Donaustraße,69,Wien,1020,cafe,Mo-Th 08:00-16:00
4430291820,Restaurant Tempel,16.3874092,48.2160684,Praterstraße,56,Wien,1020,restaurant,"Mo-Fr 11:00-15:00,18:00-23:00"
4449369247,Rollercoaster,16.3967726,48.2173141,Riesenradplatz,6,Wien,1020,restaurant,Mo-Th 06:00-22:00; Fr-Su 11:30-22:00
4467430289,Balthasar Kaffee Bar,16.3851118,48.2148355,Praterstraße,38,Wien,1020,cafe,Mo-Fr 07:30-19:00; Sa 09:00-17:00
4564764973,Zum Kaiser,16.3959416,48.2175874,Riesenradplatz,4,Wien,1020,austrian;fine_dining,Mo-Tu off; We-Su 11:00-23:00
4592873390,Cafe Little Britain,16.4169071,48.2149709,Kurt-Heller-Hof,,Wien,1020,cafe,"Mo,Tu off; We-Su 09:00-18:00"
4598247456,Schnitzel- und Fischhaus,16.373567,48.2215661,Untere Augartenstraße,25,Wien,1020,fast_food,Mo-Fr 09:00-20:00; Sa 11:00-18:00
4608592067,Burger's Bar,16.4110037,48.2167348,Vorgartenstraße,204,Wien,1020,american;burger;mexican,Mo-Su 11:00-23:00
4675478594,Mochi Ramen Bar,16.4023823,48.2219257,Vorgartenmarkt,,Wien,1020,ramen,Tu-Sa 11:30-21:30
4778519351,Leones,16.3822893,48.213429,Praterstraße,16,Wien,1020,ice_cream,
4805418222,feinste burger,16.3774336,48.2172879,Karmelitermarkt,,Wien,1020,fast_food,
4805517222,o-m-k - O mochi kaeri,16.3822445,48.2134102,Praterstraße,16,Wien,1020,fast_food,"Mo-Fr 11:00-21:00, Sa 12:00-21:00"
4823050323,Ali Baba,16.3990465,48.2155594,Prater,51A,Wien,1020,fast_food,
4823108122,Neuzeit,16.3973796,48.2171037,Prater,2,Wien,1020,cafe,
4823108123,Fercos,16.3986562,48.2152773,Prater,106,Wien,1020,restaurant,
4823125022,Knusperhäuschen,16.3983204,48.2164252,Prater,18B,Wien,1020,cafe,
4823125023,Zum Kuckuck,16.3983928,48.2158352,Prater,104A,Wien,1020,cafe,
4823125024,Big Fat Kebap,16.3989489,48.2152808,Prater,106,Wien,1020,fast_food,
4823125025,Grill-Spezialitäten,16.3995911,48.2148375,Prater,108B,Wien,1020,fast_food,
4876515849,Monte Ofelio Bar,16.3797323,48.2195114,Obere Augartenstraße,70,Wien,1020,bar,"Th,Fr 12:00-22:00; Sa 10:00-22:00"
4894814522,Die Allee,16.4049401,48.21085,Prater,124,Wien,1020,restaurant,"Mo, Tu, We 14:00-23:00; Th 11:00-23:00; Fr 11:00-01:00; Sa 10:00-01:00; Su, PH 09:00-22:00"
4901603318,The Bar,16.399262,48.217114,Prater,13-15,Wien,1020,bar,
4932958231,Florenti,16.3877495,48.2191033,Aloisgasse,5,Wien,1020,cafe,Mo-Su 08:00-22:00
4932958233,Ova,16.3880127,48.2190452,Aloisgasse,5,Wien,1020,fast_food,Mo-Fr 10:00-21:00; Sa 11:00-21:00; PH 12:00-21:00
4939082645,Pizzamann,16.3915942,48.2148721,Franzensbrückenstraße,13,Wien,1020,fast_food,11:00-03:00
5043372699,Leopold Imbiss,16.3763157,48.2199523,Malzgasse,12A,Wien,1020,fast_food,Mo-Su 10:00-21:00
5043372704,New York,16.3756894,48.2207591,Leopoldsgasse,11,Wien,1020,fast_food,"Mo-Fr 11:00-15:00, Mo-Sa 17:00-23:00, PH,Su 11:00-23:00"
5146879958,Palmwedel Wien,16.3827241,48.2160716,Große Mohrengasse,24-26,Wien,1020,sandwich;german;regional;juice,Mo-Sa 15:30 - 24:00
5162648678,Lauserpause Kindercafé,16.3822122,48.2262819,Nordpolstraße,4,Wien,1020,cafe,
5167196953,Meydan,16.3859559,48.2230537,Volkertmarkt,,Wien,1020,fast_food,Mo-Fr 07:30-22:00; Sa 08:00-22:00; Su off
5235996506,Kerstin,16.3875,48.2182281,Weintraubengasse,33,Wien,1020,bar,Mo-Sa 13:00+; Su 20:00+
5257379816,Mochi,16.3817687,48.2135455,Große Mohrengasse,8,Wien,1020,japanese,Mo-Sa 11:30-22:00
5257379817,StewART,16.3809742,48.2130337,Große Mohrengasse,4,Wien,1020,cafe,Mo-Fr 11:00-14:00
5259640321,Pizzeria Al Pacino,16.3984005,48.2059288,Schüttelstraße,47,Wien,1020,pizza,Mo-Fr 11:00-17:00; PH off
5280244122,L‘Orient,16.3839485,48.2171768,Rotensterngasse,22,Wien,1020,moroccan,Th 17:00-23:00; Fr-Su 12:00-23:00
5292422764,Basz Bar,16.3764453,48.2155552,Hollandstraße,7,Wien,1020,bar,Mo-Sa 17:00-01:00
5472976122,Coconut Curry,16.3879762,48.2168247,Afrikanergasse,4,Wien,1020,asian,"Mo-Fr, Su 11:00-23:00"
5512473804,Coucou,16.3768764,48.2154951,Hollandstraße,10,Wien,1020,restaurant,
5584715463,The Good Coffee Society 1020,16.4054659,48.2195891,Hillerstraße,2,Wien,1020,cafe,Tu-Fr 08:00-16:00; Sa 09:00-16:00; Su 10:00-16:00
5590224672,Veganista,16.3798965,48.2146386,Taborstraße,15,Wien,1020,ice_cream,Mo-Su 12:00-23:00
5730357586,werd:art,16.3765765,48.2189788,Im Werd,19,Wien,1020,cafe,
5730357610,Pizza Prego Imbiss,16.3811986,48.2200997,Taborstraße,43,Wien,1020,fast_food,Su-Th 12:00-21:00
5730357614,Alpha Cafe,16.3828448,48.2192674,Novaragasse,12A,Wien,1020,cafe,
5730357618,WATAN IMBISS,16.3823868,48.2193402,Novaragasse,10,Wien,1020,fast_food,"Sa-Th 09:00-22:00; Fr 09:00-13:00,13:30-22:00"
5737602894,Nguyen's,16.3805683,48.2169195,Taborstraße,21A,Wien,1020,vietnamese,"We-Mo 12:00-15:00, 17:00-22:00"
5737602902,Cafe Johann Strauss,16.3772692,48.2159367,Kleine Sperlgasse,2,Wien,1020,cafe,
5762966457,Das Glashaus,16.4120651,48.2118847,Trabrennstraße,2A,Wien,1020,restaurant,"Mo-Fr 11:30-22:00; PH,Su 09:00-15:00; Sa 09:00-22:00"
5852403299,Blumenwiese,16.3781033,48.212619,Obere Donaustraße,100,Wien,1020,burger;regional,Th-Sa 12:00-02:00; Su-We 12:00-24:00
5857092013,Gösser Eck,16.4013165,48.2161202,Prater,36,Wien,1020,regional,Mo-Su 10:00-00:00
5904861029,Smash Burger,16.3886282,48.2192397,Kleine Stadtgutgasse,10,Wien,1020,restaurant,
5980993744,KSV Restaurant,16.3999848,48.2096943,SP-STAW,,Wien,1020,regional,"Mo-Fr 07:00-23:00; Sa,Su,PH 07:00-18:00"
6106888885,Karma food,16.4079225,48.2181465,Ausstellungsstraße,63,Wien,1020,cafe,"Mo-Fr 08:00-16:00,Sa09:00-15:00,PH off"
6153263182,Pizzeria Pino,16.4029898,48.2243416,Lassallestraße,46,Wien,1020,italian,"Mo-Fr 12:00-23:00; Sa,Su,PH 17:00-23:00"
6239942659,Ramasuri,16.3822599,48.2137038,Zirkusgasse,2,Wien,1020,cafe,"Mo-Fr 08:00-24:00; Sa,Su 09:00-24:00"
6391563796,Bistro 2.0,16.4114094,48.2164783,Vorgartenstraße,204,Wien,1020,regional;international,Mo-Fr 11:00-15:00
6412519317,Noodle King,16.3929028,48.2261627,Bruno-Marek-Allee,13,Wien,1020,fast_food,Mo-Su 11:00-22:00
6631506381,Bao Bar,16.392406,48.2223709,Jakov-Lind-Straße,4,Wien,1020,asian,"Mo-Fr 11:30-20:00; Sa, Su, PH off"
6698863147,Art Cafe,16.3810171,48.2186998,Taborstraße,38,Wien,1020,cafe,Mo-Fr 08:00-22:00; Sa 09:00-22:00; Su 10:00-22:00
6698868099,Liwei's Kitchen,16.3810179,48.2187412,Taborstraße,38,Wien,1020,asian,"Mo-Fr 11:00-22:00; Sa,Su 11:00-21:30"
6746501269,by Lore - Cake Design,16.3786199,48.2166387,Karmelitergasse,3,Wien,1020,cafe,We-Fr 09:00-18:00; Sa 09:00-13:00
7056708383,Ichiban,16.3931356,48.2253014,Bruno-Marek-Allee,17,Wien,1020,cafe,Mo-Su 11:00-20:00
7056724591,Vogel Kaffee Micro Rösterei,16.3932222,48.2250454,Bruno-Marek-Allee,19,Wien,1020,cafe,"Mo-Fr 07:30-17:30; Sa,Su 08:30-17:30"
7102337423,karmeliter.at,16.377072,48.2177246,Karmelitermarkt,,Wien,1020,restaurant,Tu-Fr 15:00-18:00; Sa 08:00-12:00; Mo off
7128156085,Marischka Wien,16.3790669,48.2137285,Gredlerstraße,10,Wien,1020,cafe,
7214479270,Retro,16.4035438,48.2230442,Ennsgasse,25,Wien,1020,steak;burger;grill;italian_pizza;balkan,"Tu-Fr 17:00-23:00; Sa,Su 11:00-23:00"
7234304613,River Lodge,16.4496424,48.1949228,Dammhaufengasse,41,Wien,1020,restaurant,
7255945755,Semberija Grill,16.4039891,48.2232746,Ennsgasse,27,Wien,1020,restaurant,Mo-Su 08:00-22:00
7320655250,Spelunke,16.3790133,48.2127436,Obere Donaustraße,101,Wien,1020,austrian;mediterranean,"Mo-Th 17:00-02:00, Fr 17:00-04:00, Sa 10:00-04:00"
7462924860,Café Hoog - Freegan Café,16.3761484,48.2219114,Obere Augartenstraße,40A,Wien,1020,cafe,24/7
7671695663,SpoonFood,16.3932323,48.2217134,Walcherstraße,1A,Wien,1020,restaurant,Mo-Fr 11:00-15:00
7671695664,dean&david,16.3943253,48.2222987,Bruno-Marek-Allee,27,Wien,1020,salad;sandwich,"Mo-Fr 09:00-20:00; Sa,Su off; PH off"
7688580368,Noodle House,16.3841376,48.2142539,Praterstraße,30,Wien,1020,fast_food,Mo-Su 10:00-22:00
7689011776,Leones Gelato,16.3933764,48.224705,Bruno-Marek-Allee,21,Wien,1020,ice_cream,"Mo-Su,PH 00:00-22:30"
7746801438,Die Schankwirtschaft am Vorgartenmarkt,16.4015527,48.2215107,Vorgartenmarkt,,Wien,1020,cafe,"Tu-Su,PH 09:00-14:30; Mo off"
7881127578,"Kiss, the cook",16.3831093,48.215006,Komödiengasse,3,Wien,1020,brazilian;austrian,Mo-Fr 11:00-15:00
7881159727,Kayo Fusion Kitchen,16.3872109,48.2192068,Heinestraße,30,Wien,1020,restaurant,
7881213714,Fischerie,16.3874013,48.2166901,Praterstraße,49,Wien,1020,fish,"Tu-Fr 12:00-14:30,18:00-22:00; Sa 18:00-22:00; Su,Mo,PH off"
7881226905,Neyse,16.3835788,48.2140149,Praterstraße,26,Wien,1020,cafe,"Mo-Sa 08:00-18:00; PH,Su off"
7881248303,Buddha Bowls by elena´s,16.3822685,48.2134233,Praterstraße,16,Wien,1020,fast_food,Mo-Sa 11:00-22:00; Su 11:00-21:30
7881249371,Mea Shearim,16.3812298,48.2158983,Schmelzgasse,3,Wien,1020,asian;regional,"PH,Su-Th 12:00-22:00"
7881292549,Praterstrasse,16.3827051,48.2134514,Praterstraße,18,Wien,1020,bar,
7922033338,Ilkim,16.3900867,48.2173429,Franzensbrückenstraße,2,Wien,1020,fast_food,"Mo-Fr 09:00-17:30; Sa 09:00-12:30; PH,Su off"
7922033369,Family and Friends,16.3831177,48.2136301,Praterstraße,22,Wien,1020,restaurant,
7922565081,C,16.3862574,48.2233753,Volkertplatz,4,Wien,1020,cafe,"Mo-Sa 07:00-22:00; PH,Su 07:00-21:00"
7922573004,Rustico Pizza Napoletana,16.3811898,48.2180337,Rotensterngasse,3,Wien,1020,italian_pizza,Mo 16:00-22:30; Tu 11:30-22:30; We 10:30-15:00; Sa 21:00-00:30; Su 14:00-22:30
7922573005,Kaido,16.3814342,48.2179642,Rotensterngasse,3,Wien,1020,asian;sushi,"Mo,We-Fr 11:00-22:00; PH,Sa,Su 16:00-22:00; Tu off"
7925867134,YGF Hotpot,16.3879163,48.2167978,Afrikanergasse,4,Wien,1020,chinese;malatang,Mo-Su 11:30-22:30
7927336838,Unique Tea,16.380991,48.2181718,Taborstraße,30,Wien,1020,cafe,"PH,Mo-Su 11:00-19:00"
7964343927,Max & Benito,16.3925281,48.2231226,Jakov-Lind-Straße,7,Wien,1020,mexican,Mo-Fr 11:00-20:30; PH off
8072630563,Cafe Keto,16.3871791,48.2206907,Springergasse,2,Wien,1020,cafe,
8089011202,Mochi am Markt,16.4018865,48.2216289,Vorgartenmarkt,,Wien,1020,restaurant,Tu-Sa 15:00-23:00; Sa 12:00-22:00; PH off
8237521711,Lavanta,16.4128012,48.2178765,Machstraße,2,Wien,1020,fast_food,
8237521714,Yulin,16.411899,48.2184437,Engerthstraße,231-233,Wien,1020,sushi;noodle;asian,
8422811301,Hitomi,16.3881279,48.223926,Am Tabor,28,Wien,1020,asian,Tu-Su 11:00-22:00
8461386363,Da Pronto Pizza,16.3857062,48.2226348,Volkertplatz,14,Wien,1020,pizza,
8503637486,Mangal,16.402883,48.2242806,Mexikoplatz,22,Wien,1020,fast_food,Mo-Su 09:00-22:00
8503637488,Çiğköfte,16.4046505,48.2231445,Engerthstraße,196,Wien,1020,fast_food,Mo-Su 09:00-23:00
8503637490,Giovani Café,16.4045304,48.2232383,Ennsgasse,22,Wien,1020,cafe,Mo-Sa 09:00-19:00
8503761137,Community,16.3993036,48.21894,Wolfgang-Schmälzl-Gasse,21,Wien,1020,restaurant,
8765669044,Bayat,16.3955669,48.2312025,Engerthstraße,147,Wien,1020,fast_food,
8765669047,Hühnerparadies,16.3960234,48.2308181,Engerthstraße,149,Wien,1020,fast_food,Mo-Fr 09:00-19:00; Sa 11:00-19:00
8783073413,Pita & more,16.3859751,48.2166575,Rotensterngasse,33-35,Wien,1020,restaurant,Mo-Su 08:00-23:00
8820428092,Restaurant Stefanie,16.3802207,48.2144545,Große Mohrengasse,7,Wien,1020,restaurant,"Mo-Fr 12:00-14:30,18:00-22:00; Sa-Su 18:00-22:00 ""Mittags geschlossen. Ausgenommen 'Sonntags-Brunch' während der Brunch-Saison""; PH 18:00-22:00"
8826034055,Speisen ohne Grenzen am Badeschiff,16.3812215,48.2117879,Donaukanal,,Wien,1020,syrian;afghan;african,Mo-Su 12:00-22:00
8831989137,Feuerdorf,16.3964285,48.2155496,Hauptallee,89,Wien,1020,restaurant,
8835079217,Aurwya Imbiss,16.4010389,48.2228069,Ybbsstraße,37,Wien,1020,fast_food,
8868144691,Mahlzeit,16.3908467,48.2155562,Franzensbrückenstraße,16,Wien,1020,restaurant,Tu-Su 11:00-22:00
8906935439,Kokos,16.3723612,48.2197429,Franz-Hochedlinger-Gasse,4,Wien,1020,fast_food,Mo-Sa 18:00-22:00
8911128930,Gasthaus Hold,16.3980576,48.2072774,Schüttelstraße,35,Wien,1020,restaurant,
8934849317,Eiscafé la Fonte,16.4027134,48.2241922,Lassallestraße,44,Wien,1020,ice_cream,11:00-23:00
8934849417,İlkim,16.4024487,48.2240606,Vorgartenstraße,187,Wien,1020,fast_food,Mo-Sa 08:00-00:00; Su 08:00-24:00
8934849418,Noodle King,16.4024765,48.2240733,Vorgartenstraße,187,Wien,1020,fast_food,"Mo-Su,PH 10:30-22:30"
9100442951,SoFare,16.3769848,48.2156577,Hollandstraße,10,Wien,1020,restaurant,"Mo-Fr 10:00-15:00,17:00-22:00; Sa,Su 10:30-22:00"
9136036440,Vino con Musica,16.3864835,48.2182691,Zirkusgasse,50,Wien,1020,pizza,
9159379766,Foodie Fridge,16.3799242,48.214692,Taborstraße,15,Wien,1020,restaurant,24/7
9200392095,Gasthaus Bundesländer,16.3900105,48.214583,Körnergasse,9,Wien,1020,restaurant,
9279755728,Neni am Prater,16.4031692,48.216317,Perspektivstraße,8,Wien,1020,restaurant,
9495208587,Kopi Kadé - Der Kaffeeladen,16.3935277,48.2218306,Walcherstraße,1A,Wien,1020,cafe,06:45-15:45
9554122729,Baschly,16.4073298,48.2142801,Trabrennstraße,1,Wien,1020,fast_food,
9667040017,Tonios Tacos,16.381856,48.2215735,Taborstraße,59,Wien,1020,mexican,We-Th 17:00-22:00; Fr-Su 12:00-22:00
9704691213,Al Basha,16.3905177,48.2170588,Franzensbrückenstraße,4,Wien,1020,cafe,We-Mo 11:00-22:00
9707708496,Die Weinbar,16.3985242,48.205947,Schüttelstraße,47,Wien,1020,bar,"Mo-Fr 15:30-02:00, PH,Sa,Su 15:00-02:00"
9741356817,Zur Greisslerin,16.4389257,48.2005164,Wehlistraße,309,Wien,1020,fast_food,
9775054317,Goldener Papagei,16.3819656,48.213646,Große Mohrengasse,10,Wien,1020,cafe,Mo-Su 08:00-19:00
9830592079,Praterwirt,16.3860472,48.2159118,Praterstraße,45,Wien,1020,regional,Mo-Su 11:30-24:00
9854186197,taste!,16.3750364,48.2150064,Obere Donaustraße,gegenüber 83,Wien,1020,bar,
9874804665,Safari Club,16.4015305,48.2196356,Obermüllnerstraße,1,Wien,1020,bar,
9874815400,Buffalo Hot Wings,16.4051825,48.2191652,Ilgplatz,8,Wien,1020,restaurant,
9961183000,Community,16.3993071,48.2189247,Wolfgang-Schmälzl-Gasse,21,Wien,1020,bar,
9976820486,bistro deppat,16.3770681,48.2183809,Im Werd,6,Wien,1020,regional;breakfast,"Th,Sa,Su 09:00-16:00; Fr 09:00-15:00,17:00-22:00; Mo-We off"
10016846982,Mazzes Insel,16.3830935,48.2174915,Große Mohrengasse,31,Wien,1020,restaurant,Mo-Fr 10:00-14:00
10066597647,Malka,16.3830229,48.224375,Taborstraße,81,Wien,1020,italian,"Mo-Th 18:00-23:30; Su,PH 14:00-23:20; Sa 17:00-23:30 ""30 min nach Schabbat"""
10225863471,Das Anabol,16.4305113,48.2067914,Wehlistraße,291,Wien,1020,restaurant,"Tu-Th 10:00-22:00; Fr,Sa 08:00-23:00; Su 09:00-21:00"
10694683094,Randale,16.3847343,48.2214193,Heinestraße,15,Wien,1020,pizza,
10737697764,Salamucci,16.39581,48.2171321,Riesenradplatz,2,Wien,1020,fast_food,
10737697765,Eisvogel,16.3959209,48.2170722,Riesenradplatz,2,Wien,1020,ice_cream,
10737697769,Antica Gelateria del Corso,16.3948829,48.2173905,Ausstellungsstraße,4,Wien,1020,ice_cream,
10737697770,Naschhäuschen,16.3981085,48.2165832,Prater,18C,Wien,1020,ice_cream,
10737697776,Zum Riesenrad,16.3961257,48.2168731,Riesenradplatz,1,Wien,1020,cafe,
10739279963,Cafe 6,16.3870732,48.222211,Volkertstraße,20,Wien,1020,cafe,
10832093245,Istros,16.3734281,48.2176641,Herminengasse,2,Wien,1020,bar,Su-Th 16:00-24:00; Fr-Sa 16:00-01:00
10966047904,tschak,16.3748418,48.2152234,Schiffamtsufer,,Wien,1020,bar,
11035854603,meierei,16.3996832,48.2136893,Hauptallee,3,Wien,1020,regional,May-Aug Mo-Su 11:00-22:00; Sep-Apr Mo-Su 11:00-21:00
11063033225,Helli & Leo,16.3786887,48.2127715,Obere Donaustraße,101,Wien,1020,ice_cream,
11076911882,Bliss,16.4027451,48.2231248,Vorgartenstraße,154,Wien,1020,cafe,"Mo-Fr 08:00-20:00; Sa,Su,PH 09:30-20:00"
11076911989,Cafe HB,16.3815776,48.2271751,Nordwestbahnstraße,23,Wien,1020,cafe,
11078931335,Moon Crust Pizza,16.3825409,48.2134796,Praterstraße,18,Wien,1020,pizza,We-Sa 18:00-22:00
11085071688,TeaCo,16.3854593,48.2150263,Praterstraße,40,Wien,1020,chinese;asian;bubble_tea,Su-Fr 11:00-22:00; Sa off
11107540832,Uno Momento,16.3881321,48.2274154,Alliiertenstraße,19,Wien,1020,pizza,
11165400132,Cafe Espresso Bobby,16.4167836,48.2149923,Kurt-Heller-Hof,,Wien,1020,cafe,
11208427637,Meister Langos & Lemon,16.3990187,48.2167201,Prater,23,Wien,1020,fast_food,Mo-Su 12:00-21:00
11422599969,Pizza Preferita,16.3730403,48.2195002,Franz-Hochedlinger-Gasse,7,Wien,1020,italian;italian_pizza,Tu-Su 11:30-23:30
11499960769,Empanadas Blitz,16.3839632,48.215461,Zirkusgasse,20,Wien,1020,argentinian,Mo-Fr 11:30-22:00; Sa 16:00-22:00
11505906735,OXBO Vienna Waterfront,16.4216149,48.2143704,Handelskai,269,Wien,1020,international;regional;coffee_shop,Mo-Su 06:30-23:00
11586917569,Schalom Food,16.3828818,48.2175468,Große Mohrengasse,31,Wien,1020,fast_food,Su-Th 07:00-23:00
11677605764,Café Fokus,16.3798872,48.2192036,Kleine Pfarrgasse,28,Wien,1020,cafe,"Di-Fr 07:30-17:00, Sa-So 09:00-16:00,"
11682241801,Pizzeria Mari,16.3741275,48.2215205,Leopoldsgasse,2,Wien,1020,pizza,
11749860278,Felice,16.3760193,48.2150745,Hollandstraße,1A,Wien,1020,fast_food,Mo-We 10:00-15:30; Th-Sa 10:00-20:00
11959988972,Wittelsbach Kebap,16.3985497,48.2061959,Wittelsbachstraße,3,Wien,1020,fast_food,Mo-Fr 10:00-21:00; Su 12:00-21:00
12001365069,l'arte,16.4298745,48.2063658,Wehlistraße,330,Wien,1020,italian;italian_pizza;pizza,Mo-Su 11:00-23:00
12104510501,Chop Chop Guys,16.4013714,48.2159324,Prater,36,Wien,1020,fast_food,Mo-Th 14:00-21:00; Fr-Su 13:00-22:00
12204791403,Heines,16.3897446,48.2181411,Heinestraße,42,Wien,1020,cafe,Tu-Fr 14:00-22:00; Su 10:00-15:00
12380340487,Wok Sushi Time,16.3822563,48.2217581,Taborstraße,58,Wien,1020,fast_food,Mo-Fr 11:00-22:00; Sa-Su 12:00-22:00
12488336144,VeAhavta!,16.3808073,48.2161747,Taborstraße,20A,Wien,1020,restaurant,Su-Fr 08:00-22:00
12595879048,Panorama Restaurant,16.4128129,48.2146118,Trabrennstraße,7,Wien,1020,restaurant,
12595879049,Uptown Restaurant,16.4091768,48.2156918,Trabrennstraße,5,Wien,1020,restaurant,"""während Veranstaltungen"""
12595879050,Atrium Lounge & Bar,16.4086961,48.216923,Ausstellungsstraße,50,Wien,1020,bar,"""während Veranstaltungen"""
12597726457,Pigalle,16.3813715,48.2129754,Ferdinandstraße,1,Wien,1020,bar,Tu-Th 18:00-01:30; Fr-Sa 18:00-03:00
12626404942,ÖBB Bahn Bistro,16.3948268,48.2218769,Lassallestraße,3,Wien,1020,fast_food,Mo-Fr 11:00-14:00
28687244,Cafemima,16.3771697,48.2173055,Karmelitermarkt,,Wien,1020,restaurant,Mo-Fr 8:30-22:00; Sa 8:00-14:00
28687247,Pizzaquartier,16.3763387,48.2170772,Karmelitermarkt,,Wien,1020,pizza,Mo-Fr 10:30-23:00; Sa 09:30-23:00
28949603,Kantine Stadion,16.4224019,48.20642,Marathonweg,6,Wien,1020,fast_food,
29222661,Würstelstand Stadion,16.4197097,48.2089862,Meiereistraße,14A,Wien,1020,fast_food,Mo-Fr 07:00-20:00; Sa 09:00-17:00; Su 09:00-19:00
29695878,Café Engländer Praterstern,16.3911473,48.2183965,Praterstern,9,Wien,1020,regional,Mo-Sa 08:00-22:30; Su 10:00-22:30; PH 10:00-22:30
33437255,Schützenhaus,16.3726249,48.2179025,Obere Donaustraße,26,Wien,1020,restaurant,Mo-Fr 16:00-23:00
93893073,Coffee & Dogs,16.4139357,48.2142239,Trabrennstraße,7,Wien,1020,fast_food,Mo-Fr 07:30-17:00
98105901,Altes Jägerhaus,16.4390856,48.1931206,Freudenau,255,Wien,1020,regional,"Th-Sa 11:00-22:00; Su,PH 11:00-21:00"
98105904,Lusthaus,16.4389018,48.1926112,Freudenau,254,Wien,1020,restaurant,
132758367,Pratersauna,16.4043883,48.2133669,Prater,135,Wien,1020,bar,
141104069,Prater Dome,16.3970497,48.217157,Riesenradplatz,7,Wien,1020,bar,Fr-Sa 22:00-06:00
152235190,Cafe Pavillion,16.4087478,48.2166893,Ausstellungsstraße,50,Wien,1020,cafe,"""während Veranstaltungen"""
152235213,Cafe Modern Times,16.410371,48.2155969,Trabrennstraße,5,Wien,1020,cafe,
154332008,Mat's Würstelstand,16.3908378,48.2172841,Franzensbrückenstraße,,Wien,1020,fast_food,"Mo-Fr 10:00-04:00, Sa,Su,PH 17:00-04:00"
158728397,Summer Stage,16.3679556,48.2209525,Roßauer Lände,11,Wien,1090,restaurant,
159314351,Der Garten,16.4026362,48.2087969,Rustenschacherallee,,Wien,1020,restaurant,"Mo-Th 15:00-23:00,Fr-Sa 14:00-24:00,Su 12:00-21:00"
161841543,Wasserwiese,16.4187606,48.1964535,KLG Wasserwiese,,Wien,1020,restaurant,
161845516,Schutzhaus Heustadlwasser,16.4375479,48.1982074,KLG Unter dem Heustadlwasser,,Wien,1020,regional,Mo-Tu off; We-Su 11:00-20:00
177696120,Üçler Imbiss,16.404179,48.223603,Mexikoplatz,18,Wien,1020,fast_food,
183616032,NENI am Wasser,16.3733292,48.2172974,Herminengasse,2,Wien,1020,bar,Mo-Sa 17:00-24:00; Su off
199116911,Schweizerhaus,16.4011016,48.2139674,Prater,111,Wien,1020,regional,"Mar 15-Oct 31 Mo-Su,PH 11:00-23:00"
203994881,Estancia Santa Cruz,16.4031386,48.2123402,Prater,122,Wien,1020,mexican,
285543647,Santo,16.404305,48.2137882,Prater,131B,Wien,1020,restaurant,
291233013,Meister Langos Austria,16.397662,48.2161513,Prater,96,Wien,1020,fast_food,
291278297,Ponykarrussel,16.4017346,48.2145005,Prater,86A,Wien,1020,cafe,"Mo-Su,PH 09:00-18:00"
291288041,Praterbuffet,16.4041326,48.2149297,Prater,120,Wien,1020,fast_food,
291304420,Mannerbar,16.3969115,48.216579,Prater,95,Wien,1020,cafe,
304847636,zur Kernigen,16.4009342,48.2061681,Rustenschacherallee,,Wien,1020,restaurant,Mo-Sa 11:00+; Su 11:00-20:00
325740573,Freude now,16.4396899,48.1916558,Rennbahnstraße,65A,Wien,1020,fast_food,
326057763,Donauweibchen,16.4791685,48.1746788,Freudenauer Hafenstraße,31,Wien,1020,fast_food,Mo-Fr 09:00-19:00
334190260,Bitzinger,16.3941068,48.2176948,Prater,S,Wien,1020,fast_food,"Mo-Th 15:00-23:00; Fr, Sa 11:00-05:00; Su 11:00-23:00"
361672179,Badeschiff,16.3818033,48.2117526,Donaukanal,,Wien,1020,restaurant,Mo-Su 10:00-01:00
368897674,Ginza,16.3929967,48.2183693,Bahnhof Wien Praterstern,B,Wien,1020,sushi,"Tu-Su 11:00-22:00; PH Mo 11:00-22:00; May-Aug,Dec Mo 11:00-22:00"
368897675,Ku'damm,16.3932544,48.2189389,Personentunnel Praterstern-Lassallestr.,216,Wien,1020,fast_food,
368897678,Vitea,16.3931985,48.2188957,Personentunnel Praterstern-Lassallestr.,216,Wien,1020,fast_food,
368952931,McDonald's,16.3918368,48.2181639,Bahnhof Wien Praterstern,B,Wien,1020,fast_food,"Mo-Th 07:00-24:00; Fr 07:00-01:00; Sa 05:00-01:00; Su,PH 05:00-24:00"
368952932,Segafredo,16.3920154,48.2184159,Bahnhof Wien Praterstern,B,Wien,1020,cafe,
394887464,Eisliebe,16.4054176,48.2104946,Prater,125B,Wien,1020,ice_cream,"Mo-Su,PH 10:00-21:00"
404077786,Marina Imbiss,16.4307402,48.2061666,Handelskai,346,Wien,1020,fast_food,"PH,Mo-Su 09:00-23:30"
422909172,Almradler,16.3962348,48.2153092,Hauptallee,89,Wien,1020,ice_cream,
425373973,Kebap Paradies,16.3803686,48.2160184,Taborstraße,20,Wien,1020,fast_food,
538500458,Tasty Meals,16.3953552,48.2178791,Straße des Ersten Mai,S,Wien,1020,fast_food,
541515901,Kaiserzeit,16.370947,48.2190217,Augartenbrücke,,Wien,1020,fast_food,Mo-Fr 11:30-24:00; Sa 17:00-24:00
603721013,Extra Würstel,16.3811184,48.2187505,Taborstraße,38,Wien,1020,fast_food,
627745617,Abra Kebapra,16.4014044,48.22433,Lassallestraße,21,Wien,1020,fast_food,
633610319,VOLEE,16.4007496,48.2077134,Rustenschacherallee,7,Wien,1020,restaurant,Mo-Fr 11:00-21:00; Sa-Su 10:00-21:00
1013775833,Luftburg Kolarik,16.4030132,48.2134726,Prater,128,Wien,1020,regional,"Mo-Th 16:00-23:00; Fr-Su, PH 11:00 - 23:00"
1135371099,Burger King,16.4002096,48.214585,Prater,114,Wien,1020,fast_food,Fr 13:00-23:00; Mo-Th 14:00-22:00; Sa 12:00-23:00; Su 11:00-22:00
1190883072,Hanswurstl,16.4012726,48.2176551,Perspektivstraße,1,Wien,1020,fast_food,
1204720234,Spenadl,16.4044766,48.2101809,Prater,125B,Wien,1020,fast_food,
1204720242,Cafe Konstantin,16.4061631,48.2090629,Rotundenallee,15,Wien,1020,regional,"Mo-Su,PH 10:00-21:00"
1275453383,Green,16.3919626,48.2172634,Personentunnel Praterstern-Hauptallee,218,Wien,1020,chinese,Tu-Su 11:30-22:30
1275453385,Wiener Würstelstand,16.3921179,48.2178559,Bahnhof Wien Praterstern,B,Wien,1020,fast_food,
1275453386,Türkis,16.3922932,48.2175876,Praterstern,5,Wien,1020,fast_food,Mo-Su 09:00-24:00
1275453387,QuickWu,16.3923471,48.2177559,Praterstern,5,Wien,1020,running_sushi,Mo-Fr 11:00-22:00; Su 12:00-22:00
1275453388,Café Bar Bier & Zeit,16.392171,48.2173765,Personentunnel Praterstern-Hauptallee,218,Wien,1020,pub,10:00-04:00
1275453389,Kate's Cafe Bar,16.3921653,48.2174327,Personentunnel Praterstern-Hauptallee,218,Wien,1020,cafe,Mo-Su 08:00-01:00
1275453392,Happy Noodles,16.3918269,48.2182228,Bahnhof Wien Praterstern,B,Wien,1020,fast_food,"Mo-We 10:00-02:00, Th-Su 10:00-04:00"
1275453395,Hendricks Sportsbar,16.3925938,48.2181214,Bahnhof Wien Praterstern,B,Wien,1020,bar,Mo-Fr 08:00-02:00; Sa-Su 10:00-02:00
1275453396,oses,16.3926225,48.2183529,Bahnhof Wien Praterstern,B,Wien,1020,fast_food,
