id,name,lat,long,addr:street,addr:housenumber,addr:city,addr:postcode,cuisine_or_amenity,opening_hours
76469902,Pizzeria Eduardo,16.3926105,48.2089007,Löwengasse,31A,Wien,1030,pizza,11:00-23:00
76656467,Gasthaus Wild,16.3898294,48.2105958,Radetzkyplatz,1,Wien,1030,restaurant,Tu-Sa 11:30-00:00; Su 11:30-22:30
115212652,Hitomi,16.3972629,48.1941577,Oberzellergasse,2,Wien,1030,fast_food,Tu-Su 11:30-22:00; Mo off
115513011,aïda,16.3956178,48.1968722,Juchgasse,2,Wien,1030,cafe,"Mo-Fr 07:00-19:00; Sa 08:00-19:00; Su, PH 09:00-19:00; Jul-Aug Mo-Fr 07:00-18:00; Jul-Aug Sa 08:00-18:00; Jul-Aug Su, PH 09:00-18:00"
119371746,Salm Bräu,16.3809023,48.1965909,Rennweg,8,Wien,1030,regional;austrian;local,Mo-Su 11:00-23:00
154622635,Schrammel & Schrammel,16.3992874,48.2006792,Göllnergasse,8,Wien,1030,restaurant,
154622735,Keiner Stuben,16.3995623,48.19872,Erdbergstraße,78,Wien,1030,restaurant,Mo-Fr 10:30-22:00; Su 10:30-21:00
223580185,Cookie,16.4026993,48.2003108,Dietrichgasse,25,Wien,1030,cafe,
236858381,Sultans,16.3989834,48.1979299,Hainburger Straße,58,Wien,1030,levantine,Mo-Sa 09:00-24:00
244492645,Kala's Imbiss-Paradies,16.4003777,48.1996218,Hagenmüllergasse,5,Wien,1030,fast_food,Mo-Su 11:00-23:50
250380570,Bui Vien Street,16.3960768,48.20374,Hörnesgasse,17,Wien,1030,vietnamese,"Mo off; Di-Mi 12:00-22:00; Do-Sa, 12:00-23:00, Su 15:00-22:00, PH 17:00-22:00"
264606980,Gmiatliches Eck,16.3989407,48.1983004,Keinergasse,4,Wien,1030,cafe,Mo-Fr 07:00-22:00; Sa 08:00-12:00
293142047,La Sera,16.4013661,48.1983562,Rüdengasse,16,Wien,1030,fast_food,
299893744,Kardinal Imbiss,16.4013123,48.1983019,Rüdengasse,16,Wien,1030,fast_food,
333672130,Meierei im Stadtpark,16.3812793,48.2044602,Am Heumarkt,2A,Wien,1030,regional,"Mo-Fr 08:00-23:00; Sa 09:00-19:00; PH,Su off"
338525606,libelle,16.4063771,48.1946601,Schlachthausgasse,24-24A,Wien,1030,cafe,
340216977,Li Palace,16.3991331,48.1996997,Erdbergstraße,53,Wien,1030,asian,We-Mo 11:30-23:00; Tu 15:00-23:00
340833248,Noodles Box,16.4000705,48.1988173,Erdbergstraße,59,Wien,1030,fast_food,"Mo-Fr 11:00-21:00; PH,Sa,Su 12:00-22:00"
342299597,Zur Gruab'n,16.3879434,48.2077326,Untere Viaduktgasse,41,Wien,1030,restaurant,Mo-Fr 10:00-23:30
342301304,Stadtwirt,16.3876568,48.2072016,Untere Viaduktgasse,45,Wien,1030,restaurant,Mo-Fr 11:00-24:00
342301942,WIST,16.3876355,48.2097742,Hetzgasse,3A,Wien,1030,restaurant,Mo-Fr 10:30-21:30
342302681,Sophienbeisl,16.3909261,48.2076152,Seidlgasse,11,Wien,1030,restaurant,Mo-Fr 11:00-22:00
342303156,Hitomi,16.3892962,48.2067532,Marxergasse,20,Wien,1030,sushi;noodle,"PH,Su-Fr 11:30-22:30"
342303837,Shoyu Pan,16.3883099,48.2068263,Marxergasse,12,Wien,1030,japanese;ramen,"Tu-Th 11:30-21:00, Fr-Sa 11:30-22:00"
342304875,Asia Paradies,16.3881237,48.2057349,Gärtnergasse,9,Wien,1030,asian,"Mo-Su 11:30-15:00, Mo-Sa 17:30-22:30"
342305562,Hemmers,16.3878077,48.2057092,Gärtnergasse,12,Wien,1030,regional,Mo 17:00-23:00; Tu-Fr 11:00-23:00
342305687,Marco Polo,16.3844561,48.2056647,Landstraßer Hauptstraße,2A,Wien,1030,asian,11:00-22:30
342306706,Cafe & Restaurant Ascot,16.3859752,48.2061401,Ditscheinergasse,2,Wien,1030,cafe,Mo-Su 08:00-24:00
342306957,Starbucks,16.3858227,48.2058773,Landstraßer Hauptstraße,3,Wien,1030,cafe,"Mo-Fr 06:00-21:00; Sa,Su 07:00-21:00"
342308867,Zum goldenen Löwen,16.3929011,48.2083108,Löwengasse,24,Wien,1030,italian,Mo-Su 11:00-23:00
344666078,Kurkonditorei Oberlaa,16.3832461,48.2067334,Vordere Zollamtsstraße,15,Wien,1030,cafe,Mo-Su 08:00-19:00
344666762,'s Stammbeisl,16.3865177,48.2060233,Untere Viaduktgasse,14,Wien,1030,pub,Mo-Fr 09:00-24:00
344671406,Das Kimchi,16.3903431,48.2069792,Marxergasse,15,Wien,1030,korean,"Mo-Su 11:00-15:00,18:00-23:00"
344672132,Swing Kitchen,16.3856152,48.2056171,Landstraßer Hauptstraße,2C,Wien,1030,fast_food,11:00-22:00
344923915,Eduscho / Tchibo,16.3860033,48.2058089,Untere Viaduktgasse,16,Wien,1030,cafe,Mo-Fr 08:30-18:30; Sa 09:00-17:00
344925907,Nem,16.3875328,48.2053154,Landstraßer Hauptstraße,13,Wien,1030,vietnamese,"Mo-Fr 11:00-15:00,17:00-22:00; Su 16:00-22:00"
344926482,Duran,16.386854,48.2055308,Landstraßer Hauptstraße,9,Wien,1030,sandwich,Mo-Fr 08:00-16:00; PH off
344927480,Koffie,16.3871215,48.2051099,Beatrixgasse,2,Wien,1030,cafe,Mo-Fr 08:00-19:00; Sa 10:00-19:00
352545403,Paolo,16.4008494,48.1930579,Paulusplatz,9,Wien,1030,italian,"Mo-Sa 11:30-14:30,17:30-20:30"
374485605,Bierteufl,16.3860251,48.2036962,Ungargasse,5,Wien,1030,restaurant,"Mo-Fr 11:00-01:00, Sa 17:00-01:00, Su, PH 17:00-24:00"
374572757,Elianto,16.3872948,48.1994471,Ungargasse,48,Wien,1030,italian,Mo-Su 11:00-23:00
374572860,Le Bistrot,16.3834622,48.1992283,Neulinggasse,48,Wien,1030,french,Mo-Fr 09:00-15:00; Sa 10:00-14:00
374723778,Zum Posthorn,16.3864843,48.1999111,Krummgasse,1,Wien,1030,restaurant,"Mo,Fr 17:00-23:00; Tu-Th 12:00-23:00; Sa,Su,PH off"
374756697,Café Malipop,16.3863864,48.2034128,Ungargasse,10,Wien,1030,pub,We-Sa 19:30-01:00
395492367,Landstein,16.3965507,48.195181,Landstraßer Hauptstraße,134,Wien,1030,local,Mo-Sa 09:00-02:00
410455891,3er,16.3925616,48.1964902,Juchgasse,23,Wien,1030,regional,"Mo-Fr 07:00-24:00, Sa,Su,PH 08:00-24:00"
411753258,Al Sarago,16.3963067,48.1964644,Landstraßer Hauptstraße,117,Wien,1030,italian,Mo-Su 11:30-23:30
412568587,Gasthaus Helm,16.4003032,48.1949615,Baumgasse,30,Wien,1030,restaurant,
434487717,Kleinbonum,16.397165,48.198789,Apostelgasse,15,Wien,1030,pub,"Mo 11:30-24:00; Tu-Fr 00:00-02:00,11:30-24:00; Sa 00:00-02:00,19:00-24:00; Su 00:00-02:00"
441595498,Red Lion,16.3895739,48.211562,Löwengasse,6,Wien,1030,pub,
441595499,Indus,16.3909078,48.2118584,Radetzkystraße,20,Wien,1030,indian,"Mo-Fr 11:30-14:30,18:00-23:00; Sa 18:00-23:00, Su 11:30-14:30,18:00-23:00"
442715461,Black Jack,16.3939948,48.1940045,Klimschgasse,15,Wien,1030,cafe,Mo-Fr 06:30-02:00; Sa 07:00-02:00; Su 09:00-02:00
443216730,San Gimignano,16.389786,48.196719,Juchgasse,28,Wien,1030,italian_pizza,
443216739,Das Essen FM,16.390697,48.1967192,Juchgasse,24,Wien,1030,ukrainian,
444308577,Galerie,16.3992343,48.1991661,Erdbergstraße,74,Wien,1030,cafe,
451617621,Cafe Dialog,16.387892,48.1943475,Rennweg,43,Wien,1030,cafe,Mo-Fr 06:00-02:00; Sa 07:00-02:00
451617628,Hakka Cun,16.3876544,48.1941454,Rennweg,28,Wien,1030,asian,
451631513,Lucullus,16.3848753,48.1987637,Rechte Bahngasse,36-38,Wien,1030,regional,"Mo-Su 08:00-10:30,11:00-14:30,15:00-22:30"
456408025,Heuriger zur alten Weinpresse,16.396036,48.1960164,Landstraßer Hauptstraße,126,Wien,1030,regional;heuriger,Mo-Su 11:00-23:00
456408033,Kebap Zentrum,16.3958386,48.1963605,Juchgasse,1,Wien,1030,fast_food,Mo-Fr 09:00-22:00; Sa-Su 10:00-22:00
456408034,Fulong,16.3958706,48.1963078,Eslarngasse,2,Wien,1030,asian,"Mo-Su 11:00-15:00, 17:00-23:00"
456420667,Modena,16.3968989,48.1954237,Landstraßer Hauptstraße,133,Wien,1030,italian,Mo-Sa 11:00-23:00; Su 11:00-22:00
457158216,Schnitzel König,16.3951149,48.1982117,Landstraßer Hauptstraße,103,Wien,1030,fast_food,
457256038,Pumpui,16.3893976,48.2122694,Löwengasse,1,Wien,1030,thai,"Mo-Fr 11:30-21:30, Sa 12:00-21:30"
457260720,Pizzeria Amigo,16.3861234,48.1937938,Mechelgasse,8,Wien,1030,pizza,"Mo-Su,PH 11:00-22:00"
470017960,Mickey Finn's Irish Pub,16.3871844,48.1967165,Juchgasse,42,Wien,1030,pub,Mo-Th 17:00-24:00; Fr-Sa 18:00-24:00
512411257,Cafe Public,16.4013016,48.1902035,Viehmarktgasse,2,Wien,1030,cafe,
561058334,Drinx,16.3818754,48.2030565,Am Heumarkt,3,Wien,1030,pub,"Tu-Th 17:00-00:00, PH,Fr-Sa 17:00-02:00"
561323738,575 Sagmeister,16.4018972,48.1931196,Schimmelgasse,11,Wien,1030,regional,Tu-Fr 16:00-24:00; Sa-Su 11:00-24:00
568843965,Würstelbox,16.3791423,48.20232,U-Bahn Station Stadtpark,U,Wien,1030,fast_food,
571913355,Restaurant Lubin,16.397951,48.198598,Hainburger Straße,48,Wien,1030,croatian;fish,Tu-Sa 12:00-22:00
618377108,Schwabl Wirt,16.4070884,48.1961526,Fruethstraße,11,Wien,1030,regional,Tu-Sa 09:00-23:00; Su 09:00-16:00
660130435,Cooper's No.1,16.3941953,48.1921131,Rennweg,68,Wien,1030,pub,Mo-Fr 10:00-01:00; Sa-Su 17:00-01:00
661599764,Fasan Kebap,16.3867397,48.1942802,Obere Bahngasse,2,Wien,1030,fast_food,
661599772,BiBim,16.3929893,48.1926003,Rennweg,60,Wien,1030,korean,"Mo-Sa 12:00-14:30,18:00-22:00; PH,Su off"
661599784,Yammy & Wok,16.3969214,48.190587,Aspangstraße,59,Wien,1030,asian,"Mo 10:30-15:00; Tu-Sa 10:30-15:00, 17:00-22:50; Su 11:00-22:50"
672222034,Pizzeria Napoli,16.3948867,48.1921274,Oberzellergasse,20,Wien,1030,italian,Mo-Su 11:00-02:00
672222086,Eis,16.3951805,48.1915629,Rennweg,74,Wien,1030,ice_cream,
672222106,das Wohnzimmer,16.3969989,48.1905471,Aspangstraße,59,Wien,1030,cafe,
672222121,Babylon 3,16.3977708,48.1900617,Aspangstraße,65,Wien,1030,restaurant,
738034317,Schutzhaus Lilli,16.3974082,48.1789916,KLG Arsenal,,Wien,1030,regional,Mo-Sa 10:00-20:00; PH off
801005233,cafe2k,16.3971697,48.1995143,Apostelgasse,2-14,Wien,1030,cafe,Mo-Fr 11:00-02:00; Sa-Su 14:00-02:00
802389619,Cafe Zartl,16.3947582,48.2055506,Rasumofskygasse,7,Wien,1030,cafe,07:00-22:00
824832612,Zum neuen Glück,16.4093684,48.1966854,Hanuschhof,,Wien,1030,cafe,Mo-Sa 08:30-22:00; Su 09:00-20:00
828027113,Micky's Café,16.40953,48.1959083,Schlachthausgasse,3,Wien,1030,cafe,Tu-Su 07:00-20:00
847071492,Terramonte,16.4078693,48.1962135,Fruethstraße,9,Wien,1030,cafe,"Mo-We,Fr,Sa 17:00-02:00"
854902860,Pizzeria Grado,16.3826363,48.2021036,Beatrixgasse,24,Wien,1030,pizza,Tu-Su 10:30-22:00
912021095,Weinzirl im Konzerthaus,16.3780461,48.200581,Am Heumarkt,27,Wien,1030,restaurant,
912021105,Schlossberg,16.3782002,48.2016741,Am Heumarkt,4,Wien,1030,cafe,
913963125,Herlitschka,16.380684,48.2000464,Traungasse,4,Wien,1030,regional,Su-Th 12:00-23:00; Fr 12:00-24:00; Sa 17:00-24:00
913963143,Gmoakeller,16.3786778,48.2004567,Am Heumarkt,25,Wien,1030,regional,Mo-Sa 11:00-00:00
923938958,Santa Lucia,16.3808995,48.1989295,Zaunergasse,20,Wien,1030,italian,"Mo-Fr 10:30-14:30,17:30-22:00; PH,Su 12:00-14:30,17:30-22:00"
923938959,Arco,16.3796178,48.1996669,Marokkanergasse,4,Wien,1030,restaurant,Mo-Fr 11:30-15:30
923938963,Hühnermann,16.379907,48.1989041,Marokkanergasse,8,Wien,1030,fast_food,Mo-Fr 08:00-17:00
923938964,Café am Heumarkt,16.3802689,48.2015231,Ölzeltgasse,2,Wien,1030,cafe,"Mo-Fr 10:00-23:00; PH,Sa,Su off"
930439503,Gasthaus Bauer,16.4069588,48.1959406,Erdbergstraße,150,Wien,1030,restaurant,Tu-Fr 10:00-22:00; PH off
947077611,HAN am Stadtpark,16.3807891,48.2022268,Beatrixgasse,28,Wien,1030,korean,Tu-Fr 17:00-22:00; Sa-Su 11:30-22:00
947077620,To Ellinikon,16.381674,48.2028987,Reisnerstraße,2,Wien,1030,greek,"Mo-Fr 11:00-15:00,17:00-24:00; Sa,Su,PH 11:00-24:00"
950535988,Damoa,16.3838484,48.2059498,Landstraßer Hauptstraße,2,Wien,1030,korean,"Mo-Fr 11:30-22:00; Sa, Su 12:00-22:00"
950536056,Fresh Bowl,16.3854747,48.205441,Landstraßer Hauptstraße,2C,Wien,1030,fast_food,"Mo-Fr 11:00-21:30, Sa-Su 12:00-21:30, PH unknown"
950536072,Cafe Caramel,16.3853964,48.2053098,Invalidenstraße,13,Wien,1030,cafe,"Mo-Fr 07:00-22:00; Sa 09:00-15:00; PH,Su off"
956080252,Uno-Duo-Tre,16.3820172,48.2031626,Am Heumarkt,3,Wien,1030,italian,"Mo-Th 08:00-22:00, Fr-Su 08:00-23:00"
956080337,Asia Bistro,16.3811061,48.2002117,Salesianergasse,3,Wien,1030,asian,"Mo-Fr 11:00-14:30, Tu,Th 18:00-20:00"
956080380,Cafe Bar Old Splendor,16.3831443,48.2020985,Reisnerstraße,9,Wien,1030,pub,Mo-Fr 11:00-23:00
974112051,The Golden Harp,16.3961285,48.2019828,Erdbergstraße,27,Wien,1030,pub,Mo-Fr 09:00-02:00; Sa 10:00-02:00; Su 10:00-24:00
991972892,The Church,16.3872469,48.211271,Pfefferhofgasse,8,Wien,1030,pub,
992984192,City Kebap,16.4082334,48.1955378,Schlachthausgasse,12,Wien,1030,fast_food,Mo-Su 09:00-21:30
1005403711,Gasthaus Wagner,16.4044566,48.1932895,Schlachthausgasse,32,Wien,1030,restaurant,
1168873317,Trattoria Pizzeria All'Italiana,16.3933584,48.2010763,Landstraßer Hauptstraße,73,Wien,1030,italian,
1168880091,Vegetasia,16.3874708,48.1979638,Dapontegasse,13,Wien,1030,taiwanese,"Tu-Fr 11:30-15:00,17:30-21:30"
1177170464,Lucky Pavillon,16.3914223,48.2098402,Löwengasse,21,Wien,1030,chinese,Mo-Sa 11:00-21:30; Su 17:30-21:30
1191230322,T-Marx,16.4036636,48.1863256,Rennweg,97,Wien,1030,fast_food,
1191230325,Food Garden,16.4036006,48.18637,Rennweg,97,Wien,1030,fast_food,Mo-Fr 07:30-17:30
1306060246,BioFrische,16.3866948,48.1885011,Landstraßer Gürtel,21,Wien,1030,organic;indian,11:00-22:00
1306060283,Inges Eck,16.3879778,48.1915586,Hohlweggasse,17,Wien,1030,cafe,Mo -Fr 09:00-20:00
1362753598,O’Connor’s Old Oak Irish Pub,16.4000846,48.1888924,Rennweg,95,Wien,1030,pub,Mo-Fr 10:30-01:00; Sa 13:00-01:00; Su 13:00-22:00
1363366885,Pizzeria Roma,16.3859053,48.1912293,Fasangasse,33,Wien,1030,fast_food,Mo-Su 10:30-22:45
1366570668,Café Restaurant Hotel Biedermeier,16.38821,48.2034914,Baumannstraße,11,Wien,1030,restaurant,
1366570684,Heurigenkeller,16.3883516,48.2036565,Baumannstraße,11,Wien,1030,restaurant,
1366570922,Weißgerberstube,16.3885545,48.2038439,Landstraßer Hauptstraße,28,Wien,1030,regional,Mo-Fr 11:30-22:00
1375290499,Schlosscafè,16.3816224,48.1917015,Prinz-Eugen-Straße,27,Wien,1030,cafe,Mo-Su 09:00-18:00
1401845624,Falkensteiner Stüberl,16.3887732,48.1891603,Kleistgasse,28,Wien,1030,local,"Mo-Su,PH 10:00-22:00"
1401845637,Stadtbeis'l,16.3891921,48.1894496,Kleistgasse,25,Wien,1030,restaurant,Mo-Fr 09:00-23:00; Su 10:00-20:00
1410806531,Cafe Eliza,16.3858636,48.1910309,Fasangasse,35-37,Wien,1030,cafe,"Mo-Sa 06:30-24:00; Su,PH 08:00-24:00"
1433642896,Laniato – Das Wiener Wollcafé,16.3868954,48.2046819,Beatrixgasse,4,Wien,1030,cafe,Mo-Fr 10:00-13:00; Sa 09:30-17:00
1434173355,Sattva Vegan,16.3966452,48.1976774,Apostelgasse,29-31,Wien,1030,restaurant,Mo-Fr 11:30-16:00
1436293671,Surace,16.3963709,48.1966912,Apostelgasse,41,Wien,1030,ice_cream,
1436309738,That's Amore,16.3954478,48.1980736,Landstraßer Hauptstraße,105,Wien,1030,italian,"Mo-Sa 11:30-15:00,17:30-23:00; Su 17:30-23:00"
1462402552,Hundertwasserimbiss,16.3942789,48.2078111,Kegelgasse,37-39,Wien,1030,fast_food,
1463810528,Moped,16.3905834,48.2035966,Salmgasse,23,Wien,1030,restaurant,Mo-Sa 17:00-23:00+
1467144790,Das Kochwerk,16.3894729,48.2050337,Esteplatz,5,Wien,1030,restaurant,
1467144791,Pergola Pizza,16.389712,48.2052679,Uchatiusgasse,6,Wien,1030,pizza,Tu-Su 11:30-19:30
1579545496,Biryani,16.3954085,48.1924633,Oberzellergasse,16,Wien,1030,south_indian;sri_lankan,"Tu-Fr 11:00-15:00, 17:00-22:00; Sa, Su 11:00-22:00"
1588438181,Lin Shop & Eat,16.3871003,48.1945265,Rennweg,37,Wien,1030,fast_food,Mo-Sa 10:30-20:00
1589577029,Ton Mai,16.3975827,48.1958345,Baumgasse,18,Wien,1030,thai,Tu-Su 11:00-21:00
1589577034,Carmen,16.3977506,48.1957487,Baumgasse,20,Wien,1030,cafe,
1589577118,Pizza Primo,16.3976411,48.1960132,Baumgasse,23,Wien,1030,pizza,
1600335827,Cafe & Bar Diesels,16.3951162,48.191622,Rennweg,74,Wien,1030,cafe,"Mo-Fr 16:00-02:00; Sa ""for private partys only"""
1600450972,Café & Pub Rennweg,16.3968403,48.1906345,Aspangstraße,59,Wien,1030,pub,Mo-Sa 07:00-02:00
1618097104,Cenaro,16.4185767,48.1858572,Guglgasse,7-9,Wien,1030,regional,Mo-Fr 08:00-24:00
1636691493,Pizzeria Pozzuoli,16.3863702,48.1935547,Fasangasse,7,Wien,1030,italian,"Tu-Sa 11:30-14:30,17:30-22:30; Su,PH 11:30-22:00"
1652083724,Schnitzel Landmann,16.3915431,48.2016172,Landstraßer Hauptstraße,64,Wien,1030,fast_food,"Mo-Fr 10:30-22:00; Sa,Su 11:00-22:00"
1676767979,Foco Forno,16.3939974,48.1970915,Barmherzigengasse,9,Wien,1030,pizza;italian,Mo-Su 11:00-22:00
1676768000,Gasthaus Seidl,16.3873563,48.1973236,Barichgasse,44,Wien,1030,restaurant,"Mo-Fr 11:30-14:00,17:30-22:00; PH off"
1676768068,Neulich,16.3878548,48.1989204,Engelsberggasse,2,Wien,1030,bar,"Tu-Th 18:00-24:00; Fr,Sa 18:00-02:00"
1687765923,Gasthaus Simon,16.4005546,48.1912302,Landstraßer Hauptstraße,165,Wien,1030,restaurant,
1687766020,Lili's Kitchen,16.4000823,48.1935312,Petrusgasse,7A,Wien,1030,chinese,
1687766024,Schimmel Beisl,16.402095,48.1932907,Schimmelgasse,9,Wien,1030,restaurant,
1687766029,Satraj,16.3987465,48.193117,Petrusgasse,18,Wien,1030,indian,"Mo-Sa 11:00-14:30,17:30-22:30, Su,PH 13:00-22:30"
1740259398,All-In,16.3918233,48.2092333,Kolonitzplatz,2,Wien,1030,pub,Mo-Fr 11:30-21:00
1764202761,Istanbul,16.3895358,48.2033066,Landstraßer Hauptstraße,38,Wien,1030,restaurant,Mo-Su 08:00-22:00
1779421262,Cafe Fortuna,16.3990788,48.1954422,Wedlgasse,2,Wien,1030,cafe,Mo-Fr 08:58-19:02; Sa 08:58-14:02
1825985207,Marx gastro - Bier und mehr,16.4153313,48.1887683,Franzosengraben,5,Wien,1030,restaurant,
1833111213,der gockel,16.3905864,48.2105828,Löwengasse,13A,Wien,1030,fast_food,
1839154074,Pizza & more,16.3839389,48.2061051,Landstraßer Hauptstraße,2,Wien,1030,fast_food,
1921567509,alice,16.3927617,48.2102011,Adamsgasse,11,Wien,1030,cafe,
1930121945,Shisoya Noodles,16.3909271,48.2025204,Rochusmarkt,,Wien,1030,fast_food,"Mo-Sa 09:00-21:00; PH,Su 11:00-18:00"
1930122955,Radatz,16.3911141,48.2024415,Rochusmarkt,,Wien,1030,fast_food,Mo-Fr 07:00-18:15; Sa 07:30-12:30
1930122959,Dai Michele,16.3911911,48.2025225,Rochusmarkt,,Wien,1030,fast_food,"Mo-Sa 08:00-23:00; PH,Su 11:00-18:00"
1932222464,Terrassencafe im Hundertwasserhaus,16.3937383,48.2074981,Kegelgasse,34-38,Wien,1030,cafe,
1934462503,Würstel Bar,16.3906277,48.2028239,Rochusmarkt,,Wien,1030,fast_food,"Mo-Fr 08:00-23:00, Sa 08:00-21:00, Su off"
1936025717,Stammkaffee,16.3897135,48.2018637,Pfarrhofgasse,2,Wien,1030,pub,Mo-Su 17:00-02:00
1940087462,Nordsee,16.3902948,48.2029938,Rochusmarkt,,Wien,1030,fast_food,"Mo-Th 09:00-18:00; Fr 08:00-18:00; Sa 08:00-14:00; PH,Su off"
1940087614,Trześniewski,16.3907017,48.2025989,Rochusmarkt,,Wien,1030,fast_food,Mo-Fr 08:30-19:00; Sa 08:00-17:00
1943950910,Kolonitz Beisl,16.3900408,48.2097137,Bechardgasse,2,Wien,1030,regional,Mo-Th 16:30-22:00; Fr 11:30-22:00; Sa 16:30-22:00
1949307283,Arkade Restaurant,16.3862222,48.2108879,Hintere Zollamtsstraße,2A,Wien,1030,regional,Mo-Fr 07:30-17:00
1949307287,la Sienta,16.3862503,48.209795,Hintere Zollamtsstraße,2B,Wien,1030,restaurant,Mo-Fr 08:00-15:00
1949307300,Schaukuchl,16.3862745,48.209991,Hetzgasse,1,Wien,1030,regional,Mo-Fr 07:00-14:00
2250394627,Restaurant Steirereck,16.3816081,48.2045018,Am Heumarkt,2A,Wien,1030,regional,
2324638602,Sternzeichen,16.3925861,48.2005878,Landstraßer Hauptstraße,78-80,Wien,1030,chinese,"Tu-Su 11:00-15:00, Mo-Su 17:30-23:00"
2334719107,Schnitzelpalast,16.4070796,48.1946532,Schlachthausgasse,23-29,Wien,1030,fast_food,Mo-Su 10:00-23:00
2352616207,Wiener Kebap & Grillhaus,16.3996439,48.1986623,Erdbergstraße,78,Wien,1030,fast_food,"Mo-Sa 09:00-22:00; PH,Su 10:00-22:00"
2352626076,Raven's Pub,16.4006344,48.1959618,Rabenhof,,Wien,1030,pub,"Mo-Fr 09:00-24:00; Sa 10:00-24:00; PH,Su 10:00-22:00"
2359394178,Bar Black Lounge,16.3981282,48.1958724,Keinergasse,35,Wien,1030,bar,Mo-Su 15:00-24:00
2359395896,Snack Box,16.3961448,48.1966187,Landstraßer Hauptstraße,neben 117,Wien,1030,fast_food,
2359444698,Tara,16.3993695,48.1976586,Lustgasse,2,Wien,1030,cafe,
2359444699,Liyas,16.3993109,48.1977924,Lustgasse,2,Wien,1030,fast_food,
2409479215,Streetfood,16.4076516,48.191547,Baumgasse,,Wien,1030,fast_food,
2450830634,Salon Wichtig,16.3876105,48.1989919,Neulinggasse,15,Wien,1030,fast_food,
2506234285,Gustosa,16.4094588,48.1958578,Schlachthausgasse,3,Wien,1030,ice_cream,
2506234287,Pizzeria Totó sapori,16.4075007,48.1954335,Erdbergstraße,156,Wien,1030,italian,"Tu-Fr 11:30-14:30,18:00-22:00; Sa 18:00-22:00"
2506234288,Rafidain,16.4077314,48.1952928,Schlachthausgasse,16,Wien,1030,restaurant,Tu-Su 13:00-21:00
2506234293,Cafe Chu Chu,16.407383,48.195561,Erdbergstraße,156,Wien,1030,cafe,Mo-Fr 07:00-23:00
2506291176,Asman,16.4063504,48.1942754,Schlachthausgasse,33,Wien,1030,afghan,Mo-Tu 11:00-23:00; Th-Su 11:00-23:00
2506291188,can,16.4081472,48.1939714,Würtzlerstraße,13,Wien,1030,fast_food,
2526139382,Hoichi Ramen,16.4034274,48.1969153,Erdbergstraße,118,Wien,1030,ramen,Su-Fr 11:00-21:30
2526139384,Sems Inegöl Köfte,16.4033362,48.1969315,Erdbergstraße,118,Wien,1030,turkish,Mo-Fr 10:00-21:00; Sa 11:00-21:00; Su 12:00-21:00
2526240468,Geflügel & Fischimbiss,16.4028051,48.1971657,Gestettengasse,3,Wien,1030,fast_food,
2526240475,Komm zu Milo,16.4033684,48.1971942,Erdbergstraße,87,Wien,1030,balkan,Mo-Su 11:00-24:00
2526254770,Grammophon Bistro Cafe,16.3998639,48.1974283,Hainburger Straße,64,Wien,1030,cafe,Mo-Sa 16:00-02:00
2526254786,Block Gourmet,16.4022373,48.1965556,Hainburger Straße,55,Wien,1030,fast_food,
2526254797,Cafe Restaurant Alt-Erdberg,16.4037251,48.1956735,Fiakerplatz,8,Wien,1030,restaurant,
2594471077,Çağla Pâtisserie,16.3921368,48.2010482,Landstraßer Hauptstraße,72,Wien,1030,cafe,"Mo-Fr 06:00-20:00; PH,Sa,Su 07:00-20:00"
2598878235,Masaniello,16.3934355,48.2105422,Untere Weißgerberstraße,14,Wien,1030,restaurant,"Tu-Sa 11:30-15:00,18:00-22:00"
2624692095,Marx Restauration,16.404187,48.1884786,Maria-Jacobi-Gasse,2,Wien,1030,restaurant,
2624695918,The Nice Guys,16.4051848,48.1888881,Karl-Farkas-Gasse,18,Wien,1030,restaurant,Mo-Fr 09:00-23:00+
2765952600,Peccino,16.4139976,48.1900175,Safargasse,4,Wien,1030,italian;regional,Mo-Su 11:00-22:00
2803285701,Wiener Cucina,16.3876393,48.1851891,Arsenal,1,Wien,1030,regional,Mo-Fr 11:00-15:00
2812988821,Cafe Tennis Arsenal,16.3862373,48.1829427,Arsenalstraße,3,Wien,1030,cafe,Mo-Fr 11:00-21:00; Sa-Su 09:00-18:00; PH 09:00-18:00
2816940049,Sakana Sushi Bar,16.3944659,48.1919791,Rennweg,70,Wien,1030,fast_food,"Tu-Su 11:30-14:30,17:30-22:30; Mo off"
2945692958,Alaverdi,16.3880919,48.2070845,Marxergasse,5,Wien,1030,georgian,Tu-Su 12:00-23:00; Mo 17:00-23:00
2954842027,Cafe Menta,16.390272,48.2111612,Löwengasse,13,Wien,1030,restaurant,Mo-Su 8:30-24:00
3138842790,Raben Cafe,16.4012656,48.1965836,Kardinal-Nagl-Platz,5,Wien,1030,cafe,
3205961161,Rochus,16.3914862,48.2021086,Landstraßer Hauptstraße,53,Wien,1030,restaurant,Mo-Su 08:00-24:00
3276659706,Wein mag Käse,16.3874706,48.1983847,Ungargasse,53,Wien,1030,restaurant,"Mo-Fr 10:00-22:00; Sa,Su,PH off"
3276659707,Veganista,16.3874485,48.1982281,Dapontegasse,12,Wien,1030,ice_cream,Mo-Su 12:00-22:00
3281369491,City Garden Barbecue,16.3867816,48.1966522,Juchgasse,42,Wien,1030,restaurant,Mo-Sa 17:00-22:00; Jan off; Feb off; Mar off; Apr off; Oct off; Nov off; Dec off
3291246359,Café Short Break,16.3875737,48.1991931,Neulinggasse,28,Wien,1030,cafe,"Mo-Fr 06:30-21:00; Sa,Su 08:00-20:30"
3370159116,Arena Beisl,16.413033,48.1877465,Franzosengraben,16,Wien,1030,pub,Mo 17:00-02:00; Tu-Su 16:00-02:00
3455494412,Akakiko,16.3915813,48.2019891,Landstraßer Hauptstraße,59,Wien,1030,japanese,Mo-Su 10:30-23:00
3524330333,Nata Lisboa,16.3923463,48.2012946,Landstraßer Hauptstraße,65,Wien,1030,cafe,"Mo-Sa,PH 09:00-18:00"
3524330334,Marcos Fresh Greek,16.3930791,48.2005858,Landstraßer Hauptstraße,73,Wien,1030,fast_food,Mo-Su 11:00-22:00
3541557103,Eissalon Bortolotti,16.3876593,48.2047377,Landstraßer Hauptstraße,14-16,Wien,1030,ice_cream,"Mo-Su,PH 10:00-21:00"
3541557104,Heunisch Und Erben,16.387981,48.2049025,Landstraßer Hauptstraße,17,Wien,1030,restaurant,Mo-Sa 15:00-01:00
3615639025,Mandu & Co,16.3913807,48.2024245,Rochusmarkt,,Wien,1030,fast_food,Mo-Fr 11:00-18:00
3673072238,Vidoni,16.3858847,48.2055432,Landstraßer Hauptstraße,4,Wien,1030,ice_cream,"Mar-Oct: Mo-Su,PH 10:30-22:00"
3676143725,W.I.F,16.3906576,48.2022272,Landstraßer Hauptstraße,58,Wien,1030,cafe,"Su,PH 10:00-20:00; Mo-Sa 09:00-21:00"
3685912226,Vi&Vie,16.3870324,48.2051449,Landstraßer Hauptstraße,6,Wien,1030,cafe,Mo-Fr 08:00-19:00; Sa 08:00-17:00
3697202196,Nam Nam,16.3855599,48.2055376,Landstraßer Hauptstraße,2C,Wien,1030,indian,Mo-Fr 11:00-15:30
3748186003,Eiskarussell,16.3860749,48.1944719,Rennweg,24,Wien,1030,ice_cream,"PH,Mo-Su 12:00-22:00"
3806630958,Arizona Burger & Bar,16.3951716,48.1981193,Landstraßer Hauptstraße,103,Wien,1030,fast_food,
3806650772,The Room,16.3913752,48.2066595,Blattgasse,14,Wien,1030,restaurant,"Mo-We 09:30-24:00;Th-Sa 09:30-26:00,Su 09:30-17:00"
3859765384,7 days Pizza,16.388884,48.1909282,Kölblgasse,24,Wien,1030,fast_food,Mo-Su 11:00-22:45
3872476107,Elvira's Restaurant,16.3883898,48.2049747,Seidlgasse,39,Wien,1030,ukrainian,Mo-Fr 10:00-23:00;Sa 12:00-23:00;PH closed
3881420760,Krazy Kitchen,16.3858801,48.2117994,Hintere Zollamtsstraße,2,Wien,1030,fast_food,
3952433570,Benedikt,16.389964,48.2023787,Landstraßer Hauptstraße,50,Wien,1030,cafe,"Mo-Fr 07:00-21:00; PH,Sa,Su off"
3952787733,Tennispoint,16.4101508,48.1906852,Nottendorfer Gasse,30,Wien,1030,restaurant,
4063613611,Aguacate,16.3862665,48.1885167,Hohlweggasse,46,Wien,1030,restaurant,Tu-Sa 11:00-20:00; Su 11:30-17:00
4090283897,myhive café,16.3875947,48.2006726,Ungargasse,37,Wien,1030,cafe,
4090395119,Ströck Feierabend,16.3928251,48.2004152,Landstraßer Hauptstraße,82,Wien,1030,cafe,"Mo-Fr 07:00-22:00; Sa,Su 07:00-18:00; PH 08:00-18:00"
4092592860,Vulcano,16.3875115,48.2008452,Ungargasse,35,Wien,1030,pizza,Mo-Su 11:00-21:00
4092694840,hiddenkitchen,16.3848179,48.2044634,Invalidenstraße,17,Wien,1030,regional,Mo-Fr 08:30-17:00; Sa 09:00-14:00
4092758996,Meze Meze,16.3875826,48.2014325,Ungargasse,31,Wien,1030,greek,Mo-Fr 11:30-14:30; Mo-Sa 17:30-24:00
4219992090,Bella Santi,16.3851871,48.2039027,Münzgasse,2,Wien,1030,indian;italian,"Mo-Fr 11:00-14:30,17:30-22:30; Sa 17:00-22:30; PH,Su 11:00-22:30"
4224832491,Arrigo,16.3908429,48.2027285,Rochusmarkt,,Wien,1030,cafe,Mo-Fr 07:30-23:00; Sa 08:00-23:00; Su 11:30-20:00
4294670014,Landstraßer Bürgerbeisl,16.3942741,48.2000017,Wassergasse,36,Wien,1030,czech;slovak;austrian,"Tu-Fr 11:00-23:00; PH,Sa,Su,Mo off"
4342955232,The Tube Station,16.3945636,48.2061931,Löwengasse,51,Wien,1030,bar,18:00-01:00
4358767214,Le Pearl,16.3876388,48.2112198,Pfefferhofgasse,8,Wien,1030,restaurant,
4358767217,Ku'damm,16.3874455,48.2112383,Pfefferhofgasse,8,Wien,1030,fast_food,
4358961938,Jack's Burger,16.3991619,48.1992588,Erdbergstraße,74,Wien,1030,burger,
4364521710,H.A.S. Kebap,16.3904624,48.2027992,Rochusmarkt,,Wien,1030,fast_food,Mo-Fr 07:00-18:00; Sa 07:00-14:00
4364521712,Pappa e Ciccia,16.3903974,48.2028601,Rochusmarkt,,Wien,1030,italian,Mo-Sa 10:00-23:00
4459323889,Doña Irma,16.3920568,48.2093127,Custozzagasse,1,Wien,1030,mexican,Tu-Fr 18:00-23:00; Sa 18:00-24:00
4757928213,Kunst-Cafe im Hundertwasserhaus,16.3937988,48.2073818,Kegelgasse,34-38,Wien,1030,cafe,
4799009485,Wiener Schnitzlplatz'l,16.3985979,48.2002354,Erdbergstraße,47,Wien,1030,fast_food,"Mo-Su,PH 10:00-23:00"
4869067057,Joseph Brot,16.3860094,48.2055045,Landstraßer Hauptstraße,4,Wien,1030,restaurant,Mo-Fr 07:30-19:00; Su 08:00-16:00; Sa 08:00-18:00
4934363813,Wohnzimmer,16.3960833,48.1959492,Landstraßer Hauptstraße,126,Wien,1030,cafe,"Tu-Fr 11:00-14:00,17:00-22:30; PH,Sa,Su 11:00-21:00"
5157013059,Alois Bakery,16.3837755,48.1888582,Landstraßer Gürtel,5,Wien,1030,cafe,Mo-Sa 06:30-01:00
5306717665,Honu,16.3882894,48.2046799,Landstraßer Hauptstraße,21,Wien,1030,fast_food,Mo-Fr 11:00-21:00; Sa 11:30-21:30
5316583608,Great Amritsar,16.388417,48.2070253,Bechardgasse,26,Wien,1030,restaurant,"Mo-Fr 11:00-14:30,17:30-22:30; Sa 12:00-22:30"
5352373957,Kuchl,16.4117807,48.1846531,Leopold-Böhm-Straße,10,Wien,1030,restaurant,Mo-Do 11:30-13:30; Fr 11:30-13:00; PH off
5463168185,El Gaucho,16.3915286,48.2026475,Rochusplatz,1,Wien,1030,restaurant,"Mo-Sa 11:00-02:00, PH,Su 12:00-23:00"
5509425671,Schwemme,16.3792487,48.199946,Traungasse,8,Wien,1030,burger;regional,Mo-Fr 11:00-00:00; Sa 17:00-00:00
5564359011,Veggie,16.3838917,48.2061184,Landstraßer Hauptstraße,2,Wien,1030,fast_food,
5643682360,Noodle King,16.3866884,48.1948524,Ungargasse,75,Wien,1030,fast_food,Mo-Su 11:00-22:00
6019449991,Restaurant Léontine,16.3840242,48.1987505,Reisnerstraße,39,Wien,1030,restaurant,"Tu,We 11:30-14:00; Th-Sa 11:30-14:00,18:30-21:00"
6221914517,KÖNIG,16.3859941,48.1932134,Fasangasse,14,Wien,1030,fast_food,Mo-Su 09:00-22:00
6321524417,Taste of India,16.3916498,48.206494,Marxergasse,19,Wien,1030,indian,"Mo-Fr 11:00-14:30, 17:30-23:00; Sa-Su,PH 12:00-23:00"
6372982687,Le Firin,16.3912654,48.202816,Rochusplatz,1,Wien,1030,cafe,"Mo-Fr 07:00-20:00; PH,Sa,Su 08:00-20:00"
6456095339,Sushi Speedo,16.400259,48.1915333,Landstraßer Hauptstraße,163,Wien,1030,fast_food,"Mo-Fr 11:30-22:00; PH,Su 14:30-22:00; Sa off"
6482304853,Noodle Point,16.3938944,48.199367,Neulinggasse,1,Wien,1030,asian,"Mo-Fr 10:30-21:00; PH,Sa 11:00-21:00; Su off"
6482311826,Café Scalina,16.395307,48.1979318,Landstraßer Hauptstraße,105,Wien,1030,cafe,Mo-Su 08:00-23:00
6503645800,Domino's Pizza,16.398152,48.1894839,Rennweg,94,Wien,1030,fast_food,"Su-Th 11:00-22:00; Fr,Sa 11:00-23:00"
6547553733,Radici,16.3875052,48.1986419,Ungargasse,53,Wien,1030,italian,
6547722350,Benkei,16.3872782,48.1970526,Ungargasse,65,Wien,1030,japanese,"Mo-Fr 11:30-14:00,18:00-22:00; Sa 18:00-22:00"
6549275094,Elstar,16.3866964,48.197227,Ungargasse,60,Wien,1030,restaurant,
6630702707,Ristorante Trimelli,16.3893378,48.2039805,Landstraßer Hauptstraße,31,Wien,1030,pizza;italian,Mo-Su 10:00-23:00
6833817388,Bad Dog,16.381475,48.1877197,Am Schweizer Garten,1,Wien,1030,fast_food,
6918611179,Kimchi ToGo,16.3939029,48.1997901,Wassergasse,38,Wien,1030,korean,Mo-Fr 11:00-15:00; Sa off
6944842586,Coffee & Friends,16.379574,48.1974623,Rennweg,9,Wien,1030,cafe,Mo-Su 08:30-18:00
7239204686,Soulkitchen Vienna,16.3859456,48.2100201,Hintere Zollamtsstraße,2B,Wien,1030,restaurant,Mo-Fr 10:30-14:00
7243131478,Im Sünnhof,16.3882471,48.2036139,Baumannstraße,11,Wien,1030,restaurant,
7297115939,Stöckl im Park,16.3789812,48.192456,Prinz-Eugen-Straße,25,Wien,1030,regional,"Mo-Su,PH 11:30-23:30"
7486692948,Krazy Kitchen,16.3939718,48.1992745,Neulinggasse,1,Wien,1030,thai,Mo-Fr 11:30-21:00
7541979947,Empanaditas Wien,16.399847,48.1951575,Schrottgasse,2,Wien,1030,fast_food,Tu-Su 11:00-20:00
7551612368,Café Vilimek,16.3934778,48.2002209,Landstraßer Hauptstraße,79,Wien,1030,cafe,"Mo-Fr 07:00-20:00; Sa 07:00-13:00; PH,Su off"
7551612369,Noodleking,16.3934255,48.2002736,Landstraßer Hauptstraße,79,Wien,1030,noodle,Mo-Su 11:00-22:00
7646008592,Blossom,16.4119589,48.1931587,Thomas-Klestil-Platz,10,Wien,1030,asian,Mo-Fr 11:00-15:00
7756785898,Ravens Pub,16.3997863,48.1958067,Rabenhof,,Wien,1030,pub,
7947270386,LaVie Cafe,16.4016734,48.2015884,Erdberger Lände,26A,Wien,1030,cafe,Mo-Sa 09:00-18:00
8001191797,Hu,16.3810242,48.1976169,Salesianergasse,20,Wien,1030,asian,"Mo-Fr 11:00-15:00,17:00-21:00; Su 12:00-21:00"
8167346256,Ege Imbiss,16.4111032,48.1858689,Leopold-Böhm-Straße,1,Wien,1030,fast_food,Mo-Fr 07:30-19:30; Sa 08:00-18:00
8241102538,Nesim Kebap,16.3907419,48.2104146,Dianagasse,1,Wien,1030,fast_food,Mo-Su 10:00-22:00
8241102539,Casa Le'one Pizzeria,16.3910671,48.2101045,Löwengasse,17,Wien,1030,burger;italian,
8297362165,Café Satchmo,16.3811202,48.1984574,Salesianergasse,17,Wien,1030,cafe,Mo-Sa 17:00-02:00
8420335275,Ebi,16.4008539,48.2018818,Erdberger Lände,26,Wien,1030,restaurant,"PH,Mo-Su 11:00-22:00"
8421094219,Bella Compagnia,16.3952138,48.2024645,Kübeckgasse,15,Wien,1030,italian,Mo-Su 11:00-23:00
8455267192,La Plume,16.3987584,48.1980885,Keinergasse,6,Wien,1030,cafe,Mo-Su 08:00-20:00
8455412702,Stellas,16.389866,48.2029495,Landstraßer Hauptstraße,44,Wien,1030,restaurant,Mo-Sa 15:00-01:00
8514835039,kochbaRoman,16.3913175,48.2024572,Rochusmarkt,,Wien,1030,fast_food,Mo-Fr 10:00-18:00
8595964805,Alaturka,16.4039284,48.1969946,Erdbergstraße,93,Wien,1030,fast_food,"Mo-Fr 10:00-21:00; Sa,Su 11:00-21:00"
8595964806,Al Quattro,16.4040676,48.1969479,Erdbergstraße,93,Wien,1030,pizza,Mo-Su 11:00-22:00
8595964809,Wiener Gemüse Kebap & Pizza,16.4023824,48.1976149,Drorygasse,20,Wien,1030,fast_food,"Mo-Su,PH 10:00-22:00"
8595964811,La Bella,16.3993342,48.1994666,Erdbergstraße,55,Wien,1030,pizza,"PH,Mo-Su 11:00-22:00"
8595964812,Shisoya,16.3994427,48.1993386,Erdbergstraße,57,Wien,1030,fast_food,Mo-Sa 09:00-20:00
8790088345,Taxi Treff,16.3904644,48.212388,Obere Weißgerberstraße,13,Wien,1030,cafe,
8825704738,Monte Capanne,16.3854302,48.1906575,Fasangasse,34,Wien,1030,fast_food,"Tu,Fr 11:00-21:30; We,Th,Sa,Su 11:15-21:30"
8825704742,Traumkaffee,16.38594,48.1913577,Fasangasse,33,Wien,1030,cafe,
8987807670,Café Nebenan,16.3968836,48.2026292,Wassergasse,8,Wien,1030,cafe,Mo-Fr 17:00-22:00
9026694230,Ramelle,16.3921109,48.2092705,Custozzagasse,1,Wien,1030,ice_cream,May-Oct Mo-Su 12:00-19:00+
9035499439,Ni Jo,16.3978284,48.1890812,Fred-Zinnemann-Platz,4,Wien,1030,asian,"Mo-Fr 11:30-22:00; Sa 12:30-22:00; Su,PH off"
9074496886,ARIVA Pizza Kebab,16.3920046,48.1933056,Eslarngasse,28,Wien,1030,fast_food,
9108140026,Tasty Food,16.3982536,48.1984202,Hainburger Straße,52,Wien,1030,fast_food,
9108167717,Vitavien Landstrasse,16.3895403,48.2038284,Landstraßer Hauptstraße,33,Wien,1030,cafe,Mo-Su 09:00-20:00
9118480159,Abby,16.3901383,48.2026057,Landstraßer Hauptstraße,48,Wien,1030,restaurant,Mo-Sa 11:00-23:00
9118480161,Olala,16.3989354,48.1998984,Erdbergstraße,51,Wien,1030,cafe,"Mo-Fr 09:00-22:00; PH,Sa,Su 10:00-14:00"
9118480166,Capitan,16.4007468,48.1980836,Erdbergstraße,90,Wien,1030,restaurant,"Mo-Fr 06:30-24:00; Sa,Su 11:00-24:00"
9138067676,La Cafeteria,16.3995246,48.1923128,Landstraßer Hauptstraße,155,Wien,1030,cafe,Mo-Su 08:00-24:00
9138067681,Coffee & Friends,16.398345,48.1928871,Landstraßer Hauptstraße,146,Wien,1030,cafe,Mo-Fr 07:30-17:00; Sa 09:00-17:00
9138086273,Koliba Express,16.3916055,48.193911,Boerhaavegasse,25,Wien,1030,fast_food,
9138086279,Hühnerparadies,16.3873527,48.194473,Rennweg,39,Wien,1030,fast_food,Mo-Fr 08:00-20:00; Sa 08:00-17:00
9139655042,Coyote,16.4035677,48.1963628,Fiakerplatz,1,Wien,1030,bar,"Mo-Th 17:00-24:00, Fr,Sa 17:00-02:00"
9139655050,Cheat Day,16.403794,48.1968024,Gestettengasse,13,Wien,1030,restaurant,Mo-Su 11:00-22:00
9139655054,Ciao,16.4057131,48.1963417,Erdbergstraße,134,Wien,1030,ice_cream,Mo-Sa 13:00-20:30
9199545588,Kinderspiel,16.3924031,48.2100625,Adamsgasse,14,Wien,1030,cafe,Tu-Su 10:00-18:00
9200392094,Oishi,16.3908455,48.2103588,Dianagasse,1,Wien,1030,fast_food,Su-Fr 11:30-22:00
9283558389,Grill Story,16.4093131,48.1957655,Schlachthausgasse,3,Wien,1030,barbecue,
9320714069,Café Rafael,16.3932776,48.2074089,Löwengasse,30,Wien,1030,restaurant,Tu-Su 11:00-19:00; Mo off
9666924534,Viki's Pub so oder so,16.3858127,48.1924824,Fasangasse,20,Wien,1030,pub,Mo-Sa 16:00-23:00+
9679391051,Ferri's Fruchtladen Bistro,16.3862395,48.1928525,Fasangasse,17,Wien,1030,cafe,Mo-Fr 09:30-19:00; Sa 09:30-15:00
9751791415,Habibi & Hawara,16.3935302,48.2027684,Erdbergstraße,8,Wien,1030,vienniese;arabian;fusion,
9759325626,Cibo Colorato,16.3869468,48.2115485,Hintere Zollamtsstraße,2,Wien,1030,fast_food,Mo-Fr 11:00-15:00 17:00-22:00; Sa 11:30-15:00 17:00-22:00
9850811436,Ichiban Tea,16.3861674,48.1955778,Ungargasse,64,Wien,1030,cafe,12:00-20:00
9869038933,Pacassi,16.3786267,48.1978322,Auenbruggergasse,2,Wien,1030,cafe,"Th-Sa 10:00-18:00; Su,PH 10:30-17:00"
9876933366,Radetzky,16.389274,48.2109307,Radetzkystraße,10,Wien,1030,fast_food,
9890239917,Pizzafly,16.4066185,48.1961543,Erdbergstraße,146,Wien,1030,fast_food,"Sa-Th,PH 11:00-24:00, Fr 17:00-24:00"
9919040900,Nures Backshop,16.385522,48.1908534,Fasangasse,34,Wien,1030,cafe,Mo-Su 06:00-21:00
9934343490,Radetzky,16.3873522,48.2112444,Pfefferhofgasse,8,Wien,1030,cafe,Mo-Fr 06:00-18:00; Sa 07:00-13:00
9943266988,Tretorria,16.4107375,48.1950404,Schnirchgasse,9,Wien,1030,italian,11:00-22:00
10013725002,Huber's,16.3799962,48.1973402,Rennweg,11,Wien,1030,restaurant,Mo-Fr 10:00-22:00
10024966023,Fort Knox,16.3999678,48.1973622,Hainburger Straße,64,Wien,1030,cafe,Mo-Sa 16:00-02:00; PH 18:00-24:00+; Su off
10024966032,Isoda,16.3909739,48.2025646,Rochusmarkt,,Wien,1030,restaurant,
10024966035,Ramen Makotoya,16.3865712,48.2056352,Landstraßer Hauptstraße,7,Wien,1030,restaurant,"Mo-Fr 11:30-22:00; Sa,Su 12:00-22:00"
10124950634,Toranj,16.3854294,48.2037422,Münzgasse,2,Wien,1030,persian,Tu-Su 11:30-22:00
10186143318,Tauber,16.3951215,48.199272,Landstraßer Hauptstraße,95,Wien,1030,cafe,Mo-Fr 08:00-19:00; Sa 08:00-18:00
10186143334,Segafredo,16.3956448,48.1993123,Messenhausergasse,4,Wien,1030,cafe,
10213086269,M-Buffet Zwovierzehn,16.3959581,48.1792478,Franz-Grill-Straße,9,Wien,1030,fast_food,Mo-Th 10:00-14:00
10312702538,Chernomorka,16.3877998,48.2120209,Pfefferhofgasse,2,Wien,1030,fish,
10606112700,Dao,16.3887246,48.2040574,Landstraßer Hauptstraße,26,Wien,1030,fast_food,Mo-Fr 11:00-21:00; Sa 13:00-22:00
10671372205,Erdberger Braustuben,16.4015667,48.1979059,Rüdengasse,13,Wien,1030,austrian,
10803080530,Zuckergoscherl,16.3904262,48.2032646,Landstraßer Hauptstraße,45,Wien,1030,restaurant,"Mo-Sa 09:00-23:00; PH,Su 09:00-18:00"
10819836558,LENZ - Social Dining,16.3837085,48.2061375,Landstraßer Hauptstraße,2,Wien,1030,regional,
10819966455,Wiki Wiki Poke,16.3888209,48.2037842,Landstraßer Hauptstraße,30,Wien,1030,restaurant,
10829168753,Belvedere Kebaci,16.3863597,48.1935153,Fasangasse,7,Wien,1030,turkish,"PH,Mo-Su 08:00-22:00"
10829177134,Rollstation,16.3852914,48.1945685,Rennweg,18,Wien,1030,japanese;international,Mo-Sa 11:00-21:00
10830126489,Das Schöneberg,16.3925206,48.1920791,Steingasse,40,Wien,1030,cafe,
10844267819,Hayat,16.4008148,48.1909477,Landstraßer Hauptstraße,169,Wien,1030,fast_food,Mo-Su 09:00-22:00
10857148484,Gusto,16.4126095,48.1927622,Thomas-Klestil-Platz,11,Wien,1030,restaurant,Mo-Fr 11:00-14:00
10857155707,Lucky Kitchen,16.4084594,48.1941638,Würtzlerstraße,11,Wien,1030,fast_food,
10865581488,Dr. Döner,16.3837163,48.2062519,Landstraßer Hauptstraße,2,Wien,1030,fast_food,"Mo-Th,Su 10:00-04:00; Fr-Sa 10:00-06:00"
10948454905,Moment,16.3854867,48.1907558,Fasangasse,34,Wien,1030,restaurant,Mo-Sa 11:30-22:00
10995221437,Hitomi,16.4125406,48.1850051,Anne-Frank-Gasse,3,Wien,1030,asian,Su-Fr 10:00-22:00
11043846063,I Bellissimi,16.3890707,48.1900779,Kleistgasse,20,Wien,1030,pizza,We-Mo 11:30-22:00
11071789589,Don't call it pizza,16.3932248,48.1925014,Rennweg,62,Wien,1030,italian,"Mo-Th 07:30-23:00, Fr 07:30-02:00, Sa 08:00-02:00, Su 08:00-23:00"
11093763515,Hofladerle,16.3877092,48.2055685,Gärtnergasse,12,Wien,1030,restaurant,"Mo-Fr 15:00-23:00; PH,Sa,Su off"
11257879246,Latidos,16.3845481,48.2043101,Ungargasse,2,Wien,1030,bar,Mo-Th 18:00-02:00; Fr-Sa 18:00-04:00
11432383773,SELLENY'S Bar,16.3831186,48.2063199,Landstraßer Hauptstraße,2,Wien,1030,regional,
11490043178,Chernomorka,16.4118092,48.1942876,Althoff-Jacobi-Gasse,1,Wien,1030,seafood;ukrainian,"Mo-Su,PH 11:00-23:00"
11492198761,L'Attimo Kaffee Bistrot,16.3817408,48.1965447,Rennweg,23,Wien,1030,cafe,Mo-Fr 09:00-19:00; Sa 09:00-18:30
11544775669,Walter CEWAPI,16.3843264,48.2064066,U-Bahn Station Wien-Mitte Landstraße,U,Wien,1030,restaurant,"Mo-Su,PH 10:00-22:00"
11608090171,Voulez Vous,16.4099878,48.1841465,Urschenböckgasse,5,Wien,1030,pizza,
11700863535,Lucy Bar,16.3836959,48.1857106,Arsenalstraße,1,Wien,1030,bar,"Tu,We,Fr-Su 11:00-18:00; Th 11:00-21:00"
11705124564,Parkcafé im unteren Belvedere,16.3792548,48.1966611,Rennweg,6,Wien,1030,cafe,Mo-Su 10:00-18:00
11708725862,Drei Bögen,16.395049,48.1983283,Landstraßer Hauptstraße,103,Wien,1030,cafe,"Tu-Th 09:00-22:00, Fr 09:00-24:00, Sa 10:00-24:00; Su,Mo off"
11767430520,The Wild Geese,16.400205,48.1890924,Viehmarktgasse,2,Wien,1030,pub,
11889352069,InterContinental,16.3789594,48.2019665,Lothringerstraße,24,Wien,1030,bar,Mo-Su 18:00-01:00
11889405669,The Hoxton,16.3811487,48.2011894,Salesianergasse,1,Wien,1030,bar,Mo-Fr 17:00-01:00; Sa-Su 12:00-01:00
12078429942,Mi 99,16.3862329,48.1943386,Fasangasse,2,Wien,1030,fast_food,
12165921950,daylounge café.bistro.bar,16.3847116,48.2058657,Landstraßer Hauptstraße,2A,Wien,1030,coffee,Mo-Fr 08:00-22:00; Sa-Su 09:00-21:00
12246427283,PI-PA-PO,16.4049518,48.1966915,Erdbergstraße,101,Wien,1030,restaurant,"Mo-Th 12:00-22:00; Fr, Sa 12:00-02:00"
12303959356,Das Goldstück,16.3889037,48.2069506,Bechardgasse,25,Wien,1030,cafe,Mo-Fr 07:30-17:00
12305680304,Biotto,16.3893662,48.2016746,Sechskrügelgasse,5,Wien,1030,pizza,
12320568502,Helal 06 Grill,16.4041372,48.1969216,Erdbergstraße,95,Wien,1030,balkan,Mo-We 09:00-22:00; Th-Su 09:00-23:00
12473381329,Burger Schnitzel Haus,16.3999877,48.1988843,Erdbergstraße,59,Wien,1030,fast_food,
12618321113,Etap,16.4106708,48.193722,Thomas-Klestil-Platz,1A,Wien,1030,restaurant,
12676215853,Wild Bean Cafe,16.392663,48.1777483,Arsenalstraße,5B,Wien,1030,cafe,24/7
12676994275,Oshikuru,16.4014002,48.186701,Grasbergergasse,1A,Wien,1030,fast_food,Mo-Th 10:30-18:00
12726232446,Neu mee,16.4047439,48.1888532,Henneberggasse,2,Wien,1030,noodle;asian;sushi,
12726232460,Tapa,16.4035061,48.1890194,Viehmarktgasse,4,Wien,1030,bar,
8287004,McCafé,16.3846547,48.2065498,U-Bahn Station Wien-Mitte Landstraße,U,Wien,1030,cafe,Mo-Su 06:00-22:00
16005008,Daylounge Cafe,16.3845092,48.205719,Landstraßer Hauptstraße,2A,Wien,1030,cafe,Mo-Sa 08:00-23:00; PH Su 09:00-23:00
132528405,Restaurant Scala,16.4083235,48.1913008,Baumgasse,83,Wien,1030,restaurant,
132710079,Gasthaus Schmitzberger,16.4103567,48.1904863,Nottendorfer Gasse,30,Wien,1030,regional,Mo-Fr 09:00-22:00
133478115,Würstelmausi,16.4149931,48.1856423,Modecenterstraße,14,Wien,1030,fast_food,
265297319,18er Grill,16.4073293,48.1941706,Markhofgasse,6,Wien,1030,fast_food,Mo-Fr 11:30-23:30; Su 10:00-22:00
274826205,Mensa der mdw,16.385747,48.2026318,Anton-von-Webern-Platz,1,Wien,1030,fast_food,Mo-Fr 08:00-17:00
317021863,Kardinal Nagl Würstlplatz,16.4012493,48.1977392,Kardinal-Nagl-Platz,gegenüber 12,Wien,1030,fast_food,
342113777,Friedlich,16.3935025,48.2110287,Krieglergasse,17-19,Wien,1030,restaurant,
406629636,Hot Dog Schnitzel Leberkäse Kebap,16.3900699,48.2107765,Radetzkyplatz,3,Wien,1030,fast_food,
425425281,Strandbar Herrmann,16.3851239,48.2115252,Hintere Zollamtsstraße,2,Wien,1030,bar,10:00-02:00
493669393,Pasta & Cafe by Interspar,16.3850598,48.2062273,Invalidenstraße,6,Wien,1030,italian,"Mo-Sa 07:00-22:00; Su,PH 08:00-21:00"
493669403,Max & Benito,16.384088,48.2064465,Gigergasse,10,Wien,1030,mexican,Mo-Fr 11:30-21:30; Sa 12:00-21:30; Su 12:00-20:30
493669404,Fat Monk,16.3843847,48.2063523,U-Bahn Station Wien-Mitte Landstraße,U,Wien,1030,fast_food,Mo-Su 11:00-20:00
493680685,Vapiano,16.3853372,48.2060492,Marxergasse,4C,Wien,1030,italian,Mo-Sa 11:00-22:00; Su 12:00-22:00
497207250,Chilai,16.386101,48.1948192,Rennweg,neben 33A,Wien,1030,cafe,Mo-Fr 07:00-24:00; Sa-Su 08:00-24:00; PH 08:00-24:00
497465169,Burger King,16.386212,48.1950372,Bahnhof Rennweg,B,Wien,1030,fast_food,"Sa,Su 10:00-24:00; Mo-Fr 09:00-24:00"
497465178,Pizza Rennweg,16.3860686,48.195208,Ungargasse,64,Wien,1030,fast_food,
497465185,Subway,16.3860209,48.1953886,Ungargasse,64,Wien,1030,fast_food,"Mo-Su,PH 10:00-23:15"
586100021,Türkis,16.3842701,48.2067001,U-Bahn Station Wien-Mitte Landstraße,U,Wien,1030,fast_food,Mo-Sa 09:00-24:00
586100026,Chi Chi,16.38517,48.2069331,Gigergasse,5,Wien,1030,cafe,Mo-Sa 10:30-21:00; Su 10:00-21:00
586100034,Costa,16.3854668,48.2075105,Marxergasse,4A,Wien,1030,cafe,Mo-Fr 07:00-20:00; Sa 08:00-19:00; Su 08:00-18:00
586100037,WICHERS,16.3860673,48.2073738,Markthallenbrücke,2,Wien,1030,fast_food,"Mo-Fr 09:00-20:00; Sa,Su 11:00-20:00"
586100038,Teeamo,16.3856282,48.2073585,Marxergasse,4A,Wien,1030,cafe,Mo-Fr 09:00-20:00; Sa 09:00-18:00; Su 12:00-18:00
587189002,Vapiano,16.385489,48.2064354,Gigergasse,5,Wien,1030,italian,Mo-Sa 11:00-22:00; Su 12:00-22:00
587189005,Burger Bros,16.3848376,48.2063348,Gigergasse,5,Wien,1030,burger,"Mo-Fr 11:00-21:30; Sa,Su,PH 12:00-21:30"
587189006,ra'mien go,16.3852364,48.2063183,Invalidenstraße,6,Wien,1030,asian,"PH,Mo-Su 11:00-21:30"
587189007,ra'mien go,16.3852569,48.2063481,Invalidenstraße,6,Wien,1030,fast_food,"Mo-Su,PH 11:00-21:30"
587189008,Sternzeichen,16.3842371,48.2066507,U-Bahn Station Wien-Mitte Landstraße,U,Wien,1030,fast_food,"Mo-Su,PH 11:00-22:00"
587189010,McDonald's,16.3843608,48.2068234,U-Bahn Station Wien-Mitte Landstraße,U,Wien,1030,fast_food,"Mo-Su,PH 06:00-24:00, Sa,Su 00:00-00:30"
587189026,Sushi Cross,16.3849061,48.2065013,Gigergasse,5,Wien,1030,sushi,Mo-Fr 11:00-21:00
674873833,SUESS'KIND,16.3837509,48.2067489,Vordere Zollamtsstraße,15,Wien,1030,restaurant,Mo-Fr 11:00-15:00
719026004,Sorbas,16.4133415,48.1917725,Erdbergstraße,200,Wien,1030,fast_food,Mo-Su 08:00-21:00
758455631,Brass Monkey,16.4003497,48.2014611,Erdberger Lände,26,Wien,1030,cafe,Mo-Su 09:00-22:00
803033960,Meierei,16.3907536,48.1989923,Neulinggasse,14,Wien,1030,cafe,Mo-Su 09:00-19:00
905820144,Zum kleinen Sacher,16.3868239,48.1941333,Obere Bahngasse,2,Wien,1030,fast_food,"Mo-Fr 11:00-02:00, Sa,Su 12:00-02:00"
1009560456,"A Scherzl, a Würschtl, und vü Schmäh",16.4014796,48.1870939,Grasbergergasse,2A,Wien,1030,fast_food,
1009560457,Kebapci,16.4008867,48.1864645,Leberstraße,4,Wien,1030,fast_food,09:00-20:00
1138655193,klein Steiermark,16.3861843,48.1864039,Heeresmuseumstraße,1,Wien,1030,regional,"Mo-Su, PH 11:30-23:00"
1224896938,Fresh daily Prince,16.3863067,48.195485,Ungargasse,71,Wien,1030,fast_food,"Mo-Fr 07:00-24:00, Sa,Su 10:00-24:00"
