id,name,lat,long,addr:street,addr:housenumber,addr:city,addr:postcode,cuisine_or_amenity,opening_hours
308877404,Carno,16.369634,48.1690211,Hermine-Fiala-Hof,,Wien,1100,cafe,
311820993,Mabel's No90,16.3703852,48.1692604,Troststraße,50A,Wien,1100,pub,Mo-Sa 08:00-02:00; Su 14:00-24:00; PH 14:00-02:00
311821005,Mango,16.354584,48.1764049,Kundratstraße,6,Wien,1100,asian,"Tu-Su,PH 11:30-22:30"
335612010,Eissalon Tichy,16.3773424,48.1739485,Reumannplatz,13,Wien,1100,ice_cream,Apr-Sep Mo-Su 10:00-23:00
335654627,Das Columbus,16.3746159,48.1823214,Favoritenstraße,86,Wien,1100,restaurant,Mo-Sa 09:00-24:00; Su 09:00-23:00
402504350,Asia Wok,16.3700094,48.1718963,Siccardsburggasse,58,Wien,1100,asian;wok,
410689272,Brückenwirt,16.4147243,48.1344158,Unter-Laaer Straße,27,Wien,1100,restaurant,Tu-Sa 10:00-22:00; Su 09:00-20:00
477197219,Köy,16.3654368,48.1763345,Quellenstraße,124,Wien,1100,turkish,
495320725,Franzl,16.3477265,48.1749229,Kundratstraße,22,Wien,1100,cafe,
561197349,Cafe K6,16.3542938,48.1763348,Kundratstraße,6,Wien,1100,cafe,
571651943,Mekan Cafe Shisha Lounge,16.3629041,48.1791241,Gudrunstraße,184,Wien,1100,cafe,
598633997,Chili & Cheesy,16.3750259,48.1824943,Favoritenstraße,69,Wien,1100,burger,"Fr,Sa 08:00-01:00, Su-Th,PH 08:00-24:00"
598634155,aïda,16.3749673,48.1817429,Columbusgasse,1-3,Wien,1100,cafe,Mo-Su 09:00-18:00
598634963,McDonald's,16.3760973,48.1798538,Favoritenstraße,89,Wien,1100,fast_food,"Mo-Th 07:00-24:00, Fr,Sa 07:00-01:00, Su,PH 08:00-24:00"
674930519,KALE,16.3642597,48.1701454,Troststraße,72,Wien,1100,fast_food,
674930703,Baba Al Yemen,16.3671484,48.1696926,Alxingergasse,89-93,Wien,1100,restaurant,
674930744,Hühnermann,16.3673465,48.1694533,Van-der-Nüll-Gasse,88,Wien,1100,fast_food,
674930844,Prinzess,16.3681248,48.1693604,Troststraße,47A,Wien,1100,cafe,
677560320,Räuberhöhle,16.3657769,48.1708282,Hardtmuthgasse,75,Wien,1100,restaurant,
677560332,Aspava,16.365687,48.1705946,Herzgasse,82,Wien,1100,cafe,
677560333,alpiso,16.3686358,48.1695069,Leebgasse,86,Wien,1100,fast_food,Mo-Su 07:00-19:00
677560337,Casa Românească,16.3715355,48.17056,Laxenburger Straße,107,Wien,1100,romanian,"Mo-Fr 09:00-22:00; Sa,Su 12:00-22:00"
761175368,Caktus,16.3813759,48.1760031,Pernerstorfergasse,9,Wien,1100,regional,Mo-Sa 09:00-02:00; Su 09:00-01:00
761214936,McDonald's,16.3776354,48.1751047,Favoritenstraße,130,Wien,1100,fast_food,"Mo-Th,PH 07:00-01:00, Fr,Sa 07:00-02:00, Su 08:00-01:00"
761218853,Zum Alten Beisl,16.3767133,48.1739849,Rotenhofgasse,4,Wien,1100,austrian,Tu-Sa 10:00-22:00
790655233,Yunis Kebab,16.3582875,48.1774429,Quellenstraße,156,Wien,1100,fast_food,
790655238,OM kebap's,16.3588088,48.1772473,Quellenstraße,154,Wien,1100,fast_food,
794570859,Friend's Treff,16.3631622,48.1764738,Quellenstraße,134-136,Wien,1100,cafe,
794570886,Casa Familia,16.3637306,48.176175,Fernkorngasse,27,Wien,1100,italian,11:00-23:00
794570888,Firat,16.364022,48.1761617,Quellenstraße,181,Wien,1100,cafe,
794570898,Café Gea,16.363674,48.1755684,Fernkorngasse,33,Wien,1100,cafe,
797725369,Café Roma,16.3579528,48.1779815,Quellenstraße,160,Wien,1100,cafe,"Mo,We 10:00-02:00, Th-Sa 10:00-04:00"
799513821,Buchenbeisl,16.3643035,48.1755192,Karmarschgasse,50,Wien,1100,austrian,
808478292,Charly Temmel,16.3658752,48.1762802,Neilreichgasse,23,Wien,1100,cafe,
808478325,Anadolu Et,16.3662214,48.1762589,Eckertgasse,24,Wien,1100,restaurant,
808478553,Ni Hao,16.3665033,48.1762408,Quellenstraße,118,Wien,1100,chinese,
808610315,Marini,16.3748432,48.1830735,Favoritenstraße,65,Wien,1100,pizza;ice_cream,Mo-Su 12:00-22:00
808610393,Kaiser's,16.3746785,48.18348,Favoritenstraße,61,Wien,1100,austrian,"Mo-Fr 11:00-22:00; Sa,Su,PH 16:00-22:00"
808734696,Favoriten Döner & Pizza,16.3739277,48.1842258,Laxenburger Straße,1-5,Wien,1100,fast_food,Mo-Su 10:00-22:00
808734710,Espresso Joschi,16.373882,48.1841192,Laxenburger Straße,1-5,Wien,1100,cafe,
808734749,Monte,16.374081,48.1839734,Laxenburger Straße,1-5,Wien,1100,cafe,Mo-Su 08:00-02:00
808734750,La Milano,16.3741267,48.1838821,Laxenburger Straße,1-5,Wien,1100,fast_food,"PH,Mo-Su 10:30-22:30"
808734760,Rasoi,16.3741496,48.1838298,Laxenburger Straße,1-5,Wien,1100,indian,Mo-Su 10:30-22:30
809561675,Schnitzel King,16.3746203,48.1825725,Favoritenstraße,84,Wien,1100,austrian,
809561686,Akakiko,16.3744608,48.1830381,Favoritenstraße,78,Wien,1100,fast_food,"Mo-Su,PH 10:30-23:00"
809561691,Magic Noodles,16.3744204,48.1831316,Favoritenstraße,78,Wien,1100,fast_food,Mo-Su 10:00-22:00
810356720,Café B17,16.3551434,48.1751599,Inzersdorfer Straße,116,Wien,1100,cafe,
810356761,Dalli-Dalli,16.3561152,48.1761838,Triester Straße,19,Wien,1100,cafe,
815910747,Don Pablo,16.3570658,48.1716609,Troststraße,96,Wien,1100,italian,
821210012,Sevgi Kasabi,16.371492,48.1756442,Quellenstraße,143,Wien,1100,fast_food,
821210018,Zum goldenen Fisch,16.3708867,48.1756853,Siccardsburggasse,41,Wien,1100,chinese,
821350701,döner'ci,16.3657675,48.1760383,Neilreichgasse,25,Wien,1100,fast_food,
830477223,Café-Imbiss,16.3635479,48.1790643,Gudrunstraße,180,Wien,1100,cafe,
835284255,Pizzeria Tomato,16.3926468,48.1741891,Randhartingergasse,7,Wien,1100,italian,
840690636,Diavolo,16.3580919,48.1672979,Schrödingerhof,,Wien,1100,italian,
848000061,Rendezvous,16.3675205,48.1761806,Quellenstraße,112,Wien,1100,bar,
848217306,Alanya,16.3724832,48.175823,Quellenstraße,86,Wien,1100,cafe,
848248649,Schnitzelquelle,16.3730508,48.1758638,Quellenplatz,vor 8,Wien,1100,fast_food,
848248678,Željo,16.3733337,48.17599,Laxenburger Straße,48,Wien,1100,balkan,
848389374,Mr. Sharma,16.3733751,48.1760701,Laxenburger Straße,48,Wien,1100,fast_food,
848389379,Espresso Herbert,16.3734359,48.1764289,Laxenburger Straße,44,Wien,1100,cafe,
848389395,Big Burgerry,16.3734161,48.1771691,Erlachgasse,99,Wien,1100,fast_food,10:30-23:00
892215600,Burger King,16.3451229,48.1685614,Maria-Kuhn-Gasse,4,Wien,1100,fast_food,"Su-Th,PH 10:00-22:00; Fr,Sa 10:00-23:00"
897441890,Angeli Eck,16.356445,48.1733809,Angeligasse,101,Wien,1100,cafe,
897441922,Café Stress,16.3552465,48.1739106,Knöllgasse,29,Wien,1100,cafe,
897648009,Medusa,16.3546028,48.1746366,Triester Straße,37,Wien,1100,bar,
897648092,Şamata,16.3565439,48.1764641,Rotenhofgasse,108,Wien,1100,cafe,
905829108,Places,16.3569686,48.1715151,Troststraße,96,Wien,1100,cafe,
905829638,Yaren Türkü Bar,16.3541413,48.17248,Troststraße,121,Wien,1100,bar,We-Mo 22:00-04:00
906476408,Di Carni,16.3542925,48.1735107,Knöllgasse,40,Wien,1100,italian,Mo-Su 11:00-23:00
906476445,Bauernladen-Imbiss,16.3537991,48.1730104,Knöllgasse,44,Wien,1100,fast_food,
906476541,Nora Café,16.3657453,48.1759397,Neilreichgasse,25,Wien,1100,pub,
914767733,Ringsmuth,16.3757146,48.1840389,Johannitergasse,1,Wien,1100,regional,Tu-Sa 11:30-23:00; PH 11:30-16:00
914795986,Domino's,16.37462,48.1817517,Columbusplatz,2,Wien,1100,fast_food,"Su-Th 11:00-22:00; Fr,Sa 11:00-23:00"
915174265,Café Gloria,16.3739704,48.1803104,Laxenburger Straße,33,Wien,1100,pub,"Mo-Sa 08:00-24:00; PH,Su 09:00-23:00"
915174270,Gavaz,16.3739881,48.1795834,Laxenburger Straße,39,Wien,1100,cafe,Mo-Su 11:00-21:00
915174274,Millennium,16.3739881,48.179251,Laxenburger Straße,41,Wien,1100,cafe,"Mo-Fr 07:00-02:00, Sa 10:00-02:00, Su 12:00-02:00"
915964012,Sichuan,16.3771957,48.1811712,Landgutgasse,11,Wien,1100,chinese,"PH,Mo-Su 11:30-14:30,17:30-23:00"
915964024,s'Stüberl,16.3771461,48.1813613,Humboldtgasse,16,Wien,1100,pub,Mo-Fr 08:00-22:00; Sa 10:00-20:00; PH 08:00-22:00; Su off
915964052,Simit Palace,16.3769201,48.1813457,Landgutgasse,12,Wien,1100,turkish,Mo-Fr 08:00-20:00; Sa-Su 09:00-20:00
916277771,DaCapo,16.373938,48.1765186,Laxenburger Straße,65,Wien,1100,pub,
916277781,Bijou,16.3740863,48.1757657,Quellenstraße,82,Wien,1100,cafe,
920740479,Lucky Friend,16.3722928,48.1811723,Jagdgasse,2A,Wien,1100,chinese,"Mo-Su 11:30-14:30, Tu-Su 18:00-23:00"
921126802,Timo,16.3693944,48.1800722,Dampfgasse,22,Wien,1100,restaurant,
921127554,10er Imbiß,16.3663402,48.1798049,Hasengasse,38,Wien,1100,pub,
922054634,Pizza Flitzer,16.3643762,48.1795474,Hasengasse,54,Wien,1100,italian,
924763155,Marmalis,16.3686586,48.1792829,Hasengasse,27,Wien,1100,restaurant,
928623392,Café Uzay,16.3711038,48.176663,Siccardsburggasse,31,Wien,1100,cafe,
929515605,Café Respect,16.3691408,48.1770362,Pernerstorfergasse,64,Wien,1100,cafe,
930756885,Steh-Café,16.3734715,48.1781513,Laxenburger Straße,28,Wien,1100,cafe,
930757008,Tropikana,16.3732554,48.1784939,Gudrunstraße,134,Wien,1100,pub,
930757103,Bernado,16.372706,48.1785314,Jagdgasse,11,Wien,1100,fast_food,Mo-Su; PH 10:30-22:00
931460381,Café Can,16.369061,48.1787521,Gudrunstraße,152,Wien,1100,cafe,
932960821,Graffiti,16.3678175,48.1788268,Gudrunstraße,158,Wien,1100,cafe,
945128195,Peters Pup,16.3659249,48.1770636,Neilreichgasse,15A,Wien,1100,pub,
945128197,Lamm,16.3659116,48.1769529,Neilreichgasse,15A,Wien,1100,kebab;pizza;burger,
948326965,Alxinger-Stüberl,16.368136,48.1774965,Erlachgasse,119,Wien,1100,restaurant,Mo-Th 09:00-21:00
948339782,Cafe Karadeniz,16.3672247,48.1783297,Herzgasse,10,Wien,1100,cafe,
1092841007,Oberlaaer Dorfwirt,16.3987255,48.1362995,Liesingbachstraße,75,Wien,1100,regional,
1168880076,Mr. Nam,16.379438,48.1706838,Favoritenstraße,156,Wien,1100,vietnamese,"Tu-Fr 11:30-15:00,17:00-21:00; Sa,Su,PH 12:00-21:00; Mo off"
1175555731,Markova Koliba,16.37522,48.164974,Favoritner Gewerbering,14,Wien,1100,fast_food,
1314636912,ChilleX,16.3835226,48.1649483,Maria-Rekker-Gasse,1,Wien,1100,cafe,
1314636916,Pizzeria Perryda,16.3832459,48.1648965,Maria-Rekker-Gasse,9,Wien,1100,italian;indian;chinese;hungarian;austrian;american,Mo-Sa 15:00-02:00; Su 11:00-02:00
1314636919,Pizzaria Monte Laa,16.3844684,48.1641386,Kerschbaumgasse,1,Wien,1100,pizza,
1363465163,Kebap Palace,16.3651428,48.1760854,Quellenstraße,175,Wien,1100,fast_food,
1369273276,Müller Bräu,16.3481777,48.1659647,Triester Straße,91,Wien,1100,pizza;regional;burger,09:00-01:00
1379929310,Cafe Family,16.3522705,48.1714204,Knöllgasse,66,Wien,1100,cafe,
1465942356,La Mare,16.3670371,48.1713693,Angeligasse,65,Wien,1100,italian,10:00-23:00
1502257454,Espresso Reumann,16.3801264,48.1726407,Bürgergasse,11,Wien,1100,cafe,
1502265051,Casa Linga,16.3804972,48.1717667,Bürgergasse,20,Wien,1100,fast_food,"PH,Mo-Su 11:00-23:00"
1607582232,Grüh Bierstube,16.3600114,48.1709183,Troststraße,82,Wien,1100,cafe,
1622870691,Sakura,16.3772501,48.1778869,Gudrunstraße,141,Wien,1100,japanese,"Mo-Fr 11:00-14:30,17:00-21:30; Su,PH 11:00-21:30"
1631228602,Peterwirt,16.3829823,48.149982,Ada-Christen-Gasse,2,Wien,1100,pub,"Mo-Th 16:00-24:00, Fr 10:30-24:00"
1686473987,Groissböck,16.3633796,48.1658585,Raxstraße,14,Wien,1100,cafe,Mo-Sa 07:30-19:00; Su 08:00-19:00
1694921158,Cafe am Platz'l,16.3832897,48.1529455,Favoritenstraße,239,Wien,1100,cafe,
1694921159,Radatz,16.382729,48.1533052,Favoritenstraße,239,Wien,1100,fast_food,Mo-Fr 08:30-18:00; Sa 07:30-12:30
1727153402,Gartenschank,16.3983326,48.1363896,Liesingbachstraße,77,Wien,1100,restaurant,
1768540891,Cafe Schwarz,16.3657368,48.1726741,Neilreichgasse,47-51,Wien,1100,cafe,"Mo-Sa 07:30-02:00; Su,PH 09:00-24:00"
1769269723,Gavaz Kiosk,16.3756922,48.1805622,Favoritenstraße,81,Wien,1100,cafe,
1787153982,Bierox,16.3767939,48.180493,Planetengasse,5,Wien,1100,pub,Mo-Sa 18:00-24:00; Su off
1807906083,Unterlaaerhof,16.4144512,48.1327581,Unterlaaer Platz,2,Wien,1100,restaurant,
1819236575,Mein Schnitzel,16.3826867,48.1385337,Himberger Straße,40,Wien,1100,fast_food,10:30-21:00
1819239795,Hubertus Stadl,16.3825108,48.1427866,Himberger Straße,20,Wien,1100,restaurant,
1819242096,China Restaurant Melie,16.3827706,48.1455278,Himberger Straße,1,Wien,1100,chinese,"Tu-Su 11:00-15:00,17:30-22:30; Mo off"
1819267835,Pizza Day,16.38237,48.1446865,Himberger Straße,6,Wien,1100,pizza,11:00-23:00
1822711264,Bierstadl,16.398595,48.1675188,Laaer Wald,218A,Wien,1100,regional;german,Mo-Su 11:00-22:00
1835534618,Ristorante LaMiramare,16.3442659,48.1680032,Maria-Kuhn-Gasse,6,Wien,1100,austrian;greek;italian;italian_pizza;pizza,Mo-Sa 11:00-22:00; Su 11:00-21:00
1849426225,Heuriger Stefan Wieselthaler,16.3932188,48.1393442,Oberlaaer Straße,120,Wien,1100,heuriger;wine;regional,
1860590615,Gasthaus zum Gölsentaler,16.3816929,48.1652843,Favoritenstraße,194,Wien,1100,restaurant,
1964987346,Diwan,16.3752005,48.173859,Rotenhofgasse,11,Wien,1100,turkish,
1965010055,Bier-Beisl,16.3786847,48.1758077,Wielandgasse,14,Wien,1100,pub,
1965017666,Balkan-Burek,16.3760914,48.1749132,Buchengasse,74,Wien,1100,balkan,
1970570608,Café,16.3493081,48.1732939,Klinik Favoriten,F,Wien,1100,cafe,
2054130864,Marena,16.3830909,48.1766803,Erlachgasse,72,Wien,1100,regional,Mo-Sa 10:00-22:00
2311414931,Burger King,16.3777322,48.1758451,Favoritenstraße,109,Wien,1100,fast_food,"PH,Mo-Su 10:00-24:00"
2311414958,"The Golden Harp, Kaffeehaus, Irish Pub",16.3770372,48.1777032,Favoritenstraße,97,Wien,1100,cafe,"Mo-Sa 08:00-02:00, Su 09:00-24:00"
2428107237,Grömer,16.376678,48.1726601,Ettenreichgasse,6,Wien,1100,cafe,
2428114552,Sani,16.3758519,48.177443,Senefeldergasse,7,Wien,1100,pub,
2707515284,Mursteinerei,16.3649803,48.171638,Friesenplatz,1-2,Wien,1100,regional,
2712610108,Cafe City X,16.3830485,48.1633019,Favoritenstraße,213,Wien,1100,cafe,Mo-Sa 06:30-00:00;Su 8:00-00:00
2790291492,Kurparkdiele,16.4013458,48.15128,Filmteichstraße,,Wien,1100,regional,10:00-22:00
2790297234,Kiosk Kurparkdiele,16.3989783,48.1511027,Oppenheimgasse,47,Wien,1100,cafe,
2800544976,Lovac,16.3789488,48.171435,Gellertgasse,60,Wien,1100,serbian,
2816940725,Latak,16.3899126,48.17364,Absberggasse,21,Wien,1100,fast_food,Mo-Sa 9:00-20:00
2908499754,Cafe Erlach,16.3828321,48.1765466,Erlachgasse,63,Wien,1100,cafe,
3168707209,Cafe Memo,16.3669804,48.174658,Rotenhofgasse,52,Wien,1100,fast_food,
3168712561,Sedir,16.3671022,48.1755185,Buchengasse,122,Wien,1100,turkish,
3170280100,Sweet Vienna,16.3677966,48.1752461,Laubeplatz,11,Wien,1100,restaurant,
3217609296,Goldene Rose,16.3763452,48.1720674,Ettenreichgasse,12,Wien,1100,chinese,"Mo-Su 11:00-14:30, 17:30-22:30"
3218002479,Citychicken,16.3777192,48.1748055,Buchengasse,66,Wien,1100,fast_food,
3257397686,Rokn el-ein,16.3785768,48.1749722,Wielandgasse,24,Wien,1100,syrian,
3296415382,das Turm,16.3467967,48.1691032,Wienerbergstraße,7,Wien,1100,bar,Mo-Fr 17:00-24:00
3382140693,Kaiser's,16.3758922,48.1804312,Favoritenstraße,83,Wien,1100,fast_food,Mo-Su 12:00-22:00
3400094462,crispy chicken factory,16.3786148,48.175397,Wielandgasse,20,Wien,1100,fast_food,
3400094465,Schnitzel Fan,16.3786562,48.1756118,Wielandgasse,18,Wien,1100,fast_food,Mo-Fr 09:00-21:30; Sa-Su 10:00-21:30
3400094466,Würstelbox,16.3780483,48.1752567,Favoritenstraße,113,Wien,1100,fast_food,
3400094467,Nefertiti,16.3784582,48.1752282,Wielandgasse,22,Wien,1100,fast_food,
3463194593,Der Mann,16.3772965,48.1752292,Quellenstraße,115,Wien,1100,cafe,Mo-Fr 06:00-19:00; Sa 07:00-18:00; Su 07:00-13:00
3471482495,Kamun,16.376931,48.1737407,Rotenhofgasse,1A,Wien,1100,cafe,Su-Th 12:00-24:00; Fr-Sa 12:00-02:00
3471640593,Pauli's Kuchl,16.3650886,48.1665043,Neilreichgasse,105,Wien,1100,regional,
3490374093,Restaurant Aamo,16.3935058,48.1398902,Franz-Mika-Weg,11,Wien,1100,afghan;burger;ice_cream;kebab;mediterranean;pizza,Mo-Su 11:00-22:00
3507543196,Café Windstill,16.3787909,48.1747036,Reumannplatz,19,Wien,1100,cafe,Mo-Th 08:00-23:00; Fr 08:00-24:00; Sa 10:00-24:00
3507581093,Mola,16.3783995,48.1751716,Wielandgasse,22,Wien,1100,fast_food,Mo-Su 08:00-00:00
3563688393,Altes Schutzhaus Domaya,16.3968389,48.169074,Laaer Wald,5,Wien,1100,regional;rumänisch,Di-So 11:00-00:00
3573352569,Damak,16.3764049,48.1748572,Buchengasse,72,Wien,1100,turkish,Mo-Su 08:00-23:30
3730238198,Lucky Noodles,16.3755199,48.1804223,Favoritenstraße,vor 98,Wien,1100,fast_food,Mo-Su 10:00-21:00
3730238201,Elif,16.3753619,48.1807545,Favoritenstraße,94,Wien,1100,fast_food,Mo-Sa 11:00-21:00
3779752442,Weili Wok,16.3840704,48.1522482,Favoritenstraße,241,Wien,1100,wok,
3812967592,Chicago,16.3704247,48.169342,Troststraße,50A,Wien,1100,pub,
3819795107,BasKent Döner,16.3770214,48.1755038,Quellenstraße,68-70,Wien,1100,fast_food,
3819795108,Damak 2Go Street Food,16.3756922,48.1755928,Senefeldergasse,19,Wien,1100,burger;kebab;turkish,Mo-Su 06:00-02:00
3819795109,Kebab to Go,16.3766265,48.175292,Leibnizgasse,11,Wien,1100,fast_food,
3819795110,Cios Kebab,16.376493,48.1755441,Quellenstraße,68-70,Wien,1100,fast_food,
3819795111,Cio's,16.3766853,48.1755292,Quellenstraße,68-70,Wien,1100,fast_food,Mo-Sa 09:00-18:00
3819795114,Eissalon Monte,16.3767843,48.1755234,Quellenstraße,68-70,Wien,1100,ice_cream,Mo-Su 08:00-23:00
3849756698,Ritmo Latino,16.3835481,48.1747244,Quellenstraße,79-83,Wien,1100,cafe,"Mo-Sa 10:00-04:00; Su, PH 12:00-24:00"
3856268122,Urfa,16.345569,48.1700141,Ahornhof,,Wien,1100,pizza;kebab,Mo-Fr 08:00-21:00; Sa off; Su 09:00-21:00
3856268124,Y A Sushi Restaurant,16.3534762,48.171782,Quaringasse,20,Wien,1100,asian,
3857191069,Tennisstüberl Gadolla,16.3365995,48.1688455,Eibesbrunnergasse,9,Wien,1100,austrian,Mo-Sa 10:00-22:00
3964339847,Groissböck,16.3774468,48.1756365,Favoritenstraße,128,Wien,1100,cafe,Mo-Fr 07:00-18:00; Sa 07:00-18:00; Su 09:00-18:00
4020497816,Gasthof Unsinn,16.3830005,48.1392189,Himberger Straße,49,Wien,1100,austrian,"Mo-Fr 10:00-22:00; Sa 11:00-22:00; PH,Su off"
4159400489,Campus Bräu,16.3798656,48.1872866,Am Belvedere,2,Wien,1100,austrian,Mo-Fr 11:30-24:00; PH off
4383021369,Seppis Beisl,16.3730709,48.1696295,Suchenwirtplatz,5,Wien,1100,regional,
4392674002,Kebab Del Mar,16.3645047,48.1696878,Neilreichgasse,75,Wien,1100,fast_food,
4395864988,inpunto CAFFE,16.3747888,48.1723779,Senefeldergasse,50,Wien,1100,cafe,
4395889025,Balkan Express,16.3760924,48.1731077,Davidgasse,7,Wien,1100,balkan,Mo-Th 09:00-24:00; Fr-Sa 09:00-25:00; Su 09:00-23:00
4430880560,IKI,16.3803963,48.1867442,Am Belvedere,1,Wien,1100,asian,Mo-Fr 11:00-22:30
4635439593,Urban's Lounge,16.381329,48.1818285,Antonie-Alt-Gasse,2,Wien,1100,restaurant,Mo-Su 11:30-23:00
4726953919,Schnauzer & Beagle Brewery,16.3639433,48.1795643,Hasengasse,56,Wien,1100,international,We-Fr 17:00-23:00; Sa 11:00-17:00
4844581610,Beladi,16.3807404,48.1687565,U-Bahn Station Troststraße,U,Wien,1100,syrian,
4844581611,Jamas,16.3803233,48.1697223,Favoritenstraße,151-153,Wien,1100,greek,
4847380665,George Deli & Café,16.3812563,48.1866454,Am Belvedere,1,Wien,1100,cafe,Mo-Th 07:30-16:30; Fr 07:30-15:00
4876451917,Jasmina's,16.3653387,48.1723513,Inzersdorfer Straße,83,Wien,1100,cafe,"Mo-Sa 08:00-21:00; Su 09:00-21:00; Su,PH off"
4898099443,Mampfbude,16.3841591,48.1596067,Ludwig-von-Höhnel-Gasse,4,Wien,1100,fast_food,
5030420022,Sezai Fisch(t)raum,16.376542,48.1769822,Viktor-Adler-Markt,M,Wien,1100,fish;seafood,Mo-Sa 11:30-22:00
5083011111,magdas KANTINE,16.3904387,48.1718099,Absberggasse,27,Wien,1100,restaurant,Mo-Th 10:00-14:00; PH off
5180659069,Buschenschank Frauneder,16.3990099,48.1379126,Oberlaaer Straße,73,Wien,1100,heuriger;buschenschank;regional;wine,
5514490633,Al Banco - Aperibar,16.3803466,48.1871737,Am Belvedere,2,Wien,1100,italian,Mo-Th 08:30-21:00; Fr 08:30-15:00
5514490634,dean&david,16.3806035,48.187264,Am Belvedere,2,Wien,1100,fast_food,Mo-Th 10:00-20:00; Fr 10:00-18:00
5538332267,Piterija Melentije,16.3642116,48.1678802,Neilreichgasse,95-99,Wien,1100,restaurant,
5538332268,Pizza Mami,16.3638961,48.1681299,Brunnweg,2,Wien,1100,pizza,Mo-Su 10:00-22:00
5538332269,Ristorante Ariana,16.3660884,48.1663597,Leebgasse,108,Wien,1100,pizza;italian,
5538332270,"China Restaurant ""Gedeihen""",16.3634758,48.1661326,Raxstraße,14,Wien,1100,asian,"PH,Mo-Su 11:30-15:00,17:30-22:30"
5914440091,Weingut Franz Wieselthaler,16.399249,48.1378976,Untere Kaistraße,54,Wien,1100,heuriger;buschenschank;regional;wine,
5919302986,Eloa by Cohen‘s,16.3783072,48.1863774,Gertrude-Fröhlich-Sandner-Straße,3,Wien,1100,oriental,Mo-Fr 11:00-23:00
5984151075,Choco Teria,16.3737126,48.1750777,Laxenburger Straße,73,Wien,1100,fast_food,
5984151077,La Koliba,16.3735583,48.1750921,Laxenburger Straße,73,Wien,1100,balkan,We-Su 08:00-19:00
6056294395,China Reumannplatz,16.379486,48.1717132,Favoritenstraße,135,Wien,1100,chinese,"11:30-14:30,17:30-22:30"
6056294399,Dönerist,16.3794136,48.1707365,Favoritenstraße,156,Wien,1100,restaurant,
6056294400,Kess,16.3792513,48.1723473,Favoritenstraße,129,Wien,1100,restaurant,
6209276060,Kenny's,16.3781601,48.1748649,Reumannplatz,17,Wien,1100,fast_food,"Mo-Sa 09:00-20:00; PH,Su 10:00-20:00"
6264867675,Ebi 10,16.3482482,48.1680896,Clemens-Holzmeister-Straße,1,Wien,1100,japanese,"Mo-Su,PH 11:00-22:00"
6284451209,Asia Ruyi Teppanyaki,16.3809943,48.1681153,Favoritenstraße,165,Wien,1100,asian,Mo-Su 11:00-23:00
6379024038,Radatz,16.3769648,48.1768381,Viktor-Adler-Markt,M,Wien,1100,fast_food,Mo-Fr 07:00-18:00; Sa 07:00-14:00
6379164524,Tchibo,16.3772321,48.1771031,Erlachgasse,94,Wien,1100,cafe,Mo-Fr 08:00-18:30; Sa 08:00-17:00
6432974580,Bernardo´s,16.3749555,48.1827275,Favoritenstraße,67,Wien,1100,bistro,"Tu-Sa 18:00-22:00; Su,Mo,PH off"
6551088335,Loving Hut,16.3437634,48.1681472,Maria-Kuhn-Gasse,6,Wien,1100,international,"Tu-Fr 11:30-14:30, 17:00-21:00; Sa, Su 12:00-21:00"
6873290685,Breakstation,16.3755944,48.182103,Columbusplatz,7-8,Wien,1100,cafe,
6873348286,Jasmin al Sham,16.3754629,48.1762037,Senefeldergasse,14,Wien,1100,fast_food,Mo-Su 08:00-22:00
6876883830,Öncü,16.3763917,48.1791647,U-Bahn Station Keplerplatz,,Wien,1100,fast_food,"Mo-Fr 11:00-21:00; Sa,Su 12:00-21:00"
6952524398,Mimi im Stadtelefant,16.3871196,48.179047,Bloch-Bauer-Promenade,23,Wien,1100,bar,"Mo-Fr 11:45-15:00, Tu-Fr 17:30-23:00; Sa,Su,PH off"
6952756976,Kenny's,16.386118,48.1793011,Bloch-Bauer-Promenade,22,Wien,1100,fast_food,"Mo-Su,PH 10:00-20:00"
7213891885,Vapiano,16.37787,48.1838071,Gertrude-Fröhlich-Sandner-Straße,13,Wien,1100,italian,
7324795446,Café Stil,16.3501084,48.1553129,Tesarekplatz,1,Wien,1100,cafe,"Mo-Fr 08:00-22:00; Sa, Su 09:00-20:00; PH 09:00-22:00"
7654988064,FASSLWIRT,16.3825936,48.1552451,Favoritenstraße,235B,Wien,1100,regional,
7770573212,Buschenschank Manhardt,16.4018229,48.135861,Liesingbachstraße,51,Wien,1100,regional;wine;buschenschank,"Tu-Sa 15:00-23:00; PH,Su 11:30-21:00"
7770573213,Buschenschank Bruckner Schurli,16.4021522,48.135805,Kreuzgasse,2,Wien,1100,regional;wine;buschenschank,"PH,Mo-Su 15:00-23:00"
7770573214,Buschenschank Berger,16.4011993,48.1387089,August-Kronberger-Gasse,1,Wien,1100,buschenschank;wine;regional,
8181119202,MO's Erlebnisgastronomie,16.4001294,48.1388813,Friedhofstraße,1,Wien,1100,regional,
8396090279,Lax 39,16.3739799,48.1796495,Laxenburger Straße,39,Wien,1100,cafe,
8396090280,Soko Banja Grill,16.3739827,48.1793115,Laxenburger Straße,41,Wien,1100,fast_food,
8804997426,Estratto Cafe,16.3879149,48.1739393,Quellenstraße,51-55,Wien,1100,cafe,"Mo-Fr 08:30-15:30; Sa,Su closed"
8812381966,Aurora Rooftop Bar,16.3833508,48.185194,Arsenalstraße,10,Wien,1100,bar,"Mo-Th,Su 16:00-23:00; Fr-Sa 16:00-24:00"
8812393722,Eugen21,16.3833924,48.1851662,Arsenalstraße,10,Wien,1100,restaurant,"Mo-Fr 12:00-14:00,18:00-22:00; Sa 18:00-22:00"
8825521967,Cafe Disko,16.3843254,48.1814518,Bloch-Bauer-Promenade,9,Wien,1100,cafe,"Mo-Fr 17:00-22:00; Sa 10:00-22:00; PH,Su 10:00-17:00"
8836246576,Cafe Clips,16.3616328,48.1693527,Graffgasse,15,Wien,1100,cafe,
8931054714,Dürüm,16.3757424,48.1798328,Favoritenstraße,102,Wien,1100,fast_food,"Mo-Sa 09:00-22:00; Su,PH 10:00-22:00"
9033587210,Schnitzel - fan by,16.376024,48.1800885,Favoritenstraße,87,Wien,1100,fast_food,
9033587214,Gavaz,16.3764536,48.1790252,Keplerplatz,11,Wien,1100,ice_cream,
9033605119,Günnay,16.3767732,48.1783097,Keplerplatz,14,Wien,1100,turkish,
9063922220,Gugumuck Gartenbar,16.3796807,48.1375992,Rosiwalgasse,49,Wien,1100,restaurant,
9080885178,Your PINS,16.3970831,48.1382241,Grundäckergasse,19,Wien,1100,bar,
9168282417,Ferhat Döner,16.3753289,48.1808444,Favoritenstraße,94,Wien,1100,fast_food,11:00-22:00
9178536517,Mensa,16.3745722,48.1647285,Daumegasse,8,Wien,1100,restaurant,Mo-Th 09:00-14:30; Fr 09:00-14:00
9459094817,Feldhase,16.3851882,48.1805707,Bloch-Bauer-Promenade,15,Wien,1100,cafe,Tu-Fr 09:00-19:00; Sa 09:00-18:00
9677146114,İlkim Döner,16.3753696,48.1810619,Favoritenstraße,vor 92,Wien,1100,fast_food,Mo-Su 08:00-21:00
9683449467,Noodle King,16.3777104,48.1748647,Favoritenstraße,130,Wien,1100,fast_food,"PH,Mo-Su 11:00-21:00"
9686943417,Chefs Bistro,16.375695,48.1808503,Favoritenstraße,79,Wien,1100,fast_food,Mo-Su 10:00-23:00
9688386678,Burger Pate,16.3677635,48.1682414,Dieselgasse,16,Wien,1100,fast_food,Tu-Fr 11:00-20:00; Sa 12:00-21:00; Su 12:00-20:00; Mo off
9720315804,Kent,16.376759,48.1772727,Favoritenstraße,118,Wien,1100,turkish,Mo-Su  07:00-24:00
9819248707,Buffet Zum Freundlichen,16.3722267,48.1642655,Otto-Willmann-Gasse,2,Wien,1100,fast_food,"We,Th,Sa 09:00-22:50; Mo 09:00-22:45; Tu 09:00-22:40"
9825963978,Chaya,16.380368,48.1696128,Favoritenstraße,151-153,Wien,1100,fast_food,
9828524341,Schelato,16.3816188,48.1791446,Antonie-Alt-Gasse,9,Wien,1100,ice_cream,May-Sep: Mo-Su 13:00-19:00
9861780293,Pause am Berg,16.3909876,48.1648288,Laaer-Berg-Straße,67,Wien,1100,restaurant,Tu-Th 10:00-23:00; Fr-Su 11:00-23:00
9932412337,Bol Kepçe,16.3801737,48.1750392,Herndlgasse,21,Wien,1100,turkish,
9961163389,Muss'ty Food Point,16.3794153,48.1718582,Favoritenstraße,135,Wien,1100,turkish;pizza;burger;kebab;cafe,Mo-Su 10:00-22:00
9993486804,Interspar Restaurant,16.3855761,48.1775729,Artholdgasse,4,Wien,1100,regional,
10009226953,Day to Day Pizzeria,16.3753164,48.180045,Favoritenstraße,100,Wien,1100,fast_food,"PH,Mo-Su 09:00-23:00"
10009226955,KFC,16.3751345,48.1822315,Columbusplatz,7-8,Wien,1100,fast_food,Mo-Su 10:00-22:00
10013652925,Piazza Colombo,16.3741108,48.1823087,Laxenburger Straße,19,Wien,1100,italian,"Mo-Fr 07:00-11:00,11:30-23:00; Sa,Su,PH 07:30-11:30,12:00-23:00"
10013675392,Bermuda WG,16.3824191,48.1633402,Weldengasse,31,Wien,1100,bar,24/7
10064365951,Cafe Juxe Box,16.3807393,48.1675702,Alpengasse,8,Wien,1100,cafe,
10239071169,Közde Döner,16.3788546,48.1768034,Wielandplatz,6,Wien,1100,turkish,Tu-Su 11:00-22:00
10284716856,Fat Monk,16.3787757,48.1867848,Am Belvedere,10,Wien,1100,restaurant,Mo-Fr 11:00-19:00
10709796880,Mama‘s African Grill-Bar,16.3842903,48.1740334,Steudelgasse,25,Wien,1100,restaurant,
10790668807,Wienerfelder Schenke,16.3610747,48.1593974,Neilreichgasse,139A,Wien,1100,pub,10:00-21:00
10816744248,Koshary,16.3738044,48.1759313,Quellenplatz,2,Wien,1100,fast_food,"Mo-Su,PH 09:00-24:00"
10911314356,Kaiser's Würstelstand,16.3756222,48.1804361,Favoritenstraße,vor 98,Wien,1100,fast_food,Mo-Sa 09:00-20:00
10917995776,Cafe CAmeo,16.3755091,48.1738478,Rotenhofgasse,9,Wien,1100,cafe,
10918039962,Café Classico,16.3812134,48.1738729,Waldgasse,31,Wien,1100,cafe,
10918249490,Beluga,16.3910603,48.1756451,Gudrunstraße,27,Wien,1100,cafe,
10918308138,Café Susanne,16.3908423,48.1737237,Quellenstraße,18,Wien,1100,pub,Mo-Su 17:00-24:00
10936625711,Etli Ekmek,16.380196,48.1732252,Laaer-Berg-Straße,8,Wien,1100,fast_food,Mo-Su 10:00-21:00
10944285223,Inti,16.3809815,48.1810858,Vally-Weigl-Gasse,2,Wien,1100,cafe,Mo-Fr 14:00-20:00; Sa 10:00-15:00
10994633674,Steakhouse Derya,16.3742534,48.1732231,Davidgasse,17,Wien,1100,steak_house;breakfast,Tu-Su 08:00-24:00
10994639880,Vienna 67,16.3745813,48.1734041,Davidgasse,14,Wien,1100,cafe,
10994657215,Hum Yum,16.3747584,48.1741035,Columbusgasse,61,Wien,1100,fast_food,
10994682823,Quick Burger & Toast,16.3743099,48.1754534,Quellenstraße,133,Wien,1100,fast_food,Mo-Su 10:00-23:00
11010243772,MaBell,16.3782733,48.1737265,Reumannplatz,,Wien,1100,cafe,
11010243781,doner kebeb,16.3780794,48.1750133,U-Bahn Station Reumannplatz,,Wien,1100,fast_food,
11010243786,ahMed,16.379408,48.1745253,Reumannplatz,21,Wien,1100,fast_food,Mo-Sa 09:00-22:00; Su 10:00-22:00
11010243787,bibo,16.3804898,48.1745698,Buchengasse,60,Wien,1100,italian,
11010243788,Alnawaeir,16.3795201,48.1724199,Waldgasse,56,Wien,1100,restaurant,
11010243789,Mevlana kebab,16.3751692,48.1764465,Pernerstorfergasse,31,Wien,1100,restaurant,
11010243793,Mezzaluna,16.3803672,48.1821254,Alfred-Adler-Straße,12,Wien,1100,pizza;italian,Mo-Fr 11:00-22:00; Sa 16:00-22:00; Su 16:00-21:00
11010243799,Aora,16.3751175,48.1792266,Keplerplatz,8,Wien,1100,restaurant,
11010260606,Eismama,16.3769506,48.1777475,Favoritenstraße,95,Wien,1100,ice_cream,Mo-Su 10:00-22:00
11010260608,royal food,16.3747612,48.1766542,Columbusgasse,40,Wien,1100,fast_food,
11010260616,Crispy chicken factory,16.3786336,48.1754017,Wielandgasse,20,Wien,1100,fast_food,"Mo-Fr 10:30-22:30; Sa 10:30-23:00; Su,PH 11:00-22:30"
11010260617,cigkofte,16.3785359,48.175398,Wielandgasse,20,Wien,1100,fast_food,
11010260618,simit sokagi,16.3797661,48.1753493,Quellenstraße,50,Wien,1100,turkish,
11010260619,imbiss and market,16.379995,48.1755224,Herndlgasse,18,Wien,1100,fast_food,
11010260622,escape bar and lounge,16.3793241,48.177744,Wielandgasse,1,Wien,1100,bar,Mo-Su 09:00-24:00
11010260628,Cafe Laky,16.3750171,48.1709673,Leibnizgasse,60,Wien,1100,cafe,
11010260629,club hacienda,16.3756909,48.1708141,Ettenreichgasse,28,Wien,1100,bar,
11010260633,Jasmin al sham,16.3760973,48.1721228,Schröttergasse,3,Wien,1100,syrian,
11010260651,Mangal Grill,16.3770739,48.1718789,Schröttergasse,1C,Wien,1100,restaurant,
11010260656,Schnitzel,16.3771258,48.1735031,Reumannplatz,11,Wien,1100,fast_food,
11012060777,gellert imbiss,16.3841635,48.1746085,Steudelgasse,20,Wien,1100,fast_food,
11012060778,pizzeria giovanni,16.3823365,48.1742865,Buchengasse,50,Wien,1100,restaurant,
11012060781,la eso,16.3806734,48.1745359,Buchengasse,60,Wien,1100,fast_food,
11012060782,iki's grill,16.3835727,48.174984,Quellenstraße,30,Wien,1100,fast_food,
11012060789,Cafe simple,16.3838395,48.1746695,Quellenstraße,79-83,Wien,1100,cafe,
11012060791,Dani Cafe,16.382771,48.1746645,Gellertplatz,5,Wien,1100,cafe,
11012060797,Dünya Döner,16.3815933,48.1749564,Quellenstraße,91,Wien,1100,fast_food,
11012067505,nefisto,16.3811725,48.1752247,Quellenstraße,40,Wien,1100,fast_food,
11034268463,Saray,16.3682656,48.1785672,Gudrunstraße,165,Wien,1100,fast_food,
11034268467,cigköfte,16.3686577,48.1787689,Alxingergasse,23,Wien,1100,fast_food,
11092998676,admiral,16.3769071,48.1778909,Favoritenstraße,95,Wien,1100,bar,Mo-Su 08:00-24:00
11115850115,Bräuhaus Ten.Fifty,16.3894552,48.1714576,Absberggasse,27,Wien,1100,bar,
11132231212,melentÿe,16.3669278,48.1762137,Quellenstraße,116,Wien,1100,cafe,
11132231213,Hanim Aga,16.3670671,48.1771817,Pernerstorfergasse,76,Wien,1100,cafe,
11132231215,Homolje Grill,16.3653496,48.1754528,Neilreichgasse,30,Wien,1100,fast_food,
11132231216,Il pendolino,16.3651985,48.1773232,Karmarschgasse,29,Wien,1100,fast_food,
11132231222,Okay,16.3648755,48.1773535,Karmarschgasse,29,Wien,1100,fast_food,
11132231223,Koo Popa,16.3646427,48.177723,Karmarschgasse,28,Wien,1100,restaurant,
11132231228,lokmachus,16.3669897,48.1766177,Eckertgasse,21,Wien,1100,cafe,
11219832979,Steinhart,16.3728851,48.1825609,Elisabeth-Sundt-Platz,2,Wien,1100,restaurant,
11229612878,Kaffeesatz,16.3857617,48.1788012,Bloch-Bauer-Promenade,24,Wien,1100,cafe,"We,Fr,Sa 08:00-17:00; Th 08:00-21:00; Su 08:00-14:00; Mo,Tu off"
11326698745,Lucky Noodles,16.3767428,48.17697,Viktor-Adler-Markt,M,Wien,1100,fast_food,"Mo-Sa 09:00-21:00; Su,PH off"
11326698748,Aura,16.3762833,48.1769882,Viktor-Adler-Markt,M,Wien,1100,fish,
11326698750,Al Orabi Restaurant,16.3760984,48.1767006,Viktor-Adler-Markt,M,Wien,1100,fast_food,
11326698754,Falafel,16.376316,48.1769256,Viktor-Adler-Markt,M,Wien,1100,fast_food,08:00-20:00
11326698755,Almiedan,16.3763165,48.1768765,Viktor-Adler-Markt,M,Wien,1100,fast_food,
11326698758,Geflügel-Imbiss,16.3765758,48.1767155,Viktor-Adler-Markt,M,Wien,1100,fast_food,
11326698759,Lilly's Cafe,16.3765729,48.1766742,Viktor-Adler-Markt,M,Wien,1100,cafe,
11326698761,Orient Tandoor Brot,16.3769629,48.1764946,Viktor-Adler-Markt,M,Wien,1100,fast_food,
11327575765,Köfteci,16.3764973,48.1756385,Quellenstraße,68-70,Wien,1100,fast_food,
11327602770,Viyana Pastanesi,16.3765274,48.1757874,Leibnizgasse,7,Wien,1100,pasta,
11331284208,Sun Kebab,16.3762456,48.1767635,Viktor-Adler-Markt,M,Wien,1100,fast_food,
11331414849,komagene,16.3757084,48.1757456,Senefeldergasse,17,Wien,1100,fast_food,Mo-Sa 11:00-23:00; Su 12:00-23:00
11331414851,Jägermeisterin,16.3756958,48.1756885,Senefeldergasse,19,Wien,1100,pub,
11360364051,Hans im Glück,16.3785772,48.1867071,Am Belvedere,10,Wien,1100,burger,Mo-Su 11:00-23:00
11377272247,Duran,16.3771021,48.1764891,Viktor-Adler-Markt,M,Wien,1100,fast_food,Sa 08:00-14:00; Mo 08:00-16:00; Tu-Fr 08:00-18:00
11377272248,China Man,16.3769664,48.1767675,Viktor-Adler-Markt,M,Wien,1100,fast_food,Mo-Sa 10:00-21:00
11377288285,Vesna Imbiss,16.3766861,48.1767102,Viktor-Adler-Markt,M,Wien,1100,fast_food,
11377288289,Prokes,16.3763189,48.1765131,Viktor-Adler-Markt,M,Wien,1100,cafe,
11377318405,Rudy's Imbiss,16.3769313,48.1769057,Viktor-Adler-Markt,M,Wien,1100,pub,
11377338986,IO Caffe Espresso Ten,16.3766792,48.1765087,Viktor-Adler-Markt,M,Wien,1100,cafe,
11383557167,Old bridge Imbiss,16.3762959,48.1766809,Viktor-Adler-Markt,M,Wien,1100,bar,
11444865232,Lederhosn Stadl Bar,16.3829382,48.1414791,Remystraße,27,Wien,1100,bar,Th 20:00-02:00; Fr-Sa 22:00-05:00
11469000597,Billa Marktküche,16.3754062,48.1819942,Columbusplatz,7-8,Wien,1100,fast_food,Mo-Sa 07:40-16:00
11491631478,Pizzanista,16.3913213,48.1659105,Urselbrunnengasse,46,Wien,1100,pizza,Fr 15:00-22:00; Sa-Th 11:00-22:00
11546973761,Közde Döner,16.3765034,48.1779318,Favoritenstraße,110,Wien,1100,turkish;kebab,Mo-Su 11:00-22:00;
11700863533,Cyclist,16.382753,48.1848952,Arsenalstraße,8,Wien,1100,cafe,Mo-So 08:00-17:00
11700863534,4 Oh! 4,16.3817379,48.1852121,Canettistraße,5,Wien,1100,food_court,Mo-Fr 07:30-15:30
11833268403,Admiral Sportsbar,16.376039,48.1859712,Wiedner Gürtel,13,Wien,1100,bar,Mo-Su 08:00-00:00
11833268408,ÖBB Lounge,16.3771746,48.1857651,Gertrude-Fröhlich-Sandner-Straße,4,Wien,1100,cafe,"Mo-Su,PH 06:00-23:30"
11958915471,A central Shop & Cafe,16.3829203,48.1821051,Bloch-Bauer-Promenade,4,Wien,1100,cafe,Mo-Sa 09:30-21:00
12160473201,Kenny's,16.3495769,48.1667522,Gödelgasse,3,Wien,1100,fast_food,Mo-Fr 11:00-18:00; Su 12:00-17:00
12306873833,Sofram,16.3755596,48.1779174,Senefeldergasse,2,Wien,1100,restaurant,
12306885253,Ti'ana,16.3814329,48.177589,Waldgasse,2,Wien,1100,fast_food,
12326788301,Vita Napoletana Pizzabar,16.3457918,48.1679203,Twin Tower,,Wien,1100,italian_pizza;pizza,Mo-Sa 11:00-22:00
12424513505,Smash King,16.376466,48.1769858,Viktor-Adler-Markt,M,Wien,1100,fast_food,"Mo-Sa 11:30-23:00; Su,PH 11:30-21:00"
12469905611,Bek,16.391985,48.1735336,Quellenstraße,12,Wien,1100,italian,Mo-Sa 11:00-00:45; Su 11:00-22:45
12669890212,Baba Kebab,16.3773405,48.1768989,Erlachgasse,89,Wien,1100,kebab;turkish,Mo-Su 10:00-23:00
12754311201,TheRoast,16.3457342,48.16824,Twin Tower,,Wien,1100,bar,Mo-Fr 08:00-22:00
27711412,Das Chadim,16.3487658,48.1577495,Friedrich-Adler-Weg,5,Wien,1100,regional,"""Öffnungszeiten variieren nach Buchungslage"""
28277480,Eitljörg,16.4061947,48.1514265,Kur-und Erholungspark Laaer Berg,P,Wien,1100,restaurant,
28974655,McDonald's,16.345889,48.1652955,Triester Straße,70,Wien,1100,fast_food,06:00-02:00
29775109,McDonald's,16.3869206,48.1593078,Ludwig-von-Höhnel-Gasse,15,Wien,1100,fast_food,
81389869,Alxingers Biergarten,16.3679757,48.177586,Erlachgasse,119,Wien,1100,biergarten,
93990211,Burger King,16.384495,48.1598534,Ludwig-von-Höhnel-Gasse,4,Wien,1100,fast_food,Fr 09:00-03:00;Mo-Th 09:00-01:00;Sa 10:00-03:00;Su 10:00-01:00
124485854,Kurkonditorei Oberlaa,16.4029421,48.1427676,Kurbadstraße,12,Wien,1100,cafe,Mo-Su 08:00-19:00
166120023,Amela Grill,16.3725445,48.1717597,Laxenburger Straße,95,Wien,1100,pub,Mo-Sa 09:00-02:00; Su 10:00-02:00
166220706,Big Ben,16.3732458,48.1739183,Rotenhofgasse,21,Wien,1100,bar,Mo-We 16:00-00:00; Th 16:00-02:00; Fr-Sa 16:00-04:00
173157906,Wok go,16.3708293,48.1689382,Troststraße,vor 45,Wien,1100,fast_food,
178145436,Meixner's Gastwirtschaft,16.3802621,48.1747549,Herndlgasse,23,Wien,1100,regional,"Mo-Fr 11:30-15:00,17:30-22:30; Sa-Su,PH off"
182331416,Mensa 4 You,16.3736764,48.1669168,Ettenreichgasse,vor 45A,Wien,1100,fast_food,Mo-Fr 07:00-20:00; Sa 08:30-19:00
194914670,Racketsport Academy Grill House,16.3887454,48.1757023,Laimäckergasse,1A,Wien,1100,restaurant,
296394467,Don Alfredo,16.3982022,48.1495711,Filmteichstraße,1,Wien,1100,restaurant,"Mo-Su,PH 11:00-23:00"
306278949,Gasthaus zum Heimkehrer,16.405584,48.1567045,Heimkehrergasse,36,Wien,1100,regional,"Su 11:00-16:00; Mo,Tu off; We,Th 11:00-16:00; Fr,Sa 11:00-22:00"
316421079,Asia Restaurant zum Liesingbach,16.4136797,48.1350592,Unter-Laaer Straße,28,Wien,1100,asian,Mo-Su 11:30-23:30
350061219,Hasan Efendi's Gemüse Kebab,16.3785653,48.1729819,Favoritenstraße,132,Wien,1100,fast_food,
352619152,Dürüm,16.37749,48.1754349,Quellenstraße,66,Wien,1100,fast_food,
355125514,Zum Werkelmann,16.3987115,48.1677743,Laaer Wald,218,Wien,1100,regional,
355127928,Schlemmertreff Tivoli,16.3999549,48.1668339,Laaer Wald,30B,Wien,1100,fast_food,
372026596,Starbucks,16.3764194,48.1855796,Wiedner Gürtel,13,Wien,1100,cafe,"Mo-Fr 06:00-21:00; Sa,Su 07:00-20:00; PH 08:30-18:30"
372964463,RAMEN&CO,16.3764457,48.1856628,Wiedner Gürtel,13,Wien,1100,restaurant,
378573595,Schnell,16.3769318,48.1754342,Quellenstraße,68-70,Wien,1100,fast_food,
382425892,Checkpoint 10/12,16.3377597,48.1708563,Wienerbergstraße,27B,Wien,1100,fast_food,
382953069,Chris Würstelstand,16.354575,48.1759948,Kundratstraße,gegenüber 6,Wien,1100,fast_food,
395972320,Burger King,16.3772095,48.1855832,Gertrude-Fröhlich-Sandner-Straße,4,Wien,1100,fast_food,Mo-Su 09:00-23:00
395972321,Chutney,16.3772944,48.1854901,Gertrude-Fröhlich-Sandner-Straße,4,Wien,1100,fast_food,Mo-Su 09:00-23:00
395972323,Som Kitchen,16.3769497,48.1855178,Gertrude-Fröhlich-Sandner-Straße,4,Wien,1100,fast_food,Mo-Su 08:00-23:00
395972324,Nordsee,16.3770676,48.1855068,Gertrude-Fröhlich-Sandner-Straße,4,Wien,1100,fast_food,Mo-Su 11:00-20:30
395972329,Türkis,16.3774048,48.185474,Gertrude-Fröhlich-Sandner-Straße,4,Wien,1100,fast_food,Mo-Su 08:00-24:00
396018147,Anker,16.3768977,48.1857755,Gertrude-Fröhlich-Sandner-Straße,4,Wien,1100,cafe,Mo-Su 05:00-22:00
396018148,Asia Food,16.3775314,48.1856857,Gertrude-Fröhlich-Sandner-Straße,4,Wien,1100,fast_food,
396018152,Wienerwald,16.377405,48.185769,Gertrude-Fröhlich-Sandner-Straße,4,Wien,1100,fast_food,Mo-Su 09:00-24:00
396018153,Würstelboutique,16.3773394,48.1857764,Gertrude-Fröhlich-Sandner-Straße,4,Wien,1100,fast_food,Mo-Su 09:00-23:00
396033541,L'Osteria,16.3751286,48.1855687,Unterfahrung Südtiroler Platz,,Wien,1040,italian,Mo-Sa 11:00-24:00; Su 12:00-24:00
396033542,McDonald's,16.3751746,48.1852757,Sonnwendgasse,1,Wien,1100,fast_food,Mo-Sa 06:00-24:00; Su 07:00-24:00
396042595,Akakiko,16.3769414,48.1849191,Gertrude-Fröhlich-Sandner-Straße,8,Wien,1100,fast_food,09:00-21:00
396140328,Asiagourmet,16.3763,48.1855897,Wiedner Gürtel,13,Wien,1100,asian,Mo-Su 09:00-23:00
396140343,Burger Bros.,16.3764118,48.1857219,Wiedner Gürtel,13,Wien,1100,fast_food,Mo-Su 09:00-21:00
396140353,Leberkas Pepi,16.376095,48.1856481,Wiedner Gürtel,13,Wien,1100,fast_food,09:00-22:00
396140361,Bali Bowls,16.3764155,48.1855465,Wiedner Gürtel,13,Wien,1100,fast_food,
396140392,Subway,16.3761967,48.1856048,Wiedner Gürtel,13,Wien,1100,fast_food,Mo-Su 09:00-23:00
396144845,McDonald's,16.3745734,48.1861114,STBHST. Südtiroler Platz,,Wien,1040,fast_food,"Mo-Su 00:00-00:30,05:30-24:00"
396144847,McCafé,16.3745734,48.1861114,STBHST. Südtiroler Platz,,Wien,1040,cafe,Mo-Su 05:30-22:00
481600461,Sportkantine Deniz Bank Arena,16.3673512,48.1593966,Laxenburger Straße,159-187,Wien,1100,pub,
561902848,Guggi's Beisl,16.3597219,48.1757671,Anna-Boschek-Hof,,Wien,1100,pub,
613866776,Riedl's Süße Tram,16.4005926,48.1659846,Laaer Wald,26,Wien,1100,fast_food,
765730230,"Alles Walzer, alles Wurst!",16.3730694,48.1758046,Quellenplatz,vor 8,Wien,1100,fast_food,
785567204,Mr. Schnitzel und Burger,16.3584482,48.1550901,Neilreichgasse,124,Wien,1100,fast_food,"Mo-Su,PH 11:00-21:00"
819869624,Anningerblick,16.3763931,48.1616215,Dr.-Eberle-Gasse,3,Wien,1100,restaurant,
976160338,Hot Dog Imbis,16.3763411,48.1789352,Keplerplatz,11,Wien,1100,fast_food,Mo-Fr 14:30-20:00
991657114,Coşkun Imbiss Oberlaa,16.4031348,48.1423217,Kurbadstraße,,Wien,1100,fast_food,Mo-Su 08:00-18:00
1180467525,Pandane,16.3827335,48.1540273,Alaudagasse,,Wien,1100,fast_food,
1180629586,Pizzeria 2000,16.382021,48.1435905,Oberlaaer Straße,222,Wien,1100,pizza,Mo-So 11:00-23:00
1180649403,Emin's Imbiss,16.3490431,48.1539183,Otto-Probst-Platz,2,Wien,1100,fast_food,"Mo-Fr 09:00-21:00; Sa,Su 10:00-21:00"
1208506345,Kurparkdiele,16.3989267,48.1511321,Oppenheimgasse,47,Wien,1100,fast_food,
1273975716,Trześniewski,16.3762782,48.1858845,Wiedner Gürtel,13,Wien,1100,fast_food,Mo-Sa 07:00-22:00; Su 08:00-22:00
1294762187,OneTwoEat,16.3766976,48.1858994,Wiedner Gürtel,13,Wien,1100,restaurant,Mo-Fr 11:00-13:30
