id,name,lat,long,addr:street,addr:housenumber,addr:city,addr:postcode,cuisine_or_amenity,opening_hours
260990967,Gasthaus Genuss,16.2832355,48.1974403,Hütteldorfer Straße,200,Wien,1140,restaurant,
288089459,Ju Xin Yuan,16.2129136,48.2088856,Josef-Palme-Platz,1,Wien,1140,chinese,
370523406,Kleines Schutzhaus Rosental,16.2698219,48.2103389,KLG Rosental,,Wien,1140,restaurant,08:00-18:00
452658942,Megiddo,16.3100744,48.2018145,Kuefsteingasse,40,Wien,1140,pub,
511103618,Würsteleck,16.2590111,48.1983047,Brudermanngasse,neben 16,Wien,1140,fast_food,Mo-Fr 11:00-21:00
512456917,Francesco,16.2569054,48.2018297,Linzer Straße,415,Wien,1140,italian,Mo-Su 11:30-23:00
541587670,Mon Ami,16.3117574,48.1967552,Märzstraße,132,Wien,1140,restaurant,"Mo-Sa 06:00-02:00, PH,Su 08:00-02:00"
560858180,Sunny,16.3169494,48.1992246,Hütteldorfer Straße,82,Wien,1140,asian,
568494734,Poky's Cafe,16.2554195,48.2027132,Linzer Straße,428,Wien,1140,cafe,Mo-Fr 09:00-19:00; Sa 10:00-15:00
623005426,L421,16.2553347,48.2022679,Linzer Straße,421,Wien,1140,asian,"Tu-Su 11:30-14:30,17:30-23:00"
672462987,McDonald's,16.3037126,48.1883539,Hadikgasse,62,Wien,1140,fast_food,"Tu,We 06:30-24:00; Mo 06:30-24:00; Th,Fr 06:30-01:00; Sa 08:00-01:00; Su 08:00-24:00"
719147734,Rise,16.3146582,48.1991625,Hütteldorfer Straße,90,Wien,1140,asian,Mo-Su 11:30-22:00
813542571,Futterboden,16.3131955,48.1936879,Flachgasse,5,Wien,1140,viennese;mediterranean,Mo-Su 11:00-20:00
1033377457,Pizzeria La Strada,16.302275,48.1982997,Leyserstraße,1,Wien,1140,mediterranean,"Tu-Su,PH 11:30-22:00"
1100703281,Das Hütteldorfer,16.2650736,48.2006615,Linzer Straße,361,Wien,1140,regional,Mo-Sa 10:00-24:00; Su 11:00-23:00
1236956603,Rabennest,16.2154995,48.2096949,Hauptstraße,108,Wien,1140,heuriger,"""Nur bei Reservierung geöffnet"""
1246877416,Napolitana,16.3059824,48.1951371,Missindorfstraße,13,Wien,1140,italian,Mo 16:00-23:00; Tu-Su 11:00-23:00
1546312206,Yume+,16.2571185,48.201433,Stockhammerngasse,32,Wien,1140,japanese,Mo-Su 11:30-23:00
1582698636,Würstelstand,16.3115154,48.1957771,Goldschlagstraße,137,Wien,1140,fast_food,
1582938697,Restaurant Sargfabrik,16.3046408,48.1952213,Goldschlagstraße,169,Wien,1140,international,"Mo, Fr 09:00-22:00"
1590144633,Biergartl,16.3073467,48.202352,Breitenseer Straße,54,Wien,1140,pub,Mo-Su 11:00-23:00
1590146558,Goldener Panda,16.3066173,48.2020222,Breitenseer Straße,37,Wien,1140,chinese,"Tu-Su 11:30-15:00,17:30-22:30"
1590153702,Anna & Jagetsberger,16.309278,48.2014108,Laurentiusplatz,3,Wien,1140,restaurant,"Mo-We 11:00-17:00; Th,Fr 11:00-22:00"
1737484242,Müldür Restaurant,16.297826,48.1976384,Hütteldorfer Straße,130C,Wien,1140,turkish,
1898386808,Hotel-Restaurant Fritz Matauschek,16.3117494,48.2000029,Breitenseer Straße,14,Wien,1140,restaurant,
1984757479,Baristarie,16.2581427,48.2015082,Linzer Straße,403,Wien,1140,cafe,"Fr,Sa"
2040313938,Yume,16.2571349,48.2016218,Stockhammerngasse,34,Wien,1140,japanese,Mo-Su 11:00-23:00
2054759016,The Twinspub,16.2792505,48.1975989,Kefergasse,35,Wien,1140,pub,Mo-Su 16:00-02:00
2076221292,Retsina,16.2866812,48.1944879,Linzer Straße,237A,Wien,1140,greek,Mo-Su 10:30-23:30
2076299367,Odysseus,16.3054452,48.1897471,Diesterweggasse,17,Wien,1140,greek,"Mo-Su,PH 11:30-23:00"
2076303268,Reigen,16.3036169,48.1884103,Hadikgasse,62,Wien,1140,cafe,Tu-Sa 18:00-24:00
2088379467,Casa Mia,16.2858091,48.1938657,Baumgartenstraße,12,Wien,1140,pizza,Mo-Su 11:00-23:00
2088379468,Zum Stefan,16.2928309,48.1915317,Schimonhof,,Wien,1140,regional,"Mo-Su,PH 11:00-23:00"
2096210283,Der 49er,16.2559552,48.2032694,Bujattigasse,4,Wien,1140,fast_food,Tu-Fr 11:00-22:00
2096210307,Stammbeisl,16.2847797,48.1969687,Hütteldorfer Straße,257E,Wien,1140,restaurant,"Mo-Fr 10:00-19:30; Sa,Su 09:00-15:30"
2111217142,Café Corner,16.2670897,48.1968633,Keißlergasse,4,Wien,1140,cafe,
2111217148,Da Chacora,16.2659131,48.1943794,Hackinger Straße,61,Wien,1140,pizza,
2111217159,Stüberl zum Weststadion,16.2676593,48.1970517,Deutschordenstraße,16,Wien,1140,regional,
2144683042,Gasthaus Flötzersteig,16.2864417,48.2053747,Flötzersteig,115,Wien,1140,balkan;regional,Tu-Su 09:00-21:00
2231733068,McDonald's,16.2199474,48.2075434,Albert-Schweitzer-Gasse,5,Wien,1140,fast_food,"Mo-Th,Sa 08:00-21:00; Fr 08:00-22:00; Su 11:00-21:00; PH off"
2417989940,Pizzeria Rafaello,16.2457162,48.2035718,Linzer Straße,474-478,Wien,1140,burger;italian;pizza;regional,"Mo-Su,PH 11:00-22:30"
2425800992,Bebop,16.3063391,48.2020635,Breitenseer Straße,39,Wien,1140,international,Mo-Sa 17:00-23:00; Su 10:00-22:00
2426998324,Bier Keissler,16.2616419,48.1982016,Keißlergasse,18,Wien,1140,cafe,Mo-Fr 13:00-22:00
2459522171,Restaurant Europahaus,16.2524635,48.2037435,Linzer Straße,429A,Wien,1140,restaurant,Mo-Fr 09:00-00:00; Sa 09:00-17:00
2643323010,Pizza Angelo,16.2123675,48.2092253,Alois-Czedik-Gasse,1,Wien,1140,pizza,
2657012623,La Sicilia,16.3106596,48.2023241,Kienmayergasse,58,Wien,1140,italian,Mo off; Tu-Sa 17:00-23:00; Su 12:00-20:00
2701086843,Stags Head,16.2645047,48.1971497,Keißlergasse,3A,Wien,1140,burger,Mo-Th 10:00-24:00; Fr 10:00-01:00; Sa 14:00-01:00
2824219144,Bio-Meisel Kulturwirtshaus,16.311055,48.1983372,Meiselstraße,64,Wien,1140,regional,"Mo-Th 11:00-22:30; Fr-Sa 11:00-24:00; Su,PH off"
2955751386,Schutzhaus Am Ameisbach,16.2940146,48.2012785,Braillegasse,3,Wien,1140,biergarten,
3074878751,Weinschenke im Fuhrmannhaus,16.2607728,48.2019556,Linzer Straße,406,Wien,1140,heuriger,We-Su 14:00-22:00
3216583087,Pizzeria Cavallo,16.2899006,48.1948323,Gusenleithnergasse,1,Wien,1140,pizza,Tu-Su 11:00-23:00
3218138914,Cafe Macchiato,16.2915181,48.1946806,Moßbachergasse,1,Wien,1140,cafe,
3280700262,Gelateria Fronza Italia,16.3036577,48.1981959,Hütteldorfer Straße,157,Wien,1140,ice_cream,
3280700263,Kenks,16.3012483,48.1983389,Tiefendorfergasse,1,Wien,1140,restaurant,Tu-Fr 11:30-23:00; Sa 09:00-23:00; Su 09:00-22:00
3384993992,Kent,16.3122784,48.1989223,Hütteldorfer Straße,117,Wien,1140,turkish,"PH,Mo-Su 10:00-19:00"
3419958321,Milano,16.2996129,48.1922181,Cumberlandstraße,52,Wien,1140,italian;burger;pizza,11:00-22:00
3495918503,Per Sempre,16.2636253,48.1998731,Bahnhofstraße,3,Wien,1140,italian,Mo-Su 09:30-23:00
3612389781,Don Corleone,16.2937496,48.197034,Hütteldorfer Straße,215,Wien,1140,pizza;burger;italian,
3647824775,Klimt Restaurant,16.2883586,48.1958281,Hernstorferstraße,12,Wien,1140,"regional,croatian",
3650798633,Hütteldorfer Geflügel & Fisch,16.3006738,48.1977381,Hütteldorfer Straße,179,Wien,1140,fast_food,
3734218983,Velobis,16.3162128,48.1925938,Linzer Straße,2,Wien,1140,restaurant,"Tu-Fr 17:00-24:00; Sa, Su 9:00-15:00; PH off"
3956022787,Würstelstand,16.3165075,48.1991787,Hütteldorfer Straße,neben 84-86,Wien,1140,fast_food,
4030881336,AKAZ Sushi,16.2971773,48.1975724,Hütteldorfer Straße,130D,Wien,1140,asian,Mo-Sa 11:30-23:00
4102143557,Wiener Grill Haus,16.307894,48.1881414,Hadikgasse,40,Wien,1140,barbecue;fish;chicken;regional,Mo-Su 11:00-22:00
4212960596,La Gioia Patisserie,16.2586073,48.2019539,Linzer Straße,414A,Wien,1140,cafe,
4402328990,Nar,16.3122698,48.1991299,Hütteldorfer Straße,102,Wien,1140,cafe,
4497899837,Tian - Nudeln & Sushi,16.2845363,48.1970009,Hütteldorfer Straße,259,Wien,1140,fast_food,Mo-Su 11:00-22:00
4728087270,Türkis,16.2610615,48.19695,U-Bahn Station Hütteldorf,,Wien,1140,fast_food,Mo-Su 8:00-24:00
4751276998,Qulpake Express,16.2609813,48.1976841,Keißlergasse,5,Wien,1140,fast_food,
4947003423,Chalet Moeller,16.2582661,48.2310656,Amundsenstraße,5,Wien,1140,restaurant,
5137105062,noomi café deli,16.2793592,48.1975817,Kefergasse,35,Wien,1140,cafe,Mo-Th 07:00-22:00; Fr 07:00-23:00; Sa 08:00-23:00; Su 10:00-22:00
5251083836,Feine Sichuan Küche,16.2935628,48.1970245,Hütteldorfer Straße,215,Wien,1140,chinese,"Tu-Su 11:00-14:30,17:30-22:30"
5316235769,Admiral Sportwetten,16.3163759,48.1991775,Hütteldorfer Straße,neben 84-86,Wien,1140,cafe,
5318937068,Stüberl 52,16.3136238,48.1981666,Hustergasse,12,Wien,1140,pub,
5336479380,Caffetteria Barista,16.3015103,48.1978767,Hütteldorfer Straße,171,Wien,1140,cafe,
5336479381,VIP Imbiss,16.3016675,48.1978971,Hütteldorfer Straße,169,Wien,1140,fast_food,
5336479390,Schnitz'l Land,16.3088794,48.1991273,Hütteldorfer Straße,118,Wien,1140,fast_food,"PH,Mo-Su 11:00-22:00"
5359283737,Zum Breitenseer,16.3112743,48.2002785,Draskovichgasse,2,Wien,1140,regional,"PH,Mo-Su 09:00-20:00"
5364762601,Mario,16.2878604,48.1948644,Hernstorferstraße,2,Wien,1140,cafe,
5364762607,Latak Geflügelimbiss,16.3111219,48.1934814,Linzer Straße,42,Wien,1140,fast_food,Mo-Sa 08:00-22:00
5382829764,Imbiss Belo,16.3126191,48.1956281,Goldschlagstraße,132,Wien,1140,pub,Mo-Fr 10:00-22:00; Sa 10:00-17:00+
5390211810,Espresso Kultur,16.2593894,48.2019393,Linzer Straße,412,Wien,1140,cafe,
5403263172,San,16.316222,48.2001376,Matthias-Schönerer-Gasse,7,Wien,1140,pizza;grill,
5624228659,Café Cindy,16.3023819,48.1976218,Ameisgasse,50,Wien,1140,cafe,
5873031175,Linzer Geflügel & Fisch Imbiss,16.280964,48.1954873,Linzer Straße,271,Wien,1140,fast_food,"Mo-Fr 08:00-20:00, Su 9:00-20:00, Sa closed"
5873085399,Edis Weinkeller,16.3083887,48.1934707,Trogergasse,6,Wien,1140,regional,Jan-Dec Mo-Fr 11:30-23:00; Oct-Dec Sa 15:00-23:00
5874073984,Linzer Stüberl,16.2985382,48.1939061,Linzer Straße,153,Wien,1140,cafe,
5874097586,Cafe Cubita,16.2977497,48.1945551,Blathof,,Wien,1140,cafe,Mo-Fr 10:00-23:00; Sa 16:00-23:00; PH 16:00-23:00
5874097591,Pharo's Café-Pub,16.2859768,48.1943749,Zehetnergasse,17,Wien,1140,pub,Mo-Fr 09:00-24:00
5874097592,Pizzeria Dell'Amore,16.2642248,48.2009753,Linzer Straße,369,Wien,1140,italian,
6017249248,Vision,16.3062978,48.193901,Missindorfstraße,1,Wien,1140,restaurant,"Mo-Fr 07:00-24:00;Sa 16:00-24:00;Su,PH off"
6090024206,Semendria,16.3133436,48.1998384,Poschgasse,8,Wien,1140,serbian,Mo-Sa 09:00-18:00
6194518438,Voodoo Burger,16.2885082,48.196672,Hernstorferstraße,20,Wien,1140,fast_food,Mo-Su 11:00-22:00
6194518439,Dino,16.290713,48.1971172,Hütteldorfer Straße,164,Wien,1140,italian,"Mo-Su,PH 11:00-23:00"
6453836302,Matuya,16.2163147,48.2081543,Albert-Schweitzer-Gasse,6,Wien,1140,japanese,Mo-Su 11:00-21:30
6616671285,Gasthaus Dragan,16.3106644,48.1968453,Märzstraße,138,Wien,1140,regional,
6672712833,Crima,16.2807861,48.1954902,Linzer Straße,271,Wien,1140,bar,
6832415759,Bistro Trailcenter,16.2023162,48.2294815,Mauerbachstraße,174-184,Wien,1140,cafe,
7380240010,Pizzeria Da Corrado,16.3043904,48.1939154,Linzer Straße,86,Wien,1140,italian;pizza;regional;burger,Mo-Su 11:00-23:00
7515403557,Emma Gelateria,16.2947518,48.1971176,Hütteldorfer Straße,211,Wien,1140,ice_cream,Mo-Su 09:30-22:00
7515593598,Das Lindbergh,16.295175,48.1941961,Linzer Straße,179,Wien,1140,regional,Tu-Sa 11:30-22:00; PH 11:30-17:00
7533177894,Pizzaflitzer,16.3055701,48.1966321,Märzstraße,151,Wien,1140,pizza,Tu-Sa 11:00-22:30; Su 12:00-22:30
7559459124,Tuchlauben,16.3037744,48.1878352,U-Bahn Station Hietzing,U,Wien,1130,ice_cream,
7762633963,Pizzeria Ristorante San Stefano,16.2990915,48.1898912,Ameisgasse,7,Wien,1140,pizza;italian,
7792720511,Cafe 7- Stairs,16.3051529,48.1883077,Diesterweggasse,2,Wien,1140,cafe,Tu 11:30-21:30; We-Su 11:30-23:45
7807238190,Daily Spice,16.314727,48.1926621,Linzer Straße,47A,Wien,1140,indian,Mo-Su 11:00-22:00
8360708370,Weinvierterl,16.3043704,48.1980216,Matznergasse,42,Wien,1140,heuriger,"Mo-Fr 15:00-23:00; Sa-Su,PH 16:00-23:00"
8360708371,Café Kadett,16.304651,48.1982239,Hütteldorfer Straße,151,Wien,1140,restaurant,
8406067893,Pizzeria Carino,16.2788598,48.1976475,Hütteldorfer Straße,303,Wien,1140,pizza;pasta,
9203013507,Le Burger,16.2167016,48.2081908,Albert-Schweitzer-Gasse,6,Wien,1140,burger,Mo-Su 11:00-23:00
9229818518,Uludag Kebaphaus,16.2166458,48.2080762,Albert-Schweitzer-Gasse,6,Wien,1140,fast_food,
9229851238,Kenny's,16.2186661,48.2080829,Albert-Schweitzer-Gasse,6,Wien,1140,fast_food,
9229851248,Gelateria Mondi,16.2174565,48.2082196,Albert-Schweitzer-Gasse,6,Wien,1140,ice_cream,"Mo-Sa 08:00-21:00; PH,Su 12:00-20:00"
9229851251,Tauber,16.2180331,48.2082438,Albert-Schweitzer-Gasse,6,Wien,1140,fast_food,
9229851258,Zushi Market Plus,16.2187104,48.2083743,Albert-Schweitzer-Gasse,6,Wien,1140,fast_food,
9229906593,o'mellis,16.2189069,48.2082111,Albert-Schweitzer-Gasse,6,Wien,1140,bar,Mo-Fr 09:00-20:00; Sa 09:00-18:00
9229906594,Radatz,16.218925,48.2080275,Albert-Schweitzer-Gasse,6,Wien,1140,fast_food,Mo-Fr 09:00-19:00; Sa 09:00-18:00
9229906602,Salon Albert,16.2195392,48.2078264,Albert-Schweitzer-Gasse,6,Wien,1140,restaurant,Mo-Sa 11:00-21:00
9229906608,Yu's Wok,16.2201507,48.2080168,Albert-Schweitzer-Gasse,5,Wien,1140,asian,"Mo-Su,PH 11:00-22:00"
9230031199,Trzesniewski,16.2194185,48.2080132,Albert-Schweitzer-Gasse,6,Wien,1140,fast_food,Mo-Fr 09:00-20:00; Sa 09:00-18:00
9230031200,Yuzu,16.2196371,48.207872,Albert-Schweitzer-Gasse,6,Wien,1140,sushi,
9230031201,Marmara,16.2198356,48.2078255,Albert-Schweitzer-Gasse,5,Wien,1140,restaurant,"Mo-Fr 08:30-20:00; Sa 08:30-19:00; Su,PH off"
9230044720,Justus,16.2163668,48.208271,Albert-Schweitzer-Gasse,6,Wien,1140,cafe,Mo-Sa 08:30-21:00; Su 08:30-20:00
9230044725,Il Campanile,16.2169415,48.2081347,Albert-Schweitzer-Gasse,6,Wien,1140,pizza,"Mo-Th 10:00-21:00; Fr,Sa 10:00-22:00; Su,PH off"
9230389690,L'Osteria,16.2168932,48.2085262,Albert-Schweitzer-Gasse,6,Wien,1140,italian,"Mo-We 11:00-23:00; Th-Sa 11:00-24:00; Su,PH 11:00-23:00"
9266832262,Da Salvatore,16.2936432,48.1914742,Weinzierlgasse,13,Wien,1140,pizza,"""vorübergehend geschlossen"""
9389444862,Donna Rosa,16.3055763,48.1911968,Diesterweggasse,29,Wien,1140,italian,Mo-Sa 10:00-22:00
9815312673,Jin's 1140,16.30861,48.1988648,Hütteldorfer Straße,137,Wien,1140,chinese,derzeit geschlossen
9822388495,Belly's Bistro,16.3108992,48.1981378,Gurkgasse,53,Wien,1140,cafe,"Tu-Fr 12:00-14:00, 18:00-22:00; Sa 10:00-14:00, 18:00-22:00"
9846561392,Kleines Cafe,16.3101475,48.1936031,Gurkgasse,15,Wien,1140,cafe,
9860710165,Reinl Stüberl,16.3116162,48.194994,Reinlgasse,13A,Wien,1140,restaurant,
9889398965,APH,16.2843885,48.196991,Hütteldorfer Straße,259,Wien,1140,bar,
9905946812,Galerie Esther Cafe,16.2559864,48.209268,Hüttelbergstraße,26,Wien,1140,cafe,
10013117974,Dukin' Donuts,16.2191121,48.2077839,Albert-Schweitzer-Gasse,6,Wien,1140,fast_food,Mo-Fr 09:00-20:00; Sa 09:00-18:00
10567670364,Colorado,16.3058923,48.2021279,Breitenseer Straße,41,Wien,1140,cafe,
10879408608,C3 Lounge,16.3100624,48.1988771,Hütteldorfer Straße,129,Wien,1140,bar,Mo-Sa 09:00-23:00; Su 11:00-22:00
10911266069,Das Mehlspeis Labor Café,16.3068943,48.2006409,Kendlerstraße,11,Wien,1140,cafe,Mo-Sa 08:00-18:00
10911268501,Café Demi,16.3039621,48.2000084,Spallartgasse,25,Wien,1140,cafe,Tu-Su 08:00-22:00
11071781145,Teeamo,16.2166294,48.2083488,Albert-Schweitzer-Gasse,6,Wien,1140,cafe,
11071781146,Dunkin',16.2169715,48.2082797,Albert-Schweitzer-Gasse,6,Wien,1140,fast_food,
11071786810,Fisch & Co,16.2987616,48.197475,Hütteldorfer Straße,191,Wien,1140,fast_food,
11071786813,Colorado,16.2993743,48.1975413,Hütteldorfer Straße,185,Wien,1140,cafe,
11071786835,Café-Pub Holzi,16.299614,48.1975835,Straßgschwandtnerstraße,5,Wien,1140,cafe,
11085319398,Hüttelbeach/Hüttelpunsch,16.2618221,48.1981782,Keißlergasse,18,Wien,1140,bar,
11133546005,Origami sushi house,16.3036788,48.1973385,Dreyhausenstraße,17,Wien,1140,asian;sushi,Tu-Su 11:00-22:00
11483620252,Kaiser's,16.2165416,48.2085652,Albert-Schweitzer-Gasse,6,Wien,1140,fast_food,
11603168919,Café Außergewöhnlich,16.3041036,48.1887849,Nisselgasse,9,Wien,1140,cafe,
11734459582,Aquila,16.3056519,48.1968505,Missindorfstraße,27,Wien,1140,pizza;italian;burger,"Mo-Th,Sa 11:00-22:30; Su 12:00-22:30; PH 11:00-22:45"
11757924382,Krut,16.3117851,48.200746,Draskovichgasse,6,Wien,1140,cafe,"We-Fr 11:00-14:00, 16:00-20:00"
11810258180,Cafe Kati,16.2819559,48.1975627,Hütteldorfer Straße,208,Wien,1140,cafe,
11865581881,Otto am Berg,16.282946,48.2107067,Baumgartner Höhe,1,Wien,1140,fast_food,Fr-Su 11:30-21:00
11873846797,SCHNIBI-Schnitzel billig,16.3081061,48.1983078,Meiselstraße,75,Wien,1140,restaurant,11:00-21:00
12029835300,Fidelio´s Caffè e Gelato,16.2942639,48.1944306,Lützowhof,,Wien,1140,cafe,Mo-We 09:00-16:30; Th-Sa 09:00-21:30; Su 10:00-15:00; PH off
12077325742,Gaby's Treff,16.2861942,48.1936877,Zehetnergasse,16,Wien,1140,bar,"Mo-Sa 12:00-22:00, Su 15:00-21:00"
12219091179,Isot,16.3179362,48.1992473,Schanzstraße,,Wien,1140,fast_food,
12246027681,Schnitzel - Kebap & Fischhaus,16.3083102,48.2016798,Breitenseer Straße,29,Wien,1140,fast_food,
12757807872,Dönermeister,16.2168508,48.2081845,Albert-Schweitzer-Gasse,6,Wien,1140,fast_food,"Mo-Sa 11:00-21:00; Su,PH 12:00-21:00"
32315676,Medl Bräu,16.2801556,48.1955989,Linzer Straße,275,Wien,1140,international;regional,"Tu-Sa 10:00-24:00, Su-Mo closed"
98747800,Gasthof Reinwald,16.1993052,48.2316976,Sofienalpenstraße,3,Wien,1140,regional,Mo-Fr 09:00-22:00
136322935,Bardolino,16.2141855,48.2097274,Hauptstraße,118,Wien,1140,italian,7:30-23:00
140585046,Peschta,16.262171,48.198206,Bahnhofstraße,26,Wien,1140,regional,Mo-Fr 08:30-24:00
173894802,Großes Schutzhaus Rosental,16.2706075,48.2124084,KLG Rosental,,Wien,1140,restaurant,
179604855,Gasthaus Maria-Brunn,16.2262439,48.2082976,Mauerbachstraße,7,Wien,1140,regional,
182212626,Prilisauer,16.2547476,48.2028301,Linzer Straße,423,Wien,1140,restaurant,Th-Sa 11:00-22:30; Su 11:00-21:00; We 16:00-22:30
182566494,Goldener Baum,16.2794128,48.1999205,Waidhausenstraße,35,Wien,1140,regional,"Mo-Fr 09:00-21:00, Sa-Su 09:00-18:00"
188026849,Tao Garten,16.2777338,48.2060338,Baumgartner Höhe,282,Wien,1140,asian,Tu-Su 11:00-22:00
200964320,Dimitra,16.2216789,48.2142683,Mauerbachstraße,46,Wien,1140,greek,"Mo-Sa 11:30-22:30,Su 11:30-22:00"
207697712,Ochsenkopf,16.247417,48.2229654,Karl-Bekehrty-Straße,60,Wien,1140,regional,Sa-We
211740719,Schutzhaus Laudonwiese,16.2339138,48.2093042,Karl-von-Böhmerle-Gasse,1A,Wien,1140,regional,
223866106,Buffet,16.2227188,48.2087629,Hauptstraße,43A,Wien,1140,cafe,
239692449,Buffet Baumgartner Höhe,16.2720013,48.2052483,Sanatoriumstraße,neben 2,Wien,1140,fast_food,
332002326,La Mama,16.2523515,48.2122941,Hüttelbergstraße,55,Wien,1140,pizza,
357548711,Liberta Kebab,16.2945012,48.1972989,Hütteldorfer Straße,142,Wien,1140,fast_food,Mo-Su 11:00-21:30
621809178,Perelin,16.3107698,48.1934311,Linzer Straße,44,Wien,1140,fast_food,
637748184,Imbiss Hütteldorf,16.2560099,48.2023939,Linzer Straße,426,Wien,1140,fast_food,
638561370,McDonald's,16.27593,48.1929696,Hadikgasse,266,Wien,1140,fast_food,
640221709,Musil,16.2949258,48.2021104,Braillegasse,16,Wien,1140,regional,
645896845,Schutzhaus Am Ameisbach,16.2938889,48.201359,Braillegasse,1D,Wien,1140,restaurant,We-Su 11:00-23:00
646744480,Pizzeria Turtles,16.2945488,48.1987475,Ameisbachzeile,12,Wien,1140,pizza,Tu-Su 11:00-22:30
650941667,BergGasthof,16.2613905,48.2176443,Ulmenstraße,160,Wien,1140,regional,"""vorübergehend geschlossen"""
655036604,Gill's Würstel & Kebap Eck,16.2803767,48.1977025,Hütteldorfer Straße,216A,Wien,1140,fast_food,
1339935018,Hühnerparadies,16.3117395,48.1993525,Hütteldorfer Straße,106,Wien,1140,fast_food,
1339935019,Sushi & more,16.3118248,48.199349,Breitenseer Straße,5,Wien,1140,fast_food,Mo-Sa 11:00-21:00
1339935020,Nar,16.3116893,48.1993087,Hütteldorfer Straße,106A,Wien,1140,fast_food,
