id,name,lat,long,addr:street,addr:housenumber,addr:city,addr:postcode,cuisine_or_amenity,opening_hours
81609136,Magdalenenhof,16.3820546,48.3120862,Senderstraße,127,Wien,1210,restaurant,"easter-Oct 31 Mo-Su,PH 10:00-24:00; Oct 31-easter Mo-Tu off,We-Su,PH 10:00-24:00"
224593914,McDonald's,16.3998239,48.2567922,Bahnhof Floridsdorf,,Wien,1210,fast_food,"Mo-Fr 06:00-01:00, Sa 06:00-02:00, Su 08:00-01:00"
271817593,CapuVino,16.4136588,48.2943332,Jedlersdorfer Straße,315,Wien,1210,italian;regional,Mo-Fr 11:00-22:00
283318282,XXL Brünner Stadl,16.4012023,48.263223,Werndlgasse,1,Wien,1210,regional,"Mo-Sa 11:00-21:00; Su,PH 11:00-18:00"
311875082,Heuriger Bernreiter,16.4076054,48.278984,Amtsstraße,24-26,Wien,1210,regional;heuriger,"Tu-Fr 14:00-22:00; Sa 12:00-22:00; PH,Su 11:00-22:00; Jan,Feb,Mar,May,Jul,Sep,Nov Tu-Su off; Dec 16-31 Tu-Su off"
317080908,Weingut Deutinger,16.3972586,48.304106,Krottenhofgasse,85,Wien,1210,heuriger,
342088232,Schutzhaus Groß-Jedlersdorf,16.4110253,48.2729274,Siemensstraße,30,Wien,1210,restaurant,
342245314,Sissy's Imbiß am Platzl,16.4153363,48.2754722,Scottgasse,3,Wien,1210,restaurant,
342268196,Restaurant Emerich,16.4182076,48.2724443,Ruthnergasse,35,Wien,1210,restaurant,
342370822,Pizzeria Da Contessa,16.4075823,48.2751357,Brünner Straße,121,Wien,1210,pizza,
342372654,s'Zwickl,16.4193594,48.2715519,Siemensstraße,76,Wien,1210,regional,Mo-Fr 09:00-23:00
344483279,Gelati Venti Uno,16.4193064,48.271868,Siemensstraße,73,Wien,1210,ice_cream,Mo-Su 13:00-21:00
344872252,Café Jonas,16.3985512,48.255583,Franz-Jonas-Platz,11,Wien,1210,cafe,Mo-Sa 09:00-24:00;PH Su 09:00-23:00
344929843,MAXX Cafe-Restaurant,16.404629,48.2742908,Jedlersdorfer Straße,94,Wien,1210,cafe,
344930884,Heurigenrestaurant Wild,16.4064123,48.2776131,Amtsstraße,3,Wien,1210,heuriger,Mo-Su 10:00-24:00
344931801,"Eylül Bäckerei, Konditorei & Cafe",16.4075968,48.2769351,Frauenstiftgasse,7,Wien,1210,cafe,
345682057,Lally's Pizza-Service,16.4148481,48.2755334,Siemensstraße,17,Wien,1210,pizza,"Mo,Tu,Th,Fr 10:00-22:00; We off"
347403008,Weingut Gerhard Klager,16.4082457,48.3020468,Stammersdorfer Straße,14,Wien,1210,regional;heuriger,
347403015,Christ 42,16.4110259,48.3016147,Stammersdorfer Straße,44,Wien,1210,regional,
347627120,Call Center / Internet Cafe MENNA,16.4122545,48.2766649,Carrogasse,3,Wien,1210,cafe,
352725976,Ye's Kitchen,16.4062243,48.271605,Shuttleworthstraße,1,Wien,1210,chinese,
352985492,Cafe Klim Bim,16.3987779,48.2569247,Franz-Jonas-Platz,5,Wien,1210,cafe,
353071638,Tchibo,16.4000161,48.2570163,Bahnhof Floridsdorf,,Wien,1210,cafe,Mo-Fr 08:00-18:30; Sa 08:00-17:00
353077280,Wok Asia Restaurant,16.3997161,48.2606832,Weisselgasse,10,Wien,1210,asian,"Mo-Fr 11:00-20:00; Su,PH 12:00-20:00"
353690004,Pizza Bene,16.4063883,48.2718536,Brünner Straße,78,Wien,1210,fast_food,
353700317,Cafe Konditorei Welser,16.4081259,48.2761283,Baumergasse,16,Wien,1210,cafe,
353700894,Kebap König,16.4082903,48.2765259,Frauenstiftgasse,14,Wien,1210,fast_food,
354558151,Gero's Likörstube,16.4079011,48.276327,Baumergasse,16,Wien,1210,pub,
356301383,Treffpunkt Pizza-Kebap Station & Zustellung,16.3986067,48.2588643,Brünner Straße,6-8,Wien,1210,fast_food,"Mo-Sa 08:00-22:00; Su,PH 10:00-22:00"
356311263,Lucky Noodles,16.399425,48.2602121,Angerer Straße,1,Wien,1210,fast_food,"Mo-Su,PH 11:00-22:00"
356313158,Perugini Gelateria Italiana,16.3996669,48.2606036,Weisselgasse,10,Wien,1210,cafe,"Mo-Su,PH 10:30-21:00"
356313837,Likör-Stube,16.4005149,48.2613089,Conrad-Lötsch-Hof,,Wien,1210,pub,Mo-Sa 09:30-14:00
356315925,Ünlü Kebap,16.4006858,48.2630642,Brünner Straße,37,Wien,1210,fast_food,
360183913,Weingut Christ,16.4069617,48.2777331,Baumergasse,31,Wien,1210,heuriger,
360184046,Heuriger Christ,16.4070132,48.2779615,Amtsstraße,10,Wien,1210,heuriger,
360187254,Buschenschank Fam. Karl LENTNER,16.4078457,48.2803035,Amtsstraße,44,Wien,1210,buschenschank,
360192261,Rüka's Eis-Cafe,16.4105729,48.2782663,Brünner Straße,138A,Wien,1210,cafe,"PH,Mo-Su 10:00-20:00"
364439550,Zur Greisslerin,16.4157307,48.2786014,Skraupstraße,24,Wien,1210,cafe,
365947932,Franz Steiner,16.3999874,48.2580998,Pius-Parsch-Platz,11,Wien,1210,cafe,
365947989,Cafe Saus & Braus,16.4000794,48.2582168,Pius-Parsch-Platz,10,Wien,1210,cafe,"Mo-Sa 07:00-21:00; Su,PH 08:00-21:00"
365948633,Madona,16.400887,48.2595543,Schleifgasse,4,Wien,1210,pizza,
365948680,Domino's,16.4005423,48.2595307,Angerer Straße,5B,Wien,1210,fast_food,"Su-Th 11:00-22:00; Fr,Sa 11:00-23:00"
367992124,Schleifstüberl,16.4016743,48.260196,Weisselgasse,19,Wien,1210,restaurant,
367997498,Asia Exotics,16.4007588,48.2618341,Floridsdorfer Markt,,Wien,1210,asian,
367997616,Marktcafe,16.4008275,48.2619521,Floridsdorfer Markt,,Wien,1210,cafe,
368312455,Rojda Imbiss,16.4034136,48.2774501,Mitterhofergasse,2,Wien,1210,fast_food,
368318941,Doy-Doy Kebap & Pizza,16.4082957,48.2764714,Frauenstiftgasse,14,Wien,1210,fast_food,"Mo-Fr 09:00-21:00; Sa 10:00-21:00; Su,PH 11:00-21:00"
370521979,Lottes Weltreise,16.4196831,48.2991775,Dr.-Skala-Straße,1,Wien,1210,restaurant,
370521980,Cafecito,16.4195592,48.299297,Dr.-Skala-Straße,1,Wien,1210,cafe,Mo-Sa 15:00-20:00
370833407,Taj Burger 21,16.4050336,48.2778942,Semmelweisgasse,36,Wien,1210,burger,
380762422,Eva Sweet,16.4016913,48.2610803,Conrad-Lötsch-Hof,,Wien,1210,ice_cream,Mo-Sa 09:00-20:00
380762894,"Cafe Konditorei ""Auf a' Tratscherl""",16.4017758,48.2610406,Conrad-Lötsch-Hof,,Wien,1210,cafe,
380765886,Imbiss Geflügel Nemec,16.4008774,48.2617759,Floridsdorfer Markt,,Wien,1210,fast_food,
380765915,Spaghetteria il mercato,16.4020289,48.2614588,Floridsdorfer Markt,,Wien,1210,italian,Tu-Sa 11:30-22:00
390020832,Heuriger Hannes Reinbacher,16.4201576,48.2993664,Herrenholzgasse,38,Wien,1210,heuriger;regional,"Heutiger, offen wenn ausgesteckt ist"
392032121,Pizzeria La Pronto,16.4024141,48.2607503,Schleifgasse,16,Wien,1210,pizza,
392046634,Restaurant im Bowlingcenter,16.4026322,48.2606043,Pitkagasse,4,Wien,1210,restaurant,
414714707,Cara Mia,16.3925933,48.2669619,Prager Straße,65,Wien,1210,italian;pizza,Mo-Su 11:00-23:00
415627424,Amigo 2,16.4217137,48.2997596,Friedrich-Manhart-Straße,1,Wien,1210,italian;pizza,Mo-Su 11:00-21:45
448748498,s‘Vintschgerl,16.4094718,48.2561384,Mengergasse,36,Wien,1210,local,We-Su 10:00-21:00
479988405,China Restaurant Eukiang,16.4064985,48.255024,Schloßhofer Straße,62,Wien,1210,chinese,"11:30-14:30,17:30-22:30"
496995427,Asia Fern,16.3836857,48.2870724,Prager Straße,274,Wien,1210,asian,
521346501,Wasabi Restaurant,16.4115481,48.2540509,Donaufelder Straße,37,Wien,1210,asian,"Tu-Su, PH 11:00-23:00; Mo off"
672213953,Weinheuriger Falkenberg,16.409055,48.3021694,Stammersdorfer Straße,25,Wien,1210,regional;heuriger,
672213954,Weinhof Reichl,16.4113538,48.3019032,Stammersdorfer Straße,41,Wien,1210,regional;heuriger,
672213955,Zum Stammersdorfer Wichtl,16.4141308,48.3013404,Stammersdorfer Straße,76,Wien,1210,regional,
672213956,Dorfgasthaus Eisenheld,16.4147682,48.3013656,Stammersdorfer Straße,82,Wien,1210,heuriger;regional;austrian,
672213957,Schmidt,16.4180412,48.3004787,Stammersdorfer Straße,105,Wien,1210,regional;heuriger,"""Heuriger, geöffnet wenn ausgesteckt ist"""
672213960,Buschenschank Helm,16.4192701,48.2997278,Stammersdorfer Straße,121,Wien,1210,regional;heuriger,"""Heutiger, offen wenn ausgesteckt ist"""
672213961,Koglbauer,16.4141859,48.3015627,Stammersdorfer Straße,75,Wien,1210,pub,
672213962,Weinhof Sammer,16.4155574,48.3015962,Stammersdorfer Straße,87,Wien,1210,regional;heuriger,
730754885,Radatz,16.4102985,48.2602514,Engelhorngasse,6,Wien,1210,fast_food,
999259356,Buschenschank K&K Fuchs,16.409168,48.2824,Jedlersdorfer Platz,29,Wien,1210,buschenschank,"""Infos unter tel 0699 1730 1416"""
1005962562,Jedlersdorfer Alm,16.4083203,48.2813967,Jedlersdorfer Platz,36,Wien,1210,regional,"Su-Th 11:00-23:00, Fr,Sa 11:00-24:00"
1039767505,Ristorante da Giovanni,16.3884823,48.2941935,Rußbergstraße,78,Wien,1210,restaurant,
1057637970,Weingut & Heuriger Richard LENTNER,16.4088569,48.2828674,Jedlersdorfer Platz,10,Wien,1210,heuriger,"Jan,Mar,May,Jul,Sep,Nov Mo-Sa 12:00-18:00+; Jan,Mar,May,Jul,Sep,Nov Su,PH 09:00-18:00+"
1193427364,Triple Seven,16.3838868,48.288485,Rußbergstraße,9,Wien,1210,pizza,"Mo-Th 11:00-22:00, Fr-Su 11:00-01:00"
1256323512,Genusshütte,16.4007545,48.3108115,Untere Jungenberggasse,250,Wien,1210,regional,Apr-Oct Mo-Su 11:00-24:00; Nov Th-Su 11:00-24:00
1258555051,Weinlaube,16.4015635,48.3104121,Stammersdorfer Kellergasse,130,Wien,1210,pub,
1296271588,Pizza Milano,16.4070967,48.252814,Scheffelstraße,22,Wien,1210,pizza;italian,Mo-Su 11:00-22:00
1298400884,Cafe Helga,16.414121,48.2533489,Donaufelder Straße,65,Wien,1210,cafe,Mo-Fr 08:00-24:00; Sa 08:00-24:00; Su 09:00-24:00
1387363918,Heuriger Wieninger,16.4143174,48.301345,Stammersdorfer Straße,78,Wien,1210,regional;heuriger,
1493386081,La Scala,16.416678,48.2920566,Lazarsfeldgasse,2,Wien,1210,pizza,Mo-Su 08:00-22:00
1712386685,"Wein-, Obstgut und Buschenschank Familie Strauch",16.3846232,48.2985054,Langenzersdorfer Straße,50A,Wien,1210,heuriger,"Mo-Fr 16:00-23:00; Sa,Su,PH 15:00-23:00"
1714758486,Winzerhof Leopold,16.4085769,48.3020187,Dr.-Skala-Straße,120,Wien,1210,buschenschank,
1779333095,Pizzeria Bella Italia,16.3870692,48.269634,Anton-Bosch-Gasse,7,Wien,1210,fast_food,"PH,Mo-Su 11:00-21:45"
1802230465,Cigköftem,16.3971797,48.258125,Sonderadresse 21.Bezirk,S,Wien,1210,fast_food,Mo-Su 11:00-22:00
1802230473,JO's Restaurant & Bar,16.3937934,48.2641861,Prager Straße,39,Wien,1210,restaurant,Mo-Fr 11:00-23:00; Sa 11:00-15:00
1802230474,Cafe Daniela,16.3861673,48.2647446,Anton-Störck-Gasse,48,Wien,1210,cafe,
1802230476,Extravaganza,16.3932209,48.2654846,Prager Straße,51,Wien,1210,cafe,"Mo-Fr 07:00-24:00, Sa,Su,PH 09:00-24:00"
1802230509,Eissalon Benner,16.3938432,48.2640387,Prager Straße,37,Wien,1210,cafe,11:00-21:00
1802230566,Pizza Ria,16.3884502,48.2653036,Helmholtzgasse,21,Wien,1210,pizza,Mo-Su 11:00-22:30
1802230608,Prager,16.3931883,48.2665609,Prager Straße,44,Wien,1210,fast_food,"Mo-Su,PH 10:00-22:00"
1802230619,Wok Bar,16.3895431,48.2658434,Peter-Kaiser-Gasse,20,Wien,1210,asian,Mo 11:00-15:30; Tu-Su 11:00-22:00
1802230856,Segafredo,16.3964886,48.2581272,Am Spitz,13,Wien,1210,cafe,Mo-Fr 07:00-23:00; Sa 09:00-23:00; Su 09:00-22:00
1874547068,Lucky House,16.4514723,48.2717139,Gitlbauergasse,7,Wien,1210,sushi,
1874547069,Gasthaus Janine,16.4516476,48.2702076,Herzmanovsky-Orlando-Gasse,14,Wien,1210,restaurant,
1884703785,Royal Taj Mahal,16.3888328,48.2760639,Prager Straße,126,Wien,1210,italian,
2004973987,Brünner‘s,16.414817,48.2864062,Anton-Schall-Gasse,2,Wien,1210,restaurant,
2010396616,Ebi,16.4105339,48.2603204,Engelhorngasse,6,Wien,1210,japanese,
2048614657,Tom's Torkelkeller,16.4014506,48.3097592,Stammersdorfer Kellergasse,117,Wien,1210,pub,
2139290505,Schabanack,16.4362125,48.2629855,Leopoldauer Platz,90,Wien,1210,restaurant,Tu-Sa 11:00-23:00; Su 11:00-21:00
2154302842,Tybah,16.4002613,48.2802929,Ödenburger Straße,71,Wien,1210,fast_food,
2158088050,Zur Duschl,16.4030385,48.3080894,Stammersdorfer Kellergasse,76,Wien,1210,buschenschank,
2247657921,Akropolis 21,16.3962126,48.2597544,Prager Straße,14,Wien,1210,greek,"Mo-Su 11:30-14:30,17:30-23:00"
2334354199,aida,16.3969673,48.2566329,Floridsdorfer Hauptstraße,42,Wien,1210,cafe,"winter: Mo-Fr 07:00-18:00; Sa 08:00-18:00; summer: Mo-Fr 07:00-17:00; Sa 09:00-17:00; Su,PH off"
2334354201,Akakiko,16.4003153,48.257611,Schloßhofer Straße,11,Wien,1210,japanese,Mo-Su 10:30-23:00
2334354204,Cafe zum ersten Stock,16.4002388,48.2576568,Schloßhofer Straße,11,Wien,1210,cafe,"Mo-Fr 07:30-21:30; Sa 08:30-20:00; Su,PH 10:00-18:00"
2334354205,Liu & Liu,16.398858,48.2577379,Schloßhofer Straße,4,Wien,1210,chinese,
2334368443,Master Pizza Burger,16.3961506,48.2601271,Gerichtsgasse,2,Wien,1210,italian,"Mo-So 10:30-22:45 ""Bestellzeiten"""
2334368444,Tartufo,16.3949639,48.2588647,Frömmlgasse,36,Wien,1210,italian,"Mo-Sa 11:00-15:00,17:00-23:00"
2343241693,Tien Du,16.3964254,48.2593524,Prager Straße,10,Wien,1210,chinese,"Mo-Su,PH 11:00-14:45,17:00-22:30"
2379708163,Gelateria Nori,16.4452198,48.2769578,Thayagasse,9,Wien,1210,cafe,
2447845706,Big! Happy! Box!,16.4464458,48.2624132,Leopoldauer Platz,51,Wien,1210,restaurant,Su-Fr 16:00-21:45
2447871267,Casa Doro,16.4466554,48.2716669,Kürschnergasse,9,Wien,1210,restaurant,
2447881325,Wiener Schnitzel Kaiser,16.4457805,48.2723098,Kürschnergasse,9,Wien,1210,fast_food,
2447881341,Cafe Air,16.4459146,48.2723848,Kürschnergasse,9,Wien,1210,cafe,
2463860299,Wirtshaus am Wasserpark,16.3992181,48.2525634,Paul-Speiser-Hof,,Wien,1210,regional,We-Sa 10:00-22:00; Su 10:00-15:00
2479206355,Cafe Restaurant Marco Polo,16.4101975,48.2779555,Brünner Straße,138A,Wien,1210,cafe,Mo-Th 12:00-22:00; Fr 12:00-23:00; Sa 09:00-23:00; Su 09:00-22:00
2479255806,Artin's Imbiss,16.4127163,48.2840142,Brünner Straße,,Wien,1210,fast_food,Mo-Fr 10:00-22:00
2479293608,Blaue Lagune,16.4212942,48.2974346,Johann-Weber-Straße,28,Wien,1210,restaurant,
2479315108,Leonardelli's Eisbar,16.4174637,48.2929838,Lazarsfeldgasse,2,Wien,1210,cafe,
2495761056,Nino,16.3871976,48.2619847,Bellgasse,38,Wien,1210,pizza,11:00-23:00
2507465152,Leopoldauer Alm,16.4565184,48.2652981,Wagramer Straße,205,Wien,1210,restaurant,
2510053075,Arbeilo,16.433679,48.262725,Leopoldauer Straße,164,Wien,1210,turkish,
2510830722,Chano,16.4414144,48.2637123,Leopoldauer Platz,22,Wien,1210,pizza,"Mo 17:00-22:00; Tu off, We-Fr 17:00-01:00, Fr 11:00-14:30, Sa 11:00-01:00, Su,PH 11:00-22:00"
2510830729,Zeiner,16.4394665,48.2633661,Leopoldauer Platz,15,Wien,1210,restaurant,
2536414363,Mokador,16.3876783,48.2772505,Autokaderstraße,3,Wien,1210,cafe,
2536414627,Schnitzelpalast,16.3885258,48.2770937,Prager Straße,128,Wien,1210,fast_food,
2543961975,Zum Schwaigerwirt,16.394309,48.2577085,Schwaigergasse,14,Wien,1210,restaurant,Tu-Sa 09:00-22:00; Su 09:00-15:00
2552613288,Donaufelder Hof,16.4178304,48.2530364,Donaufelder Straße,66,Wien,1210,restaurant,
2567156026,Cafe Jenewein,16.3856847,48.2672658,Jeneweingasse,11,Wien,1210,cafe,"Mo-Fr 10:00-22:00; PH,Su 10:00-15:00"
2741691424,Dschunke,16.4260228,48.2535398,Angyalföldstraße,76,Wien,1210,restaurant,
2819146101,Heuriger Weingut Schilling,16.384336,48.298679,Langenzersdorfer Straße,54,Wien,1210,heuriger,
2887248102,Roman Loos,16.391984,48.2649669,Voltagasse,67,Wien,1210,restaurant,
3044229601,Ristorante Michelangelo,16.4165215,48.2530535,Donaufelder Straße,58,Wien,1210,pizza,Mo off; Tu-Su 11:00-22:00
3110936889,Buschenschank Fam. Kammerer jun.,16.401338,48.3103953,Stammersdorfer Kellergasse,130,Wien,1210,buschenschank,
3110936890,Zum Hexenhaus,16.4014771,48.3101149,Stammersdorfer Kellergasse,122,Wien,1210,restaurant,Fr-Su
3352860238,Lastella 21,16.452506,48.2701613,Rieglgasse,75,Wien,1210,pizza,
3461389414,USUS am Wasser,16.398665,48.2409906,Hubertusgasse,1,Wien,1210,bar,Th-Su 12:00-24:00
3503645673,Cafe Schwarzlackenau,16.3777977,48.2774709,Wolsteingasse,36,Wien,1210,cafe,"PH,Mo-Su 10:00-22:00"
3503650414,Dir Eisdiele,16.3778836,48.2774602,Wolsteingasse,36,Wien,1210,ice_cream,
3633504185,Casa Mama,16.395842,48.2558347,Wolfsschanzengasse,16,Wien,1210,pizza,11:00-23:15
3696913053,Cafe Floritz,16.3905404,48.2701299,Anton-Bosch-Gasse,27,Wien,1210,cafe,
3713133200,Poidlhütte,16.3785814,48.2640028,KLG Im Äugl-Musteranlage,,Wien,1210,regional,Mo-Sa 09:00-20:00
3908087774,Eurest,16.4265658,48.2684719,Siemensstraße,101,Wien,1210,restaurant,
3956744441,Star Voice Lounge,16.3955848,48.2602311,Prager Straße,17,Wien,1210,bar,Mo-Sa 19:00-04:00
4026537588,Schnitzelparadies,16.3999464,48.262153,Peitlgasse,10,Wien,1210,fast_food,"Mo-Fr, Su 10:30-21:30; Sa off"
4034763869,"Stehbuffet ""am Franz-Jonas-Platz""",16.3992684,48.2577922,Franz-Jonas-Platz,8,Wien,1210,fast_food,24/7
4061239661,'s Amterl,16.396986,48.2584457,Am Spitz,15,Wien,1210,cafe,Mo-Fr 08:00-20:00
4214245844,Latte Macciato,16.4156672,48.2599869,Hawlicekgasse,23,Wien,1210,cafe,
4224269644,Bortolotti,16.4049704,48.2578468,Leopoldauer Straße,5,Wien,1210,ice_cream,
4224269648,Italiano,16.4056989,48.2580124,Leopoldauer Straße,11,Wien,1210,pizza,Mo-Su 11:00-22:15
4224269650,Espresso Leo,16.4045326,48.2577312,Pilzgasse,2,Wien,1210,restaurant,"Mo-Su,PH 10:00-24:00"
4224269653,City Grill,16.4046719,48.2577642,Pilzgasse,2,Wien,1210,barbecue,Mo-Su 10:00-22:00
4224269655,Lisem,16.4048329,48.2578111,Pilzgasse,2,Wien,1210,burger,"Mo-Su,PH 11:00-22:00"
4227675702,Euro Pizza,16.4021885,48.2566902,Schloßhofer Straße,25,Wien,1210,fast_food,09:00-22:00
4227679597,C.C Express,16.4017556,48.2566572,Schloßhofer Straße,20,Wien,1210,fast_food,Mo-Su 10:30-22:00
4227679601,Cafe Ini,16.4016301,48.2567149,Schloßhofer Straße,20,Wien,1210,cafe,"Mo-Fr 08:00-22:00; Sa,PH 09:00-22:00"
4227692976,Da Giovanni,16.3970793,48.2577819,Am Spitz,1,Wien,1210,restaurant,Mo-Fr 10:00-22:00; Sa 10:00-20:00
4291295548,Pizzeria Dominous,16.4149864,48.274994,Siemensstraße,17,Wien,1210,pizza,Mo-Su 11:00-22:00
4318154635,Bro's,16.4070102,48.2557203,Patrizigasse,14,Wien,1210,fast_food,
4318350869,Birner's Helmutino,16.4161355,48.2533129,Donaufelder Straße,73,Wien,1210,cafe,Mo-Su 10:00-22:00
4318578994,Admiral Sportwetten,16.4088937,48.2546414,Donaufelder Straße,6,Wien,1210,cafe,"Mo-Su, PH 08:00-24:00"
4327115046,Saitensprung,16.3954169,48.2554062,Floridsdorfer Hauptstraße,27,Wien,1210,cafe,
4327132266,Hühnerparadies,16.3970268,48.2571095,Floridsdorfer Hauptstraße,45,Wien,1210,chicken;fast_food,Mo-Fr 08:00-20:00
4327162504,KENT,16.3965894,48.2561254,Floridsdorfer Hauptstraße,34,Wien,1210,restaurant,07:00-23:30
4400167892,Floridsdorfer Schmankerl,16.4076445,48.2540537,Kahlgasse,13,Wien,1210,austrian,"Mo - Fr 09:00 - 22:00; Sa 09:00 - 14:00; Su, PH off; Jun, Jul, Aug Sa off"
4400167893,Kinzer Stüberl,16.4099861,48.2526986,Bieler Hof,,Wien,1210,pub,Mo-Su 09:00-22:00
4471380208,Enjoy Noodles,16.4080701,48.2583482,Leopoldauer Straße,24,Wien,1210,fast_food,
4496694613,Trio,16.4080297,48.2548712,Scheffelstraße,33,Wien,1210,kebab;pizza,Mo-Su 10:00-22:00
4533814323,Café by Jöchlinger,16.4125237,48.2869269,Hahnemanngasse,9,Wien,1210,cafe,Mo-Sa 07:30-23:00; Su 14:00-22:30
4771463623,Würstelstand Knödler,16.38658,48.2495432,Donauinsel,2,Wien,1210,fast_food,
4813941531,Chiki,16.4104975,48.257329,Andreas-Hofer-Straße,19,Wien,1210,asian,
4818702601,nefis,16.4075743,48.270283,Louis-Häfliger-Gasse,3,Wien,1210,fast_food,
4867931842,Admiral Sportsbar,16.4002495,48.2572126,Schloßhofer Straße,11-13,Wien,1210,cafe,
4885760041,Tennisplatzkantine Monika,16.4155708,48.2492693,An der Schanze,7,Wien,1210,restaurant,
5138492181,Pizza Lignano,16.4258775,48.285291,Gerasdorfer Straße,138,Wien,1210,pizza,
5141466650,Maroni Walter,16.3874034,48.247016,Donauinselplatz,,Wien,1210,fast_food,"""depends on season and weather"""
5272673012,Wienerwald fast&fresh,16.4522842,48.2629553,Aderklaaer Straße,29,Wien,1210,regional,Mo-Su 10:00-22:00
5272674521,Melih’s Pizza & Kebab,16.4533858,48.2642765,Seyringer Straße,3,Wien,1210,fast_food,Mo-Fr 09:00-19:00; Sa 09:00-18:00
5766190562,Buschenschank im Weingarten,16.3992173,48.3067358,Krottenhofgasse,139,Wien,1210,bar,
5902480485,Zur Christl,16.4024519,48.3084951,Stammersdorfer Kellergasse,85,Wien,1210,biergarten,
5914166733,KFC,16.3989602,48.258228,Pius-Parsch-Platz,1,Wien,1210,fast_food,Mo-Sa 10:00-22:00; Su 11:00-22:00
5922044565,Würstelstand,16.4207102,48.2982447,Josef-Flandorfer-Straße,vor 2,Wien,1210,fast_food,
6022759801,Crazy Pizza & Food,16.4187359,48.2721463,Siemensstraße,67,Wien,1210,pizza,Tu-Su 11:00-22:00; Mo off
6517903744,Edo Kitchen,16.3929119,48.2661379,Prager Straße,57,Wien,1210,asian,Mo-Su 10:45-21:55
7176812749,Buschenschank Biohof N°5,16.4140244,48.302494,Clessgasse,82,Wien,1210,heuriger;regional,
7637310360,Eissalon Dolce Vita,16.4349887,48.2861074,Grellgasse,15,Wien,1210,ice_cream,"May-Sep Mo-Sa 10:00-22:00; May-Sep PH,Su 10:00-20:30; Mar-Apr Mo-Su 11:00-19:00; Oct-Dec Mo-Su 11:00-19:00"
7692397018,Schilfhütte,16.3734742,48.2702266,Stromkilometer,18L,Wien,1210,restaurant,
7834786051,Cafe DuPo,16.4092628,48.2555762,Andreas-Hofer-Straße,12,Wien,1210,restaurant,"Mo-Fr 07:00-22:00; Sa 08:00-22:00; PH,Su 08:00-15:00"
7834802095,Köfte,16.4015627,48.2604523,Schleifgasse,9,Wien,1210,fast_food,
8590000771,Wok Meister,16.4242474,48.3017117,Ebereschengasse,1,Wien,1210,chinese,Mo-Su 11:30-22:30
9140085139,Marillengartl,16.4137663,48.3064498,In den Gabrissen,91,Wien,1210,heuriger,"PH,Sa,Su 12:00-20:00+"
9183735038,Servas,16.3991637,48.2565421,Franz-Jonas-Platz,,Wien,1210,fast_food,
9183735039,Pizza Eck,16.3991144,48.2564869,Franz-Jonas-Platz,,Wien,1210,fast_food,
9272669029,Pizzeria Rossini,16.4102052,48.2545492,Donaufelder Straße,19,Wien,1210,pizza,11:00-23:00
9310039550,Tauber Café Krankenhaus Nord,16.405101,48.2679753,Klinik Floridsdorf,K,Wien,1210,cafe,
9573560682,Wiener Schnitzel Center,16.3967504,48.2601089,Hermann-Bahr-Straße,6,Wien,1210,restaurant,Su-Fr 11:00-21:00; Sa off
9705599217,Ausblick Wien,16.3988505,48.309325,Untere Jungenberggasse,144,Wien,1210,heuriger,
9741356539,Noodle King,16.4078383,48.2766306,Frauenstiftgasse,12A,Wien,1210,fast_food,Mo-Su 11:00-22:00
9826898643,Gasthaus K. Birner,16.4043571,48.2505348,Morelligasse,2,Wien,1210,regional,
9937219216,Eis Maestro,16.3964642,48.2591733,Prager Straße,8,Wien,1210,ice_cream,"Mo-Su,PH 12:00-21:00"
9981859589,Bubble King,16.4465923,48.2718003,Kürschnergasse,9,Wien,1210,cafe,
9981859597,Noodle King,16.4466573,48.2718044,Kürschnergasse,9,Wien,1210,noodle,
9981859598,Asaf,16.4463807,48.271936,Kürschnergasse,9,Wien,1210,fast_food,
10092561058,Treffpunkt,16.3985144,48.2586362,Brünner Straße,6-8,Wien,1210,fast_food,
10092590332,Meg Meg Kebap,16.4007113,48.26183,Floridsdorfer Markt,,Wien,1210,fast_food,
10101672310,Hiro,16.4556377,48.2654438,Julius-Ficker-Straße,95,Wien,1210,japanese,We-Mo 12:00-22:00; PH 12:00-22:00
10167658019,Noodle King,16.4169036,48.292003,Lazarsfeldgasse,2,Wien,1210,fast_food,Mo-Su 11:00-22:00
10219844117,Moccino,16.3991798,48.2664586,Ignaz-Köck-Straße,1,Wien,1210,cafe,
10219844140,Gelateria Ponticello,16.3984166,48.2666338,Ignaz-Köck-Straße,1,Wien,1210,ice_cream,
10219844141,Tauber Café SCN,16.3982476,48.2666601,Demmergasse,13,Wien,1210,cafe,
10219844166,Scala,16.3981524,48.2678221,Ignaz-Köck-Straße,5,Wien,1210,restaurant,
10219844177,Trzesniewski,16.3984048,48.2678647,Ignaz-Köck-Straße,5,Wien,1210,fast_food,
10219952829,Bite by Bite,16.3980015,48.2672218,Ignaz-Köck-Straße,1,Wien,1210,fast_food,
10589257579,Interspar Restaurant,16.3990016,48.2572892,Am Spitz,4,Wien,1210,regional,Mo-Sa 06:00-22:00; Su 07:00-18:00
10730970439,Burger King,16.4005828,48.257507,Schloßhofer Straße,13,Wien,1210,fast_food,"Mo-Th 10:00-23:30, Fr,Sa 10:00-01:00, Su 10:00-23:30"
10753126633,Nachbarn,16.3966247,48.2588311,Prager Straße,4,Wien,1210,austrian;czech;hungarian;polish,We-Su 11:00-22:00
10784893500,Pizzeria Lievito 48 am Markt,16.4017776,48.2616048,Floridsdorfer Markt,,Wien,1210,italian;pizza,
10788197418,Die 2 Lauser,16.4017677,48.261412,Floridsdorfer Markt,,Wien,1210,cafe,Tu-Th 13:00-18:00; Fr 11:00-18:00; Sa 08:00-13:00
10788197419,Die Rösterin,16.4019099,48.2615192,Floridsdorfer Markt,,Wien,1210,cafe,"Tu-Th 14:00-18:00; Fr 08:00-12:00,15:00-18:00; Sa 08:00-14:00"
11159676295,Da Francesco,16.3843775,48.2875586,Rußbergstraße,8,Wien,1210,restaurant,
11159676297,Daniel´s Konditorei,16.3842246,48.2881226,Rußbergstraße,10,Wien,1210,restaurant,Mo-Sa 09:00-17:00
11159676298,Calito´s,16.3841924,48.2880797,Rußbergstraße,10,Wien,1210,restaurant,Mo-Fr 11:00-20:00; Sa 16:00-20:00+; Su 13:00-20:00
11248234695,Oase,16.3966233,48.2749315,Hutterplatz,1,Wien,1210,pizza;italian,
11256928817,Noodle King,16.3791933,48.2969834,Ernst-Vasovec-Gasse,14,Wien,1210,fast_food,
11279437414,Pizzeria Bell Amore,16.3965789,48.257995,Am Spitz,12,Wien,1210,fast_food,
11279437416,1453,16.4031372,48.2735628,Trillergasse,4,Wien,1210,kebab,
11279698469,Weingut Helmut Krenek,16.4011659,48.3104342,Stammersdorfer Kellergasse,131,Wien,1210,restaurant,
11314452145,Keyf,16.3938411,48.2657863,Prager Straße,38,Wien,1210,fast_food,"Mo-Su,PH 09:00-22:00"
11524981729,Wild Bean Cafe,16.3799193,48.2825304,Einzingergasse,2,Wien,1210,cafe,24/7
11745555863,Hit & Hope,16.4557752,48.2656101,Julius-Ficker-Straße,95,Wien,1210,cafe,"Mo-Th 13:00-24:00, Fr-Sa 13:00-01:00, Su 13:00-24:00"
11879217491,Berlastüberl,16.3857986,48.2877638,Berlagasse,1,Wien,1210,restaurant,
11896825990,Christines Strebersdorfer Beisl,16.3843193,48.2913276,Meriangasse,3,Wien,1210,restaurant,Mo-Su 08:00-20:00
11905911067,Buschenschank Familie Szüts & Weinbau Suchel,16.3958684,48.3074767,Untere Jungenberggasse,111,Wien,1210,buschenschank,
12165356401,Spitzdöner,16.3972492,48.2581361,Sonderadresse 21.Bezirk,S,Wien,1210,fast_food,Mo-Fr 08:00-22:00; Sa-Su 09:00-22:00
12270890164,Sushi-Restaurant Martin Kyoto,16.398519,48.2679685,Ignaz-Köck-Straße,5,Wien,1210,restaurant,
12443469036,Jonas,16.3987934,48.255965,Franz-Jonas-Platz,12,Wien,1210,restaurant,
12504235421,KuFung,16.4526373,48.2642686,Wagramer Straße,195,Wien,1210,asian,Mo-Sa 10:00-20:30
12504235446,Cafe Pascucci,16.4525233,48.2629442,Aderklaaer Straße,29,Wien,1210,cafe,Mo-Fr 08:00-19:30; Sa 08:00-18:00
12504235447,Fiftea,16.4525372,48.2630421,Aderklaaer Straße,29,Wien,1210,cafe,Mo-Sa 11:00-19:00
12739352147,Chi-Chis,16.4522215,48.2641209,Aderklaaer Straße,29,Wien,1210,fast_food,
31101025,Helga's Beisl,16.4177375,48.275257,Scottgasse,13A,Wien,1210,pub,
31538555,McDonald's,16.4116064,48.2804922,Carabelligasse,1,Wien,1210,fast_food,Mo-Su 09:00-22:00
31779010,Buschenschank Stöger,16.4033519,48.3075965,Stammersdorfer Kellergasse,66,Wien,1210,regional,
31779049,Dornröschenkeller,16.4051919,48.304684,Stammersdorfer Kellergasse,14,Wien,1210,heuriger,
31830643,Buschenschank In den Gabrissen,16.4079308,48.3099734,In den Gabrissen,50,Wien,1210,heuriger,"""Ab 20 Personen auf Anfrage """
31894045,Stammersdorfer Hauptprostamt,16.4104124,48.3018724,Stammersdorfer Straße,35A,Wien,1210,bar,We-Su 20:00+
32215489,Buschenschank Komada,16.4163673,48.3019231,Steidlgasse,3,Wien,1210,heuriger,
90027534,Zum Goldenen Anker,16.4029169,48.2480858,Birnersteig,W,Wien,1210,fast_food,
90027566,Wasserparkstüberl,16.3951725,48.2488952,KLG ÖBB Floridsdorf 2051 (Strandbäder),,Wien,1210,regional,
90027593,Golfstüberl,16.4003021,48.2488015,Ferdinand-Kaufmann-Platz,,Wien,1210,fast_food,
114186248,Ois Wurscht,16.4102861,48.249255,An der oberen Alten Donau,83,Wien,1210,fast_food,
115399004,Birner's Eisdiele,16.4041329,48.250343,An der oberen Alten Donau,46,Wien,1210,ice_cream,
144285852,Lucky Wok,16.4506882,48.260778,Wagramer Straße,189A,Wien,1210,asian,Mo-Su 11:30-23:00
163120574,aïda,16.4321616,48.2681113,Schönthalergasse,1,Wien,1210,cafe,"Mo-Fr 06:30-19:00; Sa 06:30-19:00; Su,PH 06:30-19:00"
164946262,McDonald's,16.410967,48.2603599,Leopoldauer Straße,49,Wien,1210,fast_food,"Mo-Th 07:00-01:00; Fr-Sa 07:00-02:00; Su, PH 07:00-01:00"
166858412,Lapatschka,16.4333892,48.2963538,Stammersdorfer Straße,242,Wien,1210,austrian,
176384783,Grillhaus Kadlez,16.3930992,48.2707181,Hopfengasse,8,Wien,1210,restaurant,Mo-Sa 16:00-24:00
182559319,Endstation Kebap,16.3868639,48.2917263,Edmund-Hawranek-Platz,gegenüber 1,Wien,1210,fast_food,Mo-Fr 11:00-21:00; Su 13:00-21:00
183963253,Eskimo Eiscafé,16.3861381,48.249734,Donauinsel,2,Wien,1210,ice_cream,"PH,Mo-Su 10:00-17:00"
218932001,Dragonahütte,16.4042442,48.247535,Arbeiterstrandbadstraße,41,Wien,1210,fast_food,
245120372,Buffet zur Ross-Schwemme,16.4084758,48.2497214,An der oberen Alten Donau,69,Wien,1210,fast_food,
264079829,Cio's Hill,16.3815928,48.286079,Scheydgasse,17,Wien,1210,fast_food,
286606303,Leopoldauerhof,16.4257918,48.2624478,Leopoldauer Straße,151,Wien,1210,local;austrian;regional,Mo-Su 11:00-23:00
305674867,Gasthaus Stotzek,16.3957524,48.3029754,Krottenhofgasse,51,Wien,1210,regional,We-Su 10:00-23:00; Oct-May Su 10:00-16:00
344657319,Summer Station,16.3956303,48.2399608,Brigittenauer Brücke,3,Wien,1210,bar,"Mo-Su,PH 11:00-22:00"
353874391,Beim Hannes,16.3837497,48.2988036,Langenzersdorfer Straße,56,Wien,1210,heuriger,"Mo-Sa 16:00+, Su 11:30+, PH 11:30+"
353874711,Sport Grill Buffet Strebersdorf,16.3887262,48.3001377,Johannes-de-La-Salle-Gasse,12,Wien,1210,restaurant,Mo-Su 11:00-22:00
403816550,DreamKebab,16.3937486,48.2655667,Prager Straße,36,Wien,1210,fast_food,"Mo-Su,PH 10:00-22:00"
412683417,Keboss,16.4507307,48.2773686,Schererstraße,46,Wien,1210,fast_food,"PH,Mo-Su 08:00-24:00"
412717658,Nefis,16.4474854,48.2718037,Kürschnergasse,,Wien,1210,fast_food,
434417072,Konak,16.4008207,48.2553007,Franklinstraße,20,Wien,1210,fast_food,Mo-Su 09:00-22:00
450892041,Babylon,16.3917147,48.2696006,Prager Straße,78,Wien,1210,oriental,
491711567,Birner's Gastgarten,16.4036861,48.2504417,An der oberen Alten Donau,45,Wien,1210,biergarten,"PH,Mo-Su 09:00-22:00"
530392004,Gery's Imbiss - mir iß Wurscht,16.3751522,48.2847602,Czeija-Nissl-Gasse,4,Wien,1210,fast_food,"Mo-Th 08:00-18:30, Fr 08:00-16:00"
532400120,Wolf’s Eck,16.3793291,48.2851139,Autokaderstraße,vor 35,Wien,1210,fast_food,Mo-Th 08:00-18:00; Fr 08:00-15:00
562306165,Auerhahn beim Segelzentrum,16.3641961,48.2808082,Am Hubertusdamm,141,Wien,1210,fast_food,
621566982,Weinhandwerk,16.3972718,48.3118802,Senderstraße,27,Wien,1210,heuriger,
739167607,Hexen-Stüberl,16.4458204,48.2763278,KLG ÖBB Schererstraße,,Wien,1210,restaurant,
1005012248,ata,16.4141292,48.2530357,Donaufelder Straße,46,Wien,1210,fast_food,
1070361471,Beachbar,16.3913454,48.2439984,Am Rollerdamm,2,Wien,1210,bar,"Mo-Th 16:00-20:00; Fr 14:00-20:00; Sa,Su,PH 12:00-20:00"
1102189735,Buschenschank Lawies,16.3944296,48.3144846,KLG In den oberen Falkenbergen,,Wien,1210,buschenschank,
1180675910,Sultan-Imbiss,16.4010738,48.2572083,Schloßhofer Straße,17,Wien,1210,fast_food,
1190891098,La Crêperie,16.3982859,48.2511395,An der oberen Alten Donau,6,Wien,1210,french,"Mo-Th 10:00-00:00; Fr, Sa 08:30-00:00; Su 08:30-17:00"
1193005532,NEUERWirt,16.3974123,48.2496709,Ferdinand-Kaufmann-Platz,2,Wien,1210,regional,Mo-Su 11:00-20:00
1204253652,2 Bro's,16.3897193,48.2730656,Rudolf-Virchow-Straße,16,Wien,1210,fast_food,
1211625422,Schlemmer Eck,16.3876518,48.2779403,Prager Straße,165,Wien,1210,restaurant,
